Id,Name,Name_Lang,Branche,Typ,Adresse,PLZ,Ort,Land,E-Mail,Tel,Fax,Pruefung
sozialversicherung_bund_1_20-08-2020,AUVA,Allgemeine Unfallversicherungsanstalt,Gesundheit,Sozialversicherungsträger,Adalbert-Stifter-Straße 65,1200,Wien,Österreich,kontakt@auva.at,+435939320000,+435939320606,20.08.2020
sozialversicherung_bund_2_20-08-2020,KFA der Tiroler Gemeindebeamten,Kranken- und Unfallfürsorge der Tiroler Gemeindebeamten,Gesundheit,Krankenfürsorgeanstalt,Adamgasse 7a,6020,Innsbruck,Österreich,,+43512572838,+4351257283815,20.08.2020
sozialversicherung_bund_3_20-08-2020,KFA der Tiroler Landesbeamten einschließlich der LandeslehrerInnen,Kranken- und Unfallfürsorge der Tiroler Landesbeamten einschließlich der LandeslehrerInnen,Gesundheit,Krankenfürsorgeanstalt,Wiihelm-Greil-Straße 17/II,6020,Innsbruck,Österreich,kuf@tirol.gv.at,+435125082152,+43512508742155,20.08.2020
sozialversicherung_bund_4_20-08-2020,KFA der Beamten der Stadtgemeinde Baden,Krankenfürsorge der Beamten der Stadtgemeinde Baden,Gesundheit,Krankenfürsorgeanstalt,Hauptplatz 1,2500,Baden,Österreich,,+4373270701241,,20.08.2020
sozialversicherung_bund_5_20-08-2020,KFA für die Beamten der Landeshauptstadt Linz,Krankenfürsorge für die Beamten der Landeshauptstadt Linz,Gesundheit,Krankenfürsorgeanstalt,Hauptplatz 1,4020,Linz,Österreich,mkf@mag.linz.at,+4373270701241,,20.08.2020
sozialversicherung_bund_6_20-08-2020,KFA für die Beamten der Stadt Wels,Krankenfürsorge für die Beamten der Stadt Wels,Gesundheit,Krankenfürsorgeanstalt,Stadtpiatz 1,4600,Wels,Österreich,kfw@wels.gv.at,+4372422354800,,20.08.2020
sozialversicherung_bund_7_20-08-2020,KFA für oberösterreichische Gemeinden,Kranken- und Unfallfürsorge für oberösterreichische Gemeinden,Gesundheit,Krankenfürsorgeanstalt,Ferihumerstraße 8,4041,"Linz, Donau Postfach",Österreich,office@kfg.ooe.gv.at,+437327880000,+4373278800030,20.08.2020
sozialversicherung_bund_8_20-08-2020,KFA für oberösterreichische Landesbedienstete,Kranken- und Unfallfürsorge für oberösterreichische Landesbedienstete,Gesundheit,Krankenfürsorgeanstalt,Promenade 28,4010,"Linz, Donau",Österreich,klf.post@ooe.gv.at,+43732772013861,,20.08.2020
sozialversicherung_bund_9_20-08-2020,Oberösterreichische Lehrer-Kranken- und Unfallfürsorge,Oberösterreichische Lehrer-Kranken- und Unfallfürsorge,Gesundheit,Krankenfürsorgeanstalt,Leonfeldner Straße 11,4041,"Linz, Donau Postfach",Österreich,office@kfg.ooe.gv.at,+437326682210,,20.08.2020
sozialversicherung_bund_10_20-08-2020,KFA der Beamten der Stadt Villach,Krankenfürsorgeanstalt der Beamten der Stadt Villach,Gesundheit,Krankenfürsorgeanstalt,Rathausplatz 1,9500,Villach,Österreich,kfa@villach.at,+4342422051919,,20.08.2020
sozialversicherung_bund_11_20-08-2020,KFA der Bediensteten der Stadt Wien,Krankenfürsorgeanstalt der Bediensteten der Stadt Wien,Gesundheit,Krankenfürsorgeanstalt,Schlesingerplatz 5,1081,Wien Postfach,Österreich,generaldirektion@kfa.co.at,+431404360,+43140436099,20.08.2020
sozialversicherung_bund_12_20-08-2020,KFA der Magistratsbeamten der Landeshauptstadt Salzburg,Krankenfürsorgeanstalt der Magistratsbeamten der Landeshauptstadt Salzburg,Gesundheit,Krankenfürsorgeanstalt,Mirabellplatz 4,5024,Salzburg,Österreich,kfa@stadt-salzburg.at,+4366280722530,,20.08.2020
sozialversicherung_bund_13_20-08-2020,KFA für Beamte der Stadt Steyr,Krankenfürsorgeanstalt für Beamte der Stadt Steyr,Gesundheit,Krankenfürsorgeanstalt,"Postfach 200, Stadtplatz 27",4400,Steyr,Österreich,kfa@steyr.gv.at,+437252575,,20.08.2020
sozialversicherung_bund_14_20-08-2020,KFA für die Beamten der Landeshauptstadt Graz,Krankenfürsorgeanstalt für die Beamten der Landeshauptstadt Graz,Gesundheit,Krankenfürsorgeanstalt,Hauptplatz 1,8011,Graz Postfach,Österreich,kfa@stadt.graz.at,+433168725900,,20.08.2020
sozialversicherung_bund_15_20-08-2020,KFA der Beamten der Stadtgemeinde Hallein,Krankenfürsorgeeinrichtung der Beamten der Stadtgemeinde Hallein,Gesundheit,Krankenfürsorgeanstalt,Schöndorferplatz 14,5400,Hallein,Österreich,stadtamt@hallein.gv.at,+4362458988168,,20.08.2020
sozialversicherung_bund_16_20-08-2020,KFA der Beamten der Gemeinde Bad Gastein,Krankenversicherungsfonds der Beamten der Gemeinde Bad Gastein,Gesundheit,Krankenfürsorgeanstalt,Kaiser-Franz-Josef-Straße 1,5640,Bad Gastein,Österreich,,+436434374423,,20.08.2020
sozialversicherung_bund_17_20-08-2020,Pensionsinstitut der Linz AG,Pensionsinstitut der Linz AG,Gesundheit,Zuschusskasse,"Postfach 1300, Wiener Straße 151",4021,"Linz, Donau Postfach",Österreich,pensionsinstitut@linzag.at,+4373234003518,+4373234003522,20.08.2020
sozialversicherung_bund_18_20-08-2020,PVA,Pensionsversicherungsanstalt,Gesundheit,Sozialversicherungsträger,Friedrich-Hillegeist-Straße 1,1021,Wien Postfach,Österreich,pva@pensionsversicherung.at ,+4350303,+435030328850,20.08.2020
sozialversicherung_bund_19_20-08-2020,VA des österreichischen Notariates,Versorgungsanstalt des österreichischen Notariates,Gesundheit,Sozialversicherungsträger,"Florianigasse 2, Postfach 15",1080,Wien,Österreich,office@van.co.at,+43140513810,,20.08.2020
sozialversicherung_bund_20_20-08-2020,BUAK,Bauarbeiter- Urlaubs- und Abfertigungskasse,Gesundheit,Sozialversicherungsträger,Kliebergasse 1A,1050,Wien,Österreich,kommunikation@buak.at,+43579579,,20.08.2020
sozialversicherung_bund_21_20-08-2020,ELGA,ELGA GmbH,Gesundheit,Dienstleister,Treustraße 35-43/ Stg. 4/ 1. Stock,1200,Wien,Österreich,office@elga.gv.at,+4312127050,,20.08.2020
sozialversicherung_bund_22_20-08-2020,GSZ,Gemeinde-Servicezentrum,Gesundheit,Dienstleister,Gabelsbergerstraße 5,9020,Klagenfurt am Wörthersee,Österreich,gsz@ktn.gde.at,+4346355111300,+4346355111222,20.08.2020
sozialversicherung_bund_23_20-08-2020,Gemeindeverband für das Pensionsrecht der Tiroler Gemeindebeamten,Gemeindeverband für das Pensionsrecht der Tiroler Gemeindebeamten,Gesundheit,Dienstleister,Adamgasse 7 A,6020,Innsbruck,Österreich,,+43512572838,,20.08.2020
sozialversicherung_bund_24_20-08-2020,Dachverband der Sozialversicherungsträger,Dachverband der Sozialversicherungsträger,Gesundheit,Dienstleister,Kundmanngasse 21,1030,Wien,Österreich,posteingang.allgemein@sozialversicherung.at,+431711320,,20.08.2020
sozialversicherung_bund_25_20-08-2020,HK-SKA,HK-SKA Betriebs-GmbH,Gesundheit,Dienstleister,Gartenstraße 9,4820,Bad Ischl,Österreich,info@herzreha.at,+436132278010,+436132278018190,20.08.2020
sozialversicherung_bund_26_20-08-2020,IEF-Service,IEF-Service GmbH,Gesundheit,Dienstleister,Linke Wienzeile 246,1150,Wien,Österreich,office@insolvenzentgelt.at,+43120512120,,20.08.2020
sozialversicherung_bund_27_20-08-2020,IT-Services der Sozialversicherung,IT-Services der Sozialversicherung GmbH,Gesundheit,Dienstleister,Johann-Böhm-Platz 1,1020,Wien,Österreich,office@itsv.at,+43501248445600,+43501248445080,20.08.2020
sozialversicherung_bund_28_20-08-2020,SVC,Sozialversicherungs-Chipkarten Betriebs- und Errichtungsgesellschaft m.b.H.,Gesundheit,Dienstleister,Ernst-Melchior-Gasse 22,1020,Wien,Österreich,info@svc.co.at,+43501247140,+43501247143776,20.08.2020
sozialversicherung_bund_29_20-08-2020,SVD,SVD Büromanagement GmbH,Gesundheit,Dienstleister,Dresdner Straße 45,1200,Wien,Österreich,office@svdgmbh.at,+4317981414,+4317981414200,20.08.2020
sozialversicherung_bund_30_20-08-2020,BVAEB,"Versicherungsanstalt öffentlich Bediensteter, Eisenbahnen und Bergbau",Gesundheit,Sozialversicherungsträger,Josefstätter Straße 80,1080,Wien,Österreich,postoffice@bvaeb.sv.at,+4350405,+435040522900,20.08.2020
sozialversicherung_bund_31_20-08-2020,ÖGK,Österreichische Gesundheitskasse,Gesundheit,Sozialversicherungsträger,"Haidingergasse 1, Postfach 7",1006,Wien,Österreich,office@oegk.at,+43507660,,20.08.2020
sozialversicherung_bund_32_20-08-2020,SVS,Sozialversicherungsanstalt der Selbstständigen,Gesundheit,Sozialversicherungsträger,Wiedner Hauptstraße 84-86,1051,Wien Postfach,Österreich,dsb@svs.at,+4350808808,,20.08.2020
sozialversicherung_bund_33_20-08-2020,Allianz Vorsorgekasse,Allianz Vorsorgekasse AG,Gesundheit,Vorsorgekasse,Hietzinger Kai 101-105,1130,Wien,Österreich,servicekasse@allianz.at,+435900980181,+435900940128,20.08.2020
sozialversicherung_bund_34_20-08-2020,APK Vorsorgekasse,APK Vorsorgekasse AG,Gesundheit,Vorsorgekasse,Thomas-Klestil-Platz 13,1030,Wien,Österreich,office@apk-vk.at,+435027550,+43502755609,20.08.2020
sozialversicherung_bund_35_20-08-2020,BONUS Vorsorgekasse,BONUS Vorsorgekasse AG,Gesundheit,Vorsorgekasse,Traungasse 14-16,1030,Wien,Österreich,kundenservice@bonusvorsorge.at,+4319949974,+43199499741999,20.08.2020
sozialversicherung_bund_36_20-08-2020,BUAK Betriebliche Vorsorgekasse,BUAK Betriebliche Vorsorgekasse GesmbH,Gesundheit,Vorsorgekasse,Kliebergasse 1a,1050,Wien,Österreich,buak-bvk@buak.at,+435795793000,+4357957993099,20.08.2020
sozialversicherung_bund_37_20-08-2020,fair-finance Vorsorgekasse,fair-finance Vorsorgekasse AG,Gesundheit,Vorsorgekasse,Alser Straße 21,1080,Wien,Österreich,office@fair-finance.at,+43140571710,+431405717171,20.08.2020
sozialversicherung_bund_38_20-08-2020,Niederösterreichische Vorsorgekasse,Niederösterreichische Vorsorgekasse AG,Gesundheit,Vorsorgekasse,Neue Herrengasse 10,3100,St. Pölten,Österreich,office@noevk.at,+432742905557100+432742905557120,,20.08.2020
sozialversicherung_bund_39_20-08-2020,Valida Plus,Valida Plus AG,Gesundheit,Vorsorgekasse,Mooslackengasse 12,1190,Wien,Österreich,office@valida.at,+431316480,+431316486010,20.08.2020
sozialversicherung_bund_40_20-08-2020,VBV – Vorsorgekasse,VBV – Vorsorgekasse AG,Gesundheit,Vorsorgekasse,Obere Donaustraße 49-53,1020,Wien,Österreich,info@vorsorgekasse.at,+431217018500,+4312170178260,20.08.2020
bundesschulen_bund_35_20-08-2020,HBLFA Tirol,Höhere Bundeslehr- und Forschungsanstalt für Landwirtschaft und Ernährung sowie Lebensmittel- und Biotechnologie Tirol,Bundesbehörde,Bundesschule,Rotholz 50,6200,Jenbach,Österreich,schule@hblfa-tirol.at,+43524462262,+43524462262930,20.08.2020
kammern_bund_1_18-08-2020,Bundeskammer der ZiviltechnikerInnen,Bundeskammer der ZiviltechnikerInnen,Interessensvertretung,Kammer,Karlsgasse 9/2,1040,Wien,Österreich,office@arching.at,+4315055807,+4315053211,18.08.2020
kammern_bund_2_18-08-2020,Kammer der Steuerberater und Wirtschaftsprüfer,Kammer der Steuerberater und Wirtschaftsprüfer,Interessensvertretung,Kammer,Schönbrunner Straße 222-228,1120,Wien,Österreich,office@ksw.or.at,+431811730,+43181173100,18.08.2020
kammern_bund_3_18-08-2020,Arbeiterkammer,Kammer für Arbeiter und Angestellte für Wien als Büro der Bundesarbeitskammer,Interessensvertretung,Kammer,Prinz-Eugen-Straße 20-22,1040,Wien,Österreich,akmailbox@akwien.at,+431501650,,18.08.2020
kammern_bund_4_18-08-2020,Apothekerkammer,Österreichische Apothekerkammer,Interessensvertretung,Kammer,Spitalgasse 31,1090,Wien,Österreich,info@apotheker.or.at,+43140414100,+4314088440,18.08.2020
kammern_bund_5_18-08-2020,Ärztekammer,Österreichische Ärztekammer,Interessensvertretung,Kammer,Weihburggasse 10-12,1010,Wien,Österreich,post@aerztekammer.at,+431514063000,+431514063042,18.08.2020
kammern_bund_6_18-08-2020,Notariatskammer,Österreichische Notariatskammer,Interessensvertretung,Kammer,Landesgerichtsstraße 20 ,1010,Wien,Österreich,kammer@notar.or.at,+43140245090,+4314063475,18.08.2020
kammern_bund_7_18-08-2020,Patentanwaltskammer,Österreichische Patentanwaltskammer,Interessensvertretung,Kammer,Linke Wienzeile 4/1/9,1060,Wien,Österreich,info@oepak.at,+4315234382,+438109554103327,18.08.2020
kammern_bund_8_18-08-2020,Tierärztekammer,Österreichische Tierärztekammer,Interessensvertretung,Kammer,Hietzinger Kai 87,1130,Wien,Österreich,oe@tieraerztekammer.at,+4315121766,+4315121470,18.08.2020
kammern_bund_9_18-08-2020,Zahnärztekammer,Österreichische Zahnärztekammer,Interessensvertretung,Kammer,Kohlmarkt 11/6,1010,Wien,Österreich,office@zahnaerztekammer.at,+4350511,+43505111167,18.08.2020
kammern_bund_10_18-08-2020,Österreichischer Landarbeiterkammertag,Österreichischer Landarbeiterkammertag,Interessensvertretung,Kammer,Marco d´Avianogasse 1/1,1015,Wien,Österreich,oelakt@landarbeiterkammer.at,+4315122331,+431512233170,18.08.2020
kammern_bund_11_18-08-2020,Österreichischer Rechtsanwaltskammertag,Österreichischer Rechtsanwaltskammertag,Interessensvertretung,Kammer,Wollzeile 1-3,1010,Wien,Österreich,rechtsanwaelte@oerak.at,+43153512750,+431535127513,18.08.2020
kammern_bund_12_18-08-2020,Pharmazeutische Gehaltskasse,Pharmazeutische Gehaltskasse für Österreich,Interessensvertretung,Kammer,Spitalgasse 31,1090,Wien,Österreich,office@gk.or.at,+43140414200,+43140414249,18.08.2020
kammern_bund_13_18-08-2020,Wirtschaftskammer,Wirtschaftskammer Österreich,Interessensvertretung,Kammer,Wiedner Hauptstraße 63,1045,Wien,Österreich,office@wko.at,+43590900,+43590900250,18.08.2020
staatsnahe_staatseigene_unternehmen_bund_1_21-08-2020,ASFINAG,Autobahnen- und Schnellstraßen Finanzierungs-Aktiengesellschaft,Infrastruktur,Dienstleister,"Rotenturmstraße 5-9, Postfach 983",1011,Wien Postfach,Österreich,office@asfinag.at,+435010810000,+435010810020,21.08.2020
staatsnahe_staatseigene_unternehmen_bund_2_21-08-2020,BIG,Bundesimmobiliengesellschaft m.b.H.,Infrastruktur,Dienstleister,Trabrennstraße 2c,1020,Wien,Österreich,office@big.at,+43502440,+43502442211,21.08.2020
staatsnahe_staatseigene_unternehmen_bund_3_21-08-2020,Österreichische Bundesforste,Österreichische Bundesforste AG,Infrastruktur,Dienstleister,Pummergasse 10-12 ,3002,Purkersdorf,Österreich,bundesforste@bundesforste.at,+4322316000,,21.08.2020
staatsnahe_staatseigene_unternehmen_bund_4_21-08-2020,GIS,GIS Gebühren Info Service GmbH,Infrastruktur,Dienstleister,"Faulmanngasse 4, Postfach 1000",1051,Wien Postfach,Österreich,kundenservice@gis.at,+4350200,+4350200300,21.08.2020
staatsnahe_staatseigene_unternehmen_bund_5_21-08-2020,AMS,Arbeitsmarktservice,Sozialleistungen,Dienstleister,Treustraße 35-43,1200,Wien,Österreich,ams.oesterreich@ams.at,+4350904199,+4350904188,21.08.2020
staatsnahe_staatseigene_unternehmen_bund_6_21-08-2020,Nationalfonds der Republik Österreich für Opfer des Nationalsozialismus,Nationalfonds der Republik Österreich für Opfer des Nationalsozialismus,Sozialleistungen,Dienstleister,"Parlament, Dr.-Karl-Renner-Ring 3",1017,Wien-Parlament,Österreich,nf-sekretariat@nationalfonds.org,+4314081263,,21.08.2020
staatsnahe_staatseigene_unternehmen_bund_7_21-08-2020,Bundesbeschaffung,Bundesbeschaffung GmbH,Infrastruktur,Dienstleister,Lassallestraße 9b,1020,Wien,Österreich,office@bbg.gv.at,+431245700,+4312457099,21.08.2020
staatsnahe_staatseigene_unternehmen_bund_8_21-08-2020,BRZ,Bundesrechenzentrum GmbH,Infrastruktur,Dienstleister,Hintere Zollamtsstraße 4,1030,Wien,Österreich,kommunikation@brz.gv.at,+431711230,,21.08.2020
staatsnahe_staatseigene_unternehmen_bund_9_21-08-2020,Bundesstelle für Sektenfragen,Bundesstelle für Sektenfragen,Infrastruktur,Dienstleister,Wollzeile 12/2/19,1010,Wien,Österreich,bundesstelle@sektenfragen.at,+4315130460,+431513046030,21.08.2020
staatsnahe_staatseigene_unternehmen_bund_10_21-08-2020,ÖNB,Österreichische Nationalbibliothek,Bildung,Museum / Theater / Bibliothek,"Josefsplatz 1, Postfach 25",1015,Wien,Österreich,onb@onb.ac.at ,+43153410,+43153410280,21.08.2020
staatsnahe_staatseigene_unternehmen_bund_11_21-08-2020,Volksoper,Volksoper Wien,Kultur,Museum / Theater / Bibliothek,Währinger Straße 78 ,1090,Wien,Österreich,office@volksoper.at,+431514440,+431514443215,21.08.2020
staatsnahe_staatseigene_unternehmen_bund_12_21-08-2020,Bundestheater Holding,Bundestheater-Holding GmbH,Kultur,Museum / Theater / Bibliothek,Goethegasse 1,1010,Wien,Österreich,office@bundestheater.at,+431514440,,21.08.2020
staatsnahe_staatseigene_unternehmen_bund_13_21-08-2020,Burgtheater,Burgtheater GmbH,Kultur,Museum / Theater / Bibliothek,Universitätsring 2,1010,Wien,Österreich,info@burgtheater.at,+431514444545,,21.08.2020
staatsnahe_staatseigene_unternehmen_bund_14_21-08-2020,Kunsthistorisches Museum,Kunsthistorisches Museum,Bildung,Museum / Theater / Bibliothek,Burgring 5,1010,Wien,Österreich,info@khm.at,+431525240,+431525244099,21.08.2020
staatsnahe_staatseigene_unternehmen_bund_15_21-08-2020,Naturhistorisches Museum,Naturhistorisches Museum Wien,Bildung,Museum / Theater / Bibliothek,Burgring 7,1010,Wien,Österreich,info@nhm-wien.ac.at,+431521770,+43152177578,21.08.2020
staatsnahe_staatseigene_unternehmen_bund_16_21-08-2020,Technisches Museum,Technisches Museum Wien mit Österreichischer Mediathek,Bildung,Museum / Theater / Bibliothek,Mariahilfer Straße 212,1140,Wien,Österreich,museumsbox@tmw.at  ,+431899980,,21.08.2020
staatsnahe_staatseigene_unternehmen_bund_17_21-08-2020,Agentur für Passagier- und Fahrgastrechte,Österreichische Gesellschaft für Schienenmarktregulierung mit beschränkter Haftung,Interessensvertretung,Dienstleister,Linke Wienzeile 4/1/6,1060,Wien,Österreich,office@schienencontrol.gv.at,+4315050707,,21.08.2020
staatsnahe_staatseigene_unternehmen_bund_18_21-08-2020,Austria Wirtschaftsservice,Austria Wirtschaftsservice Gesellschaft m.b.H.,Wirtschaftsförderung,Dienstleister,Walcherstraße 11A,1020,Wien,Österreich,post@aws.at,+431501750,+43150175900,21.08.2020
staatsnahe_staatseigene_unternehmen_bund_19_21-08-2020,Staatsoper,Wiener Staatsoper GmbH,Kultur,Museum / Theater / Bibliothek,Opernring 2,1010,Wien,Österreich,information@wiener-staatsoper.at,+431514442250,+431514442259,21.08.2020
staatsnahe_staatseigene_unternehmen_bund_20_21-08-2020,ORF,Österreichischer Rundfunk,Infrastruktur,Öffentliches Unternehmen,Würzburggasse 30,1136,Wien,Österreich,kundendienst@orf.at,+431878780,+4318787830,21.08.2020
staatsnahe_staatseigene_unternehmen_bund_21_21-08-2020,Spanische Hofreitschule – Lipizzanergestüt Piber,Spanische Hofreitschule – Lipizzanergestüt Piber,Bundesbehörde,Öffentliches Unternehmen,Michaelerplatz 1,1010,Wien,Österreich,office@srs.at,+4315339031,,21.08.2020
staatsnahe_staatseigene_unternehmen_bund_22_20-08-2020,AGES,Österreichische Agentur für Gesundheit und Ernährungssicherheit GmbH,Bundesbehörde,Öffentliches Unternehmen,Spargelfeldstrasse 191,1220,Wien,Österreich,management@ages.at,+43505550,+435055522019,20.08.2020
staatsnahe_staatseigene_unternehmen_bund_23_21-08-2020,Landwirtschaftliche Bundesversuchswirtschaften,Landwirtschaftliche Bundesversuchswirtschaften GmbH,Bundesbehörde,Öffentliches Unternehmen,Rottenhauserstraße 32,3250,Wieselburg,Österreich,office@bvw.at,+437416522410,+4374165224115,21.08.2020
staatsnahe_staatseigene_unternehmen_bund_24_20-08-2020,LFRZ,"Land-, forst- und wasserwirtschaftliches Rechenzentrum GmbH",Infrastruktur,Dienstleister,Hintere Zollamtsstraße 4,1030,Wien,Österreich,office@lfrz.gv.at,+431331760,,20.08.2020
staatsnahe_staatseigene_unternehmen_bund_25_20-08-2020,WSR,Wirtschafts- und Sozialwissenschaftliches Rechenzentrum,Infrastruktur,Dienstleister,Arsenal Objekt 20,1030,Wien,Österreich,info@wsr.ac.at,+4317981122,+431798112250,20.08.2020
staatsnahe_staatseigene_unternehmen_bund_26_21-08-2020,ÖBAG,Österreichische Beteiligungs AG,Infrastruktur,Dienstleister,Kolingasse 14-16,1090,Wien,Österreich,kontakt@oebag.gv.at,+431711140,,21.08.2020
staatsnahe_staatseigene_unternehmen_bund_27_22-08-2020,OeSD,Österreichische Staatsdruckerei GmbH,Infrastruktur,Dienstleister,Tenschertstraße 7,1239,Wien,Österreich,office@staatsdruckerei.at,+431206660,+43120666100,22.08.2020
staatsnahe_staatseigene_unternehmen_bund_28_22-08-2020,Dorotheum,Dorotheum GmbH & Co KG,Wirtschaftsförderung,Dienstleister,Dorotheergasse 17,1010,Wien,Österreich,client.services@dorotheum.at,+431515600,+43151560443,22.08.2020
staatsnahe_staatseigene_unternehmen_bund_29_22-08-2020,Austria Tabak,JTI Austria GmbH,Erzeugung,Dienstleister,Erdberger Lände 26a/71,1030,Wien,Österreich,konsumentenservice@jti.com,+431313421,,22.08.2020
staatsnahe_staatseigene_unternehmen_bund_30_22-08-2020,Vamed,Vamed AG,Gesundheit,Dienstleister,Sterngasse 5,1230,Wien,Österreich,office@vamed.com,+431601270,+43160127108,22.08.2020
bundesbehoerden_bund_1_20-08-2020,"Bundesministerium für Soziales, Gesundheit, Pflege und Konsumentenschutz","Bundesministerium für Soziales, Gesundheit, Pflege und Konsumentenschutz",Bundesbehörde,Bundesministerium,Stubenring 1,1010,Wien,Österreich,post@sozialministerium.at,+431711000,+4317158258,20.08.2020
bundesbehoerden_bund_2_20-08-2020,"Bundesministerium für Bildung, Wissenschaft und Forschung","Bundesministerium für Bildung, Wissenschaft und Forschung",Bundesbehörde,Bundesministerium,Minoritenplatz 5,1010,Wien,Österreich,ministerium@bmbwf.gv.at,+431531200,+431531203099,20.08.2020
bundesbehoerden_bund_3_20-08-2020,Bundesministerium für europäische und internationale Angelegenheiten,Bundesministerium für europäische und internationale Angelegenheiten,Bundesbehörde,Bundesministerium,Minoritenplatz 8,1010,Wien,Österreich,post@bmeia.gv.at,+43501150,+43501159,20.08.2020
bundesbehoerden_bund_4_20-08-2020,"Bundesministerium für Arbeit, Familie und Jugend","Bundesministerium für Arbeit, Familie und Jugend",Bundesbehörde,Bundesministerium,Untere Donaustraße 13 - 15,1020,Wien,Österreich,office@bmafj.gv.at,+431711000,,20.08.2020
bundesbehoerden_bund_5_20-08-2020,Bundesministerium für Finanzen,Bundesministerium für Finanzen,Bundesbehörde,Bundesministerium,Johannesgasse 5,1010,Wien,Österreich,post@bmf.gv.at,+431514330,,20.08.2020
bundesbehoerden_bund_6_20-08-2020,Bundesministerium für Inneres,Bundesministerium für Inneres,Bundesbehörde,Bundesministerium,Herrengasse 7,1010,Wien,Österreich,post@bmi.gv.at,+431531260,+43153126108613,20.08.2020
bundesbehoerden_bund_7_20-08-2020,Bundesministerium für Justiz,Bundesministerium für Justiz,Bundesbehörde,Bundesministerium,Museumstraße 7,1070,Wien,Österreich,post@bmj.gv.at,+4315263686,,20.08.2020
bundesbehoerden_bund_8_20-08-2020,"Bundesministerium für Landwirtschaft, Regionen und Tourismus","Bundesministerium für Landwirtschaft, Regionen und Tourismus",Bundesbehörde,Bundesministerium,Stubenring 1,1010,Wien,Österreich,office@bmlrt.gv.at,+431711000,+43171100606503,20.08.2020
bundesbehoerden_bund_9_20-08-2020,Bundesministerium für Landesverteidigung,Bundesministerium für Landesverteidigung,Bundesbehörde,Bundesministerium,Roßauer Lände 1,1090,Wien,Österreich,buergerservice@bmlv.gv.at,+43502011021160,,20.08.2020
bundesbehoerden_bund_10_20-08-2020,"Bundesministerium für Klimaschutz, Umwelt, Energie, Mobilität, Innovation und Technologie","Bundesministerium für Klimaschutz, Umwelt, Energie, Mobilität, Innovation und Technologie",Bundesbehörde,Bundesministerium,Radetzkystraße 2,1030,Wien,Österreich,servicebuero@bmk.gv.at,+43171162650,,20.08.2020
bundesbehoerden_bund_11_20-08-2020,"Bundesministerium für Kunst, Kultur, öffentlichen Dienst und Sport","Bundesministerium für Kunst, Kultur, öffentlichen Dienst und Sport",Bundesbehörde,Bundesministerium,Radetzkystraße 2,1030,Wien,Österreich,buergerservice@bmkoes.gv.at,+431716060,,20.08.2020
bundesbehoerden_bund_12_20-08-2020,Bundesministerium für Digitalisierung und Wirtschaftsstandort,Bundesministerium für Digitalisierung und Wirtschaftsstandort,Bundesbehörde,Bundesministerium,Stubenring 1,1010,Wien,Österreich,service@bmdw.gv.at,+431711000,,20.08.2020
bundesbehoerden_bund_13_20-08-2020,Sozialministeriumservice,Bundesamt für Soziales und Behindertenwesen – Sozialministeriumservice,Bundesbehörde,Bundesbehörde,Babenbergerstraße 5,1010,Wien,Österreich,post@sozialministeriumservice.at,+4359988,+431588312266,20.08.2020
bundesbehoerden_bund_14_20-08-2020,Beschussamt Wien,Beschussamt Wien,Bundesbehörde,Bundesbehörde,Wielandweg 27,1220,Wien,Österreich,office-wien@beschussamt.gv.at,+43173462680,+431734626812,20.08.2020
bundesbehoerden_bund_15_20-08-2020,Beschussamt Ferlach,Beschussamt Ferlach,Bundesbehörde,Bundesbehörde,Maschinenhausgasse 3-4,9170,Ferlach,Österreich,office-ferlach@beschussamt.gv.at,+4342272576,+4342274174,20.08.2020
bundesbehoerden_bund_16_20-08-2020,Bundeskanzleramt,Bundeskanzleramt,Bundesbehörde,Bundesbehörde,Ballhausplatz 2,1010,Wien,Österreich,service@bka.gv.at,+431531150,+43153115204274,20.08.2020
bundesbehoerden_bund_17_20-08-2020,Datenschutzbehörde,Österreichische Datenschutzbehörde,Bundesbehörde,Bundesbehörde,Barichgasse 40-42,1030,Wien,Österreich,dsb@dsb.gv.at,+431521522569,,20.08.2020
bundesbehoerden_bund_18_20-08-2020,KommAustria,KommAustria,Bundesbehörde,Nachgeordnete Behörde,Mariahilfer Straße 77-79,1060,Wien,Österreich,rtr@rtr.at,+431580580,+431580589191,20.08.2020
bundesbehoerden_bund_19_20-08-2020,RTR,Rundfunk und Telekom Regulierungs-GmbH,Bundesbehörde,Nachgeordnete Behörde,Mariahilfer Straße 77-79,1060,Wien,Österreich,rtr@rtr.at,+431580580,+431580589191,20.08.2020
bundesbehoerden_bund_20_20-08-2020,Bundesverwaltungsgericht,Bundesverwaltungsgericht,Bundesbehörde,Gericht,Erdbergstraße 192-196,1030,Wien,Österreich,einlaufstelle@bvwg.gv.at,+431601490,+431711238891541,20.08.2020
bundesbehoerden_bund_21_20-08-2020,Verwaltungsgerichtshof,Verwaltungsgerichtshof,Bundesbehörde,Gericht,"Judenplatz 11, Postfach 50",1016,Wien,Österreich,office@vwgh.gv.at,+431531110,+43153111101508,20.08.2020
bundesbehoerden_bund_22_20-08-2020,Oberster Gerichtshof,Oberster Gerichtshof,Bundesbehörde,Gericht,Schmerlingplatz 11,1010,Wien,Österreich,christoph.brenn@justiz.gv.at,+431521520,+431521523710,20.08.2020
bundesbehoerden_bund_23_20-08-2020,Verfassungsgerichtshof,Verfassungsgerichtshof,Bundesbehörde,Gericht,Freyung 8,1010,Wien,Österreich,vfgh@vfgh.gv.at,+431531220,+431531220499,20.08.2020
bundesbehoerden_bund_24_20-08-2020,Bundesdenkmalamt,Bundesdenkmalamt,Bundesbehörde,Bundesbehörde,"Hofburg, Säulenstiege",1010,Wien,Österreich,service@bda.gv.at,+43153415,,20.08.2020
bundesbehoerden_bund_25_20-08-2020,Hofmusikkapelle,Hofmusikkapelle,Bundesbehörde,Nachgeordnete Behörde,"Hofburg, Schweizerhof",1010,Wien,Österreich,office@hofmusikkapelle.gv.at,+4315339927,+431533992780,20.08.2020
bundesbehoerden_bund_26_20-08-2020,Sicherheitsuntersuchungsstelle des Bundes,Sicherheitsuntersuchungsstelle des Bundes,Bundesbehörde,Nachgeordnete Behörde,"Radetzkystraße 2, Postfach 206",1000,Wien,Österreich,sub@bmvit.gv.at,+43171162657777,+43171162659298,20.08.2020
bundesbehoerden_bund_27_20-08-2020,BFTK,Büro für Funkanlagen und Telekommunikationsendeinrichtungen,Bundesbehörde,Nachgeordnete Behörde,Radetzkystraße 2,1030,Wien,Österreich,bftk@bmvit.gv.at,+43171162654040,+43171162654049,20.08.2020
bundesbehoerden_bund_28_20-08-2020,Fernmeldebehörde Republik Österreich,Fernmeldebehörde Republik Österreich,Bundesbehörde,Nachgeordnete Behörde,Radetzkystraße 2,1030,Wien,Österreich,fb@bmvit.gv.at,+43171162650,+4317130326,20.08.2020
bundesbehoerden_bund_29_20-08-2020,Bundesamt für Wasserwirtschaft,Bundesamt für Wasserwirtschaft,Bundesbehörde,Nachgeordnete Behörde,Scharfling 18,5310,Mondsee,Österreich,direktion@baw.at,+43623238470,+436232384733,20.08.2020
bundesbehoerden_bund_30_20-08-2020,Bundesamt für Weinbau,Bundesamt für Weinbau,Bundesbehörde,Bundesanstalt,Gölbeszeile 1,7000,Eisenstadt,Österreich,office@bawb.at,+43268265905,+4326826590542,20.08.2020
bundesbehoerden_bund_31_20-08-2020,Bundesanstalt für Agrarwirtschaft und Bergbauernfragen,Bundesanstalt für Agrarwirtschaft und Bergbauernfragen,Bundesbehörde,Bundesanstalt,Dietrichgasse 27,1030,Wien,Österreich,office@bab.gv.at,+43171100637415,+43171100637490,20.08.2020
bundesbehoerden_bund_32_20-08-2020,BFW,"Bundesforschungs- und Ausbildungszentrum für Wald, Naturgefahren und Landschaft sowie Bundesamt für Wald",Bundesbehörde,Bundesanstalt,Seckendorff-Gudent-Weg 8,1131,Wien Postfach,Österreich,direktion@bfw.gv.at,+431878381250,+431878381250,20.08.2020
bundesbehoerden_bund_33_20-08-2020,Österreichische Bundesgärten,HBFLA für Gartenbau Schönbrunn und Österreichische Bundesgärten,Bundesbehörde,Nachgeordnete Behörde,Grünbergstraße 24,1130,Wien,Österreich,office@bundesgaerten.at,+43181359500,+431813595099,20.08.2020
bundesbehoerden_bund_34_20-08-2020,Bundeskellereiinspektion,Bundeskellereiinspektion,Bundesbehörde,Nachgeordnete Behörde,Marxergasse 2,1030,Wien,Österreich,elfriede.gumprecht@bundeskellereiinspektion.at,+43171100637025,+43171100637054,20.08.2020
bundesbehoerden_bund_35_20-08-2020,Statistik Austria,Bundesanstalt Statistik Österreich ,Bundesbehörde,Bundesanstalt,Guglgasse 13,1110,Wien,Österreich,office@statistik.gv.at ,+431711280,+431711287728,20.08.2020
bundesbehoerden_bund_36_20-08-2020,E-Control,Energie-Control Austria für die Regulierung der Elektrizitäts- und Erdgaswirtschaft,Bundesbehörde,Bundesanstalt,Rudolfsplatz 13a,1010,Wien,Österreich,office@e-control.at,+431247240,+43124724900,20.08.2020
bundesbehoerden_bund_37_20-08-2020,GBA,Geologische Bundesanstalt,Bundesbehörde,Bundesanstalt,Neulinggasse 38,1030,Wien,Österreich,office@geologie.ac.at,+4317125674,+431712567456,20.08.2020
bundesbehoerden_bund_38_20-08-2020,ZAMG,Zentralanstalt für Meteorologie und Geodynamik ,Bundesbehörde,Bundesanstalt,Hohe Warte 38,1190,Wien,Österreich,dion@zamg.ac.at,+43136026,+4313691233,20.08.2020
bundesbehoerden_bund_39_20-08-2020,Gedenkstätte Mauthausen,Gedenkstätte Mauthausen,Bundesbehörde,Bundesanstalt,"Argentinierstraße 13, Top 103+104",1040,Wien,Österreich,office@mauthausen-memorial.org,+4313763000100,,20.08.2020
bundesbehoerden_bund_40_20-08-2020,JBA,Justizbetreuungsagentur,Bundesbehörde,Bundesanstalt,Universitätsstraße 5/7,1010,Wien,Österreich,office@jba.gv.at,+4319089022300,+4319089022310,20.08.2020
bundesbehoerden_bund_41_20-08-2020,BHAG,Buchhaltungsagentur des Bundes,Bundesbehörde,Bundesanstalt,Dresdner Straße 89,1200,Wien,Österreich,ds@bhag.gv.at,+4350506859843,,20.08.2020
bundesbehoerden_bund_42_20-08-2020,Agentur für Rechnungswesen,Agentur für Rechnungswesen GmbH,Bundesbehörde,Öffentliches Unternehmen,Dresdner Straße 89,1200,Wien,Österreich,office@arw.gv.at,+43505060,,20.08.2020
bundesbehoerden_bund_43_20-08-2020,BEV,Bundesamt für Eich- und Vermessungswesen,Bundesbehörde,Bundesamt,Schiffamtsgasse 1-3,1020,Wien,Österreich,kundenservice@bev.gv.at,+43121110822160,+4312111082992161,20.08.2020
bundesbehoerden_bund_44_20-08-2020,BAES,Bundesamt für Ernährungssicherheit,Bundesbehörde,Bundesamt,"p.A. AGES, Spargelfeldstrasse 191",1200,Wien,Österreich,baes@baes.gv.at,+435055532350,,20.08.2020
bundesbehoerden_bund_45_20-08-2020,BFA,Bundesamt für Fremdenwesen und Asyl,Bundesbehörde,Bundesamt,Modecenterstraße 22,1030,Wien,Österreich,BFA-Einlaufstelle@bmi.gv.at,+4359133987004,+4359133987399,20.08.2020
bundesbehoerden_bund_46_20-08-2020,BAK,Bundesamt zur Korruptionsprävention und Korruptionsbekämpfung,Bundesbehörde,Bundesamt,Herrengasse 7,1010,Wien,Österreich,BMI-III-BAK-SPOC@bak.gv.at,+43153126906800,+43153126108583,20.08.2020
bundesbehoerden_bund_47_20-08-2020,BASG,Bundesamt für Sicherheit im Gesundheitswesen,Bundesbehörde,Bundesamt,Traisengasse 5,1200,Wien,Österreich,basg_anfragen@basg.gv.at,+435055536111,+435055536111,20.08.2020
bundesbehoerden_bund_48_20-08-2020,BVT,Bundesamt für Verfassungsschutz und Terrorismusbekämpfung,Bundesbehörde,Bundesamt,"Herrengasse 7, Postfach 100",1010,Wien,Österreich,BMI-II-BVT@bmi.gv.at,+431531260,+43153126108613,20.08.2020
bundesbehoerden_bund_49_20-08-2020,BFW,Bundesamt für Wald,Bundesbehörde,Bundesamt,Seckendorff-Gudent-Weg 8,1131,Wien Postfach,Österreich,bundesamt@bfw.gv.at,+431878382214,,20.08.2020
bundesbehoerden_bund_50_20-08-2020,Umweltbundesamt,Umweltbundesamt GmbH,Bundesbehörde,Bundesamt,Spittelauer Lände 5,1090,Wien,Österreich,datenschutzbeauftragter@umweltbundesamt.at,+43131304,+431313045400,20.08.2020
bundesbehoerden_bund_51_20-08-2020,AMS,Arbeitsmarktservice,Bundesbehörde,Öffentliches Unternehmen,Treustraße 35-43,1200,Wien,Österreich,ams.oesterreich@ams.at,+4350904199,+4350904188,20.08.2020
bundesbehoerden_bund_52_20-08-2020,Austro Control,Österreichische Gesellschaft für Zivilluftfahrt mit beschränkter Haftung,Bundesbehörde,Bundesamt,Wagramer Straße 19,1220,Wien,Österreich,info@austrocontrol.at,‘+43517030,‘+435170301536,20.08.2020
bundesbehoerden_bund_53_20-08-2020,Österreichische Nationalbank,Österreichische Nationalbank,Bundesbehörde,Bundesamt,Otto-Wagner-Platz 3,1090,Wien,Österreich,posteingang@oenb.at,+431404200,+43140420042399,20.08.2020
bundesbehoerden_bund_54_20-08-2020,Rechnungshof,Rechnungshof Österreich,Bundesbehörde,Bundesamt,Dampfschiffstraße 2,1031,Wien Postfach,Österreich,office@rechnungshof.gv.at,+431711710,,20.08.2020
bundesbehoerden_bund_55_20-08-2020,Schienen Control,Österreichische Gesellschaft für Schienenmarktregulierung mit beschränkter Haftung,Bundesbehörde,Bundesamt,Linke Wienzeile 4/1/6,1060,Wien,Österreich,office@schienencontrol.gv.at,+4315050707,,20.08.2020
bundesbehoerden_bund_56_20-08-2020,Patentamt,Österreichisches Patentamt,Bundesbehörde,Bundesamt,Dresdner Straße 87,1200,Wien,Österreich,info@patentamt.at,+431534240,,20.08.2020
bundesbehoerden_bund_57_20-08-2020,Heerespersonalamt,Heerespersonalamt,Bundesbehörde,Nachgeordnete Behörde,Panikengasse 2,1163,Wien,Österreich,hpa.wien1@bmlvs.gv.at,+4350201991650,,20.08.2020
gewerkschaften_bund_1_22-08-2020,ÖGB,Österreichischer Gewerkschaftsbund,Interessensvertretung,Gewerkschaft,Johann-Böhm-Platz 1,1020,Wien,Österreich,oegb@oegb.at,+4315344439,,22.08.2020
gewerkschaften_bund_2_22-08-2020,GPA-djp,"Gewerkschaft der Privatangestellten, Druck, Journalismus, Papier",Interessensvertretung,Gewerkschaft,Alfred-Dallinger-Platz 1,1034,Wien,Österreich,service@gpa-djp.at,+4350301301,,22.08.2020
gewerkschaften_bund_3_22-08-2020,GÖD,Gewerkschaft Öffentlicher Dienst,Interessensvertretung,Gewerkschaft,Teinfaltstraße 7,1010,Wien,Österreich,goed@goed.at,+431534540,,22.08.2020
gewerkschaften_bund_4_22-08-2020,younion,younion_Die Daseinsgewerkschaft,Interessensvertretung,Gewerkschaft,Maria-Theresien-Straße 11,1090,Wien,Österreich,infocenter@younion.at,+431313168300,,22.08.2020
gewerkschaften_bund_5_22-08-2020,GBH,Gewerkschaft Bau-Holz,Interessensvertretung,Gewerkschaft,Johann-Böhm-Platz 1,1020,Wien,Österreich,bau-holz@gbh.at,+4315344459110,,22.08.2020
gewerkschaften_bund_6_22-08-2020,vida,Gewerkschaft vida,Interessensvertretung,Gewerkschaft,Johann-Böhm-Platz 1,1020,Wien,Österreich,info@vida.at,+43153444790,,22.08.2020
gewerkschaften_bund_7_22-08-2020,GPF,Gewerkschaft der Post- und Fernmeldebediensteten,Interessensvertretung,Gewerkschaft,Johann-Böhm-Platz 1,1020,Wien,Österreich,gpf@gpf.at,+4315344449440,,22.08.2020
gewerkschaften_bund_8_22-08-2020,PROGE,Produktionsgewerkschaft,Interessensvertretung,Gewerkschaft,Johann-Böhm-Platz 1,1020,Wien,Österreich,proge@proge.at,+43153444690,,22.08.2020
burgenland_burgenland_1_19-08-2020,Bildungsdirektion Burgenland,Bildungsdirektion Burgenland,Bildung,Behörde,Kernausteig 3,7000,Eisenstadt,Österreich,office@bildung-bgld.gv.at,+432682710,+4326827101009,19.08.2020
burgenland_burgenland_2_19-08-2020,Landespolizeidirektion Burgenland,Landespolizeidirektion Burgenland,Infrastruktur,Polizei,Neusiedler Straße 84,7000,Eisenstadt,Österreich,LPD-B@polizei.gv.at,+4359133100,+4359133101009,19.08.2020
burgenland_burgenland_3_18-08-2020,Wirtschaftskammer Burgenland,Wirtschaftskammer Burgenland,Interessensvertretung,Kammer,Robert-Graf-Platz 1,7000,Eisenstadt,Österreich,wkbgld@wkbgld.at,+435909072000,+435909072015,18.08.2020
burgenland_burgenland_4_18-08-2020,Rechtanswaltskammer Burgenland,Rechtanswaltskammer Burgenland,Interessensvertretung,Kammer,Marktstraße 3,7000,Eisenstadt,Österreich,rak.bgld@aon.at,+43720211990,+43720211991,18.08.2020
burgenland_burgenland_5_18-08-2020,Landeszahnärztekammer Burgenland,Landeszahnärztekammer Burgenland,Interessensvertretung,Kammer,Schlossplatz 1,7431,Bad Tatzmannsdorf,Österreich,office@bgld.zahnaerztekammer.at,+43505117000,+43505117002,18.08.2020
burgenland_burgenland_6_18-08-2020,"Notariatskammer für Wien, Niederösterreich und Burgenland ","Notariatskammer für Wien, Niederösterreich und Burgenland ",Interessensvertretung,Kammer,Landesgerichtsstraße 20,1010,Wien,Österreich,kammer-wnb@notar.or.at,+43140245090,+4314063475,18.08.2020
burgenland_burgenland_7_18-08-2020,Ärztekammer Burgenland,Ärztekammer Burgenland,Interessensvertretung,Kammer,Johann Permayerstraße 3,7000,Eisenstadt,Österreich,office@aekbgld.at,+43268262521,+4326826252190,18.08.2020
burgenland_burgenland_8_18-08-2020,Apothekerkammer Burgenland,Apothekerkammer Burgenland,Interessensvertretung,Kammer,Permayerstraße 3,7000,Eisenstadt,Österreich,burgenland@apothekerkammer.at,+43268261645,+43268266115,18.08.2020
burgenland_burgenland_9_18-08-2020,Kammer der Steuerberater und Wirtschaftsprüfer Burgenland,Kammer der Steuerberater und Wirtschaftsprüfer Burgenland,Interessensvertretung,Kammer,Schönbrunnerstraße 222-228/1/6/2,1120,Wien,Österreich,office@ksw.or.at,+431811730,+43181173100,18.08.2020
burgenland_burgenland_10_18-08-2020,"Kammer der ZiviltechnikerInnen für Wien, Niederösterreich und Burgenland","Kammer der ZiviltechnikerInnen für Wien, Niederösterreich und Burgenland",Interessensvertretung,Kammer,Karlsgasse 9/1,1040,Wien,Österreich,kammer@arching.at,+4315051781,+4315051005,18.08.2020
burgenland_burgenland_11_18-08-2020,Arbeiterkammer Burgenland,Kammer für Arbeiter und Angestellte für das Burgenland,Interessensvertretung,Kammer,Wiener Straße 7,7000,Eisenstadt,Österreich,akbgld@akbgld.at,+432682740,,18.08.2020
kaernten_kaernten_1_19-08-2020,Bildungsdirektion für Kärnten,Bildungsdirektion für Kärnten,Bildung,Behörde,10. -Oktober-Straße 24,9020,Klagenfurt am Wörthersee,Österreich,office@bildung-ktn.gv.at,+4350534,+435053411111,19.08.2020
kaernten_kaernten_2_19-08-2020,Landespolizeidirektion Kärnten,Landespolizeidirektion Kärnten,Infrastruktur,Polizei,Buchengasse 3,9020,Klagenfurt am Wörthersee,Österreich,LPD-K@polizei.gv.at,+4359133200,+4359133201009,19.08.2020
kaernten_kaernten_3_18-08-2020,Wirtschaftskammer Kärnten,Wirtschaftskammer Kärnten,Interessensvertretung,Kammer,Europaplatz 1,9021,Klagenfurt am Wörthersee Postfach,Österreich,wirtschaftskammer@wkk.or.at,+435909040,+43590904704,18.08.2020
kaernten_kaernten_4_18-08-2020,Rechtanswaltskammer Kärnten,Rechtanswaltskammer Kärnten,Interessensvertretung,Kammer,Theatergasse 4,9020,Klagenfurt am Wörthersee,Österreich,kammer@rechtsanwaelte-kaernten.at,+43463512425,+4346351242515,18.08.2020
kaernten_kaernten_5_18-08-2020,Landeszahnärztekammer Kärnten,Landeszahnärztekammer Kärnten,Interessensvertretung,Kammer,Neuer Platz 7/1,9020,Klagenfurt am Wörthersee,Österreich,office@ktn.zahnaerztekammer.at,+43505119020,+43505119023,18.08.2020
kaernten_kaernten_6_18-08-2020,Ärztekammer Kärnten,Ärztekammer Kärnten,Interessensvertretung,Kammer,St. Veiter Straße 34/II,9020,Klagenfurt am Wörthersee,Österreich,aek@aekktn.at,+46358560,+463514222,18.08.2020
kaernten_kaernten_7_18-08-2020,Apothekerkammer Kärnten,Apothekerkammer Kärnten,Interessensvertretung,Kammer,Alter Platz 24/II,9020,Klagenfurt am Wörthersee,Österreich,kaernten@apothekerkammer.at,+43463513366,+4346351336620,18.08.2020
kaernten_kaernten_8_18-08-2020,Arbeiterkammer Kärnten,Kammer für Arbeiter und Angestellte für Kärnten,Interessensvertretung,Kammer,Bahnhofplatz 3,9021,Klagenfurt am Wörthersee Postfach,Österreich,arbeiterkammer@akktn.at,+4350477,+43504772400,18.08.2020
kaernten_kaernten_9_18-08-2020,Kammer der Steuerberater und Wirtschaftsprüfer Kärnten,Kammer der Steuerberater und Wirtschaftsprüfer Kärnten,Interessensvertretung,Kammer,"Lakeside B11 a, 1. OG",9020,Klagenfurt am Wörthersee,Österreich,kaernten@ksw.or.at,+43463512944,+434635129445,18.08.2020
kaernten_kaernten_10_18-08-2020,Kammer der ZiviltechnikerInnen für Steiermark und Kärnten,Kammer der ZiviltechnikerInnen für Steiermark und Kärnten,Interessensvertretung,Kammer,Schönaugasse 7/1,8010,Graz,Österreich,office@ztkammer.at,+43316826344,+4331682634425,18.08.2020
kaernten_kaernten_11_18-08-2020,Landarbeiterkammer Kärnten,Landarbeiterkammer Kärnten,Interessensvertretung,Kammer,Bahnhofstrasse 44/III,9020,Klagenfurt am Wörthersee,Österreich,lak@lakktn.at,+434635870419,+434635870420,18.08.2020
kaernten_kaernten_12_18-08-2020,Notariatskammer für Kärnten,Notariatskammer für Kärnten,Interessensvertretung,Kammer,Lakeside B 11 a,9020,Klagenfurt am Wörthersee,Österreich,office@ktn-notare.at,+43463512797,+434635127974,18.08.2020
niederoesterreich_niederoesterreich_1_19-09-2020,Bildungsdirektion für Niederösterreich,Bildungsdirektion für Niederösterreich,Bildung,Behörde,Rennbahnstraße 29,3109,St. Pölten,Österreich,office@bildung-noe.gv.at,‘+4327422800,‘+4327422801111,19.09.2020
niederoesterreich_niederoesterreich_2_19-09-2020,Landespolizeidirektion Niederösterreich,Landespolizeidirektion Niederösterreich,Infrastruktur,Polizei,Neue Herrengasse 15,3100,St. Pölten,Österreich,LPD-N@polizei.gv.at,+4359133300,+4359133301009,19.09.2020
niederoesterreich_niederoesterreich_3_19-09-2020,VP NÖ,Volkspartei Niederösterreich,Interessensvertretung,Partei,Ferstlergasse 4,3100,St. Pölten,Österreich,vp.direkt@vpnoe.at,+4327429020,,19.09.2020
niederoesterreich_niederoesterreich_4_19-09-2020,SPÖ NÖ,"Sozialdemokratischen Partei Österreichs, Landesorganisation Niederösterreich",Interessensvertretung,Partei,Niederösterreichring 1a,3100,St. Pölten,Österreich,servicenoe@spoe.at,+4327422255,,19.09.2020
niederoesterreich_niederoesterreich_5_19-09-2020,Grüne NÖ,Die Grünen Niederösterreich,Interessensvertretung,Partei,Daniel Gran Straße 48,3100,St. Pölten,Österreich,noe@gruene.at,‘+432742310660,‘+43274231066011,19.09.2020
niederoesterreich_niederoesterreich_6_19-09-2020,FPÖ NÖ,FPÖ-Landesgruppe NÖ,Interessensvertretung,Partei,Purkersdorferstraße 38,3100,St. Pölten,Österreich,fpoe-niederoesterreich@fpoe.at,‘+432742256280,+43274225628034,19.09.2020
niederoesterreich_niederoesterreich_7_18-08-2020,Wirtschaftskammer Niederösterreich,Wirtschaftskammer Niederösterreich,Interessensvertretung,Kammer,Wirtschaftskammer-Platz 1,3100,St. Pölten,Österreich,wknoe@wknoe.at,+4327428510,+43274285115899,18.08.2020
niederoesterreich_niederoesterreich_8_18-08-2020,Rechtanswaltskammer Niederösterreich,Rechtanswaltskammer Niederösterreich,Interessensvertretung,Kammer,Andreas-Hofer-Straße 6,3100,St. Pölten,Österreich,office@raknoe.at,+432742716500,+43274276588,18.08.2020
niederoesterreich_niederoesterreich_9_18-08-2020,Landeszahnärztekammer Niederösterreich,Landeszahnärztekammer Niederösterreich,Interessensvertretung,Kammer,Kremser Gasse 20,3100,St. Pölten,Österreich,office@noe.zahnaerztekammer.at,+43505113100,+43505113109,18.08.2020
niederoesterreich_niederoesterreich_10_18-08-2020,"Notariatskammer für Wien, Niederösterreich und Burgenland ","Notariatskammer für Wien, Niederösterreich und Burgenland ",Interessensvertretung,Kammer,Landesgerichtsstraße 20,1010,Wien,Österreich,kammer-wnb@notar.or.at,+43140245090,+4314063475,18.08.2020
niederoesterreich_niederoesterreich_11_18-08-2020,Ärztekammer Niederösterreich,Ärztekammer Niederösterreich,Interessensvertretung,Kammer,Wipplingerstraße 2,1010,Wien,Österreich,arztnoe@arztnoe.at,+431537510,+4315375119,18.08.2020
niederoesterreich_niederoesterreich_12_18-08-2020,Apothekerkammer Niederösterreich,Apothekerkammer Niederösterreich,Interessensvertretung,Kammer,Spitalgasse 31,1091,Wien Postfach,Österreich,noe@apothekerkammer.at,+43140414162,+4314088818,18.08.2020
niederoesterreich_niederoesterreich_13_18-08-2020,Arbeiterkammer Niederösterreich,Kammer für Arbeiter und Angestellte für Niederösterreich,Interessensvertretung,Kammer,AK-Platz 1,3100,St. Pölten,Österreich,mailbox@aknoe.at,+4357171,,18.08.2020
niederoesterreich_niederoesterreich_14_18-08-2020,Kammer der Steuerberater und Wirtschaftsprüfer Niederösterreich,Kammer der Steuerberater und Wirtschaftsprüfer Niederösterreich,Interessensvertretung,Kammer,Schönbrunnerstraße 222-228/1/6/2,1120,Wien,Österreich,office@ksw.or.at,+431811730,+43181173100,18.08.2020
niederoesterreich_niederoesterreich_15_18-08-2020,"Kammer der ZiviltechnikerInnen für Wien, Niederösterreich und Burgenland","Kammer der ZiviltechnikerInnen für Wien, Niederösterreich und Burgenland",Interessensvertretung,Kammer,Karlsgasse 9/1,1040,Wien,Österreich,kammer@arching.at,+4315051781,+4315051005,18.08.2020
niederoesterreich_niederoesterreich_16_18-08-2020,NÖ Landarbeiterkammer,Kammer für Arbeiter und Angestellte in der Land- und Forstwirtschaft in Niederösterreich,Interessensvertretung,Kammer,Marco d'Avianogasse 1/1,1010,Wien,Österreich,lak@lak-noe.at,+431512160110,+4315139366,18.08.2020
bezirkshauptmannschaften_oberoesterreich_1_19-08-2020,BH Braunau,Bezirkshauptmannschaft Braunau,Bezirksbehörde,Administration,Hammersteinplatz 1,5280,Braunau am Inn,Österreich,bh-br.post@ooe.gv.at,+4377228030,,19.08.2020
bezirkshauptmannschaften_oberoesterreich_2_19-08-2020,BH Freistadt,Bezirkshauptmannschaft Freistadt,Bezirksbehörde,Administration,Promenade 5,4240,Freistadt,Österreich,bh-fr.post@ooe.gv.at,+4379427020,+437942702262399,19.08.2020
bezirkshauptmannschaften_oberoesterreich_3_19-08-2020,BH Gmunden,Bezirkshauptmannschaft Gmunden,Bezirksbehörde,Administration,Esplanade 10,4810,Gmunden,Österreich,bh-gm.post@ooe.gv.at,+4376127920,+437327720263399,19.08.2020
bezirkshauptmannschaften_oberoesterreich_4_19-08-2020,BH Grieskirchen und Eferding,Bezirkshauptmannschaften Grieskirchen und Eferding,Bezirksbehörde,Administration,Manglburg 14,4710,Grieskirchen,Österreich,BH-GR-EF.Post@ooe.gv.at,+4372486030,+437327720264399,19.08.2020
bezirkshauptmannschaften_oberoesterreich_5_19-08-2020,BH Kirchdorf,Bezirkshauptmannschaft Kirchdorf,Bezirksbehörde,Administration,Garnisonstraße 3,4560,Kirchdorf an der Krems,Österreich,bh-ki.post@ooe.gv.at,+4375826850,+437582685265399,19.08.2020
bezirkshauptmannschaften_oberoesterreich_6_19-08-2020,BH Linz-Land,Bezirkshauptmannschaft Linz-Land,Bezirksbehörde,Administration,Kärntnerstraße 14-16,4020,Linz,Österreich,bh-ll.post@ooe.gv.at,+43732694140,+4373269414266399,19.08.2020
bezirkshauptmannschaften_oberoesterreich_7_19-08-2020,BH Perg,Bezirkshauptmannschaft Perg,Bezirksbehörde,Administration,Dirnbergerstraße 11,4320,Perg,Österreich,bh-pe.post@ooe.gv.at,+4372625510,+437262551267399,19.08.2020
bezirkshauptmannschaften_oberoesterreich_8_19-08-2020,BH Ried,Bezirkshauptmannschaft Ried,Bezirksbehörde,Administration,Parkgasse 1,4910,Ried im Innkreis,Österreich,bh-ri.post@ooe.gv.at,+4377529120,+437327720268399,19.08.2020
bezirkshauptmannschaften_oberoesterreich_9_19-08-2020,BH Rohrbach,Bezirkshauptmannschaft Rohrbach,Bezirksbehörde,Administration,Am Teich 1,4150,Rohrbach in Oberösterreich,Österreich,bh-ro.post@ooe.gv.at,+43728988510,+4372898851269399,19.08.2020
bezirkshauptmannschaften_oberoesterreich_10_19-08-2020,BH Schärding,Bezirkshauptmannschaft Schärding,Bezirksbehörde,Administration,Ludwig-Pfliegl-Gasse 11,4780,Schärding,Österreich,Personal.BH-SD.Post@ooe.gv.at,+43771231050,+4377123105270399,19.08.2020
bezirkshauptmannschaften_oberoesterreich_11_19-08-2020,BH Steyr-Land,Bezirkshauptmannschaft Steyr-Land,Bezirksbehörde,Administration,Spitalskystraße 10a,4400,Steyr,Österreich,bh-se.post@ooe.gv.at,+437252523610,+43725252361271399,19.08.2020
bezirkshauptmannschaften_oberoesterreich_12_19-08-2020,BH Urfahr-Umgebung,Bezirkshauptmannschaft Urfahr-Umgebung,Bezirksbehörde,Administration,Peuerbachstraße 26,4040,Linz,Österreich,bh-uu.post@ooe.gv.at,+437327313010,+43732731301272399,19.08.2020
bezirkshauptmannschaften_oberoesterreich_13_19-08-2020,BH Vöcklabruck,Bezirkshauptmannschaft Vöcklabruck,Bezirksbehörde,Administration,Sportplatzstraße 1-3,4840,Vöcklabruck,Österreich,bh-vb.post@ooe.gv.at,+4376727020,+437672702273399,19.08.2020
bezirkshauptmannschaften_oberoesterreich_14_19-08-2020,BH Wels-Land,Bezirkshauptmannschaft Wels-Land,Bezirksbehörde,Administration,Herrengasse 8,4600,Wels,Österreich,bh-wl.post@ooe.gv.at,+4372426180,+437242618274399,19.08.2020
oberoesterreich_oberoesterreich_1_19-08-2020,Bildungsdirektion Oberösterreich,Bildungsdirektion Oberösterreich,Bildung,Behörde,Sonnensteinstraße 20,4040,Linz,Österreich,bd.post@bildung-ooe.gv.at,+4373270714131,+4373270714140,19.08.2020
oberoesterreich_oberoesterreich_2_19-08-2020,Landespolizeidirektion Oberösterreich,Landespolizeidirektion Oberösterreich,Infrastruktur,Polizei,Gruberstraße 35,4021,"Linz, Donau Postfach",Österreich,LPD-O@polizei.gv.at,+4359133500,+4359133407800,19.08.2020
oberoesterreich_oberoesterreich_3_18-08-2020,Wirtschaftskammer Oberösterreich,Wirtschaftskammer Oberösterreich,Interessensvertretung,Kammer,Hessenplatz 3,4020,Linz,Österreich,service@wkooe.at,+43590909,+435909092800,18.08.2020
oberoesterreich_oberoesterreich_4_18-08-2020,Rechtanswaltskammer Oberösterreich,Rechtanswaltskammer Oberösterreich,Interessensvertretung,Kammer,Gruberstraße 21,4020,Linz,Österreich,office@ooerak.or.at,+43732771730,+4373277173085,18.08.2020
oberoesterreich_oberoesterreich_5_18-08-2020,Landeszahnärztekammer Oberösterreich,Landeszahnärztekammer Oberösterreich,Interessensvertretung,Kammer,Marienstraße 9/1,4020,Linz,Österreich,office@ooe.zahnaerztekammer.at,+43505114010,+43505114014,18.08.2020
oberoesterreich_oberoesterreich_6_18-08-2020,Notariatskammer für Oberösterreich,Notariatskammer für Oberösterreich,Interessensvertretung,Kammer,Schmiedegasse 20/5,4040,Linz,Österreich,oberoesterreich@notariatskammer.at,+43732737073,+43732708019,18.08.2020
oberoesterreich_oberoesterreich_7_18-08-2020,Ärztekammer Oberösterreich,Ärztekammer Oberösterreich,Interessensvertretung,Kammer,Dinghoferstraße 4,4010,"Linz, Donau",Österreich,aekooe@aekooe.at,+437327783710,+43732783660300,18.08.2020
oberoesterreich_oberoesterreich_8_18-08-2020,Apothekerkammer Oberösterreich,Apothekerkammer Oberösterreich,Interessensvertretung,Kammer,Mozartstraße 26/1,4020,Linz,Österreich,ooe@apothekerkammer.at,+43732770350,+4314028602951,18.08.2020
oberoesterreich_oberoesterreich_9_18-08-2020,Arbeiterkammer Oberösterreich,Kammer für Arbeiter und Angestellte für Oberösterreich,Interessensvertretung,Kammer,Volksgartenstraße 40,4020,Linz,Österreich,online@akooe.at,+43506906,+435069062860,18.08.2020
oberoesterreich_oberoesterreich_10_18-08-2020,Kammer der Steuerberater und Wirtschaftsprüfer Oberösterreich,Kammer der Steuerberater und Wirtschaftsprüfer Oberösterreich,Interessensvertretung,Kammer,Landstraße 49/III,4020,Linz,Österreich,ooe@ksw.or.at,+43732773385,+4373277338515,18.08.2020
oberoesterreich_oberoesterreich_11_18-08-2020,Kammer der ZiviltechnikerInnen für Oberösterreich und Salzburg,Kammer der ZiviltechnikerInnen für Oberösterreich und Salzburg,Interessensvertretung,Kammer,Kaarstraße 2/II,4040,Linz,Österreich,linz@arching-zt.at,+43732738394,+437327383944,18.08.2020
oberoesterreich_oberoesterreich_12_18-08-2020,OÖ Landarbeiterkammer,Kammer für Arbeiter und Angestellte in der Land- und Forstwirtschaft in OÖ,Interessensvertretung,Kammer,Scharitzerstraße 9,4020,Linz,Österreich,office@lak-ooe.at,+43732656381,,18.08.2020
kirchen_privat_1_18-08-2020,Alevitische Glaubensgemeinschaft in Österreich,Alevitische Glaubensgemeinschaft in Österreich,Interessensvertretung,Religionsgemeinschaft,Schererstraße 4,1210,Wien,Österreich,info@evang.at,+436602852624,,18.08.2020
kirchen_privat_2_18-08-2020,Altkatholische Kirche Österreich,Altkatholische Kirche Österreich,Interessensvertretung,Religionsgemeinschaft,Schottenring 17,1010,Wien,Österreich,kirchenleitung@altkatholiken.at,+4313178394,,18.08.2020
kirchen_privat_3_18-08-2020,Armenisch-apostolische Kirche in Österreich ,Armenisch-apostolische Kirche in Österreich ,Interessensvertretung,Religionsgemeinschaft,Kolonitzgasse 11,1030,Wien,Österreich,office@aakg.at,+4317180965,+4318906886,18.08.2020
kirchen_privat_4_18-08-2020,Evangelische Kirche A.B. und H.B.,Evangelische Kirche A.B. und H.B.,Interessensvertretung,Religionsgemeinschaft,Severin-Schreiber-Gasse 1+3,1180,Wien,Österreich,info@evang.at ,+4359151700,,18.08.2020
kirchen_privat_5_18-08-2020,Evangelisch-methodistische Kirche in Österreich,Evangelisch-methodistische Kirche in Österreich,Interessensvertretung,Religionsgemeinschaft,Sechshauser Straße 56/1/9,1150,Wien,Österreich,superintendent@emk.at,+4316045347,,18.08.2020
kirchen_privat_6_18-08-2020,Freikirchen in Österreich,Freikirchen in Österreich,Interessensvertretung,Religionsgemeinschaft,Karl-Popper-Straße 16,1100,Wien,Österreich,datenschutz@freikirchen.at,+4319436714,,18.08.2020
kirchen_privat_7_18-08-2020,Griechisch-orientalische Kirche,Griechisch-orientalische Kirche,Interessensvertretung,Religionsgemeinschaft,Fleischmarkt 13,1010,Wien,Österreich,office@orthodoxe-kirche.at,+4315333889,+4315333889,18.08.2020
kirchen_privat_8_18-08-2020,Islamische Glaubensgemeinschaft in Österreich,Islamische Glaubensgemeinschaft in Österreich,Interessensvertretung,Religionsgemeinschaft,Bernardgasse 5,1070,Wien,Österreich,office@derislam.at,+4315263122,+43152631222,18.08.2020
kirchen_privat_9_18-08-2020,Israelitische Religionsgesellschaft,Israelitische Religionsgesellschaft,Interessensvertretung,Religionsgemeinschaft,Seitenstettengasse 4,1010,Wien,Österreich,office@ikg-wien.at,+431531040,+43153104108,18.08.2020
kirchen_privat_10_18-08-2020,Jehovas Zeugen in Österreich,Jehovas Zeugen in Österreich,Interessensvertretung,Religionsgemeinschaft,Kaiserstrasse 36/25,1070,Wien,Österreich,Pid-at.de@jw.org,+4318045345,,18.08.2020
kirchen_privat_11_18-08-2020,Katholische Kirche,Katholische Kirche,Interessensvertretung,Religionsgemeinschaft,Rotenturmstraße 2,1010,Wien,Österreich,sekretariat@bischofskonferenz.at,+431516111010,+431516111037,18.08.2020
kirchen_privat_12_18-08-2020,Kirche Jesu Christi der Heiligen der letzten Tage (Mormonen) in Österreich,Kirche Jesu Christi der Heiligen der letzten Tage (Mormonen) in Österreich,Interessensvertretung,Religionsgemeinschaft,Böcklinstraße 55,1020,Wien,Österreich,info@hlt.at,+436641351715,+431890629315,18.08.2020
kirchen_privat_13_18-08-2020,Koptisch-orthodoxe Kirche in Österreich,Koptisch-orthodoxe Kirche in Österreich,Interessensvertretung,Religionsgemeinschaft,Quadenstrasse 4-6,1220,Wien,Österreich,info@kopten.at,+4312827443,+4312827443,18.08.2020
kirchen_privat_14_18-08-2020,Neuapostolische Kirche in Österreich,Neuapostolische Kirche in Österreich,Interessensvertretung,Religionsgemeinschaft,"Mittersteig 10, Postfach 49",1050,Wien,Österreich,info@nak.at,+4315860521,+431586052130,18.08.2020
kirchen_privat_15_18-08-2020,Österreichische Buddhistische Religionsgesellschaft ,Österreichische Buddhistische Religionsgesellschaft ,Interessensvertretung,Religionsgemeinschaft,Fleischmarkt 16,1010,Wien,Österreich,office@buddhismus-austria.at ,+4315123719,+431512371913,18.08.2020
kirchen_privat_16_18-08-2020,Syrisch-orthodoxe Kirche in Österreich,Syrisch-orthodoxe Kirche in Österreich,Interessensvertretung,Religionsgemeinschaft,Stefan-Fadinger-Platz 1,1100,Wien,Österreich,,+4318040916,,18.08.2020
kirchen_privat_17_18-08-2020,Alt-Alevitische Glaubensgemeinschaft in Österreich,Alt-Alevitische Glaubensgemeinschaft in Österreich,Interessensvertretung,Religionsgemeinschaft,Kennergasse 10/R1,1100,Wien,Österreich,info@alt-aleviten.at,,,18.08.2020
kirchen_privat_18_18-08-2020,Bahá´í-Religionsgemeinschaft in Österreich ,Bahá´í-Religionsgemeinschaft in Österreich ,Interessensvertretung,Religionsgemeinschaft,Maroltingergasse 2,1140,Wien,Österreich,ngr@at.bahai.org,+4314791153,+431479115319,18.08.2020
kirchen_privat_19_18-08-2020,Die Christengemeinschaft-Bewegung für Religiöse Erneuerungen in Österreich ,Die Christengemeinschaft-Bewegung für Religiöse Erneuerungen in Österreich ,Interessensvertretung,Religionsgemeinschaft,Mariahilferstraße 49/2/30,1060,Wien,Österreich,wien@christengemeinschaft.at,+4315871287,,18.08.2020
kirchen_privat_20_18-08-2020,Hinduistische Religionsgesellschaft in Österreich ,Hinduistische Religionsgesellschaft in Österreich ,Interessensvertretung,Religionsgemeinschaft,Lammgasse 1,1080,Wien,Österreich,info@hroe.at,,,18.08.2020
kirchen_privat_21_18-08-2020,Islamisch-Schiitische Glaubensgemeinschaft in Österreich,Islamisch-Schiitische Glaubensgemeinschaft in Österreich,Interessensvertretung,Religionsgemeinschaft,Pezzlgasse 58,1170,Wien,Österreich,office@schia.at,+43699111979350,,18.08.2020
kirchen_privat_22_18-08-2020,Kirche der Siebenten-Tags-Adventisten in Österreich ,Kirche der Siebenten-Tags-Adventisten in Österreich ,Interessensvertretung,Religionsgemeinschaft,Prager Straße 287,1210,Wien,Österreich,office@adventisten.at,+4313199301,+4313199301199,18.08.2020
kirchen_privat_23_18-08-2020,Pfingstkirche Gemeinde Gottes in Österreich,Pfingstkirche Gemeinde Gottes in Österreich,Interessensvertretung,Religionsgemeinschaft,Maculangasse 9,1220,Wien,Österreich,office@gemeindegottes.at,,,18.08.2020
kirchen_privat_24_18-08-2020,Vereinigungskirche in Österreich,Vereinigungskirche in Österreich,Interessensvertretung,Religionsgemeinschaft,Seidengasse 28/4,1070,Wien,Österreich,office@vereinigungskirche.at,+436645238794,,18.08.2020
kirchen_privat_25_18-08-2020,Vereinigte Pfingstkirche Österreichs (VPKÖ),Vereinigte Pfingstkirche Österreichs (VPKÖ),Interessensvertretung,Religionsgemeinschaft,Simmeringer Hauptstraße 2,1110,Wien,Österreich,office@vpkoe.at,,,18.08.2020
banken_privat_1_18-08-2020,UniCredit Bank Austria,UniCredit Bank Austria AG,Finanzen,Bank,Rothschildplatz 1,1020,Wien,Österreich,info@unicreditgroup.at,+435050525,+435050556155,18.08.2020
banken_privat_2_18-08-2020,BAWAG PSK,BAWAG P.S.K. Bank für Arbeit und Wirtschaft und Österreichische Postsparkasse Aktiengesellschaft,Finanzen,Bank,Wiedner Gürtel 11,1100,Wien,Österreich,kundenservice@bawagpsk.com,+4359905,,18.08.2020
banken_privat_3_18-08-2020,Erste Bank und Sparkasse,Erste Bank der oesterreichischen Sparkassen AG,Finanzen,Bank,Am Belvedere 1,1100,Wien,Österreich,service@s-servicecenter.at,+435010020111,+4350100910100,18.08.2020
banken_privat_4_18-08-2020,Raiffeisenlandesbank Niederösterreich-Wien,Raiffeisenlandesbank Niederösterreich-Wien AG,Finanzen,Bank,F.-W.-Raiffeisen-Platz 1,1020,Wien,Österreich,info@raiffeisenbank.at,+4351700900,,18.08.2020
banken_privat_5_18-08-2020,Raiffeisen Landesbank Burgenland,Raiffeisenlandesbank Burgenland und Revisionsverband eGen,Finanzen,Bank,Friedrich Wilhelm Raiffeisen-Straße 1,7000,Eisenstadt,Österreich,info.rlbb@raiffeisen-burgenland.at,+4326826910,+432682691109,18.08.2020
banken_privat_6_18-08-2020,Raiffeisen-Landesbank Steiermark,Raiffeisen-Landesbank Steiermark AG,Finanzen,Bank,Kaiserfeldgasse 5,8010,Graz,Österreich,info@rlbstmk.at,+4331680360,+4331680363089,18.08.2020
banken_privat_7_18-08-2020,Raiffeisenlandesbank Kärnten,"Raiffeisenlandesbank Kärnten – Rechenzentrum und Revisionsverband, Registrierte Genossenschaft mit beschränkter Haftung",Finanzen,Bank,Raiffeisenplatz 1,9020,Klagenfurt am Wörthersee,Österreich,maria.wohlgemuth@rbgk.raiffeisen.at,+434639930012812,,18.08.2020
banken_privat_8_18-08-2020,Raiffeisenverband Salzburg,Raiffeisenverband Salzburg eGen,Finanzen,Bank,Schwarzstraße 13-15,5020,Salzburg,Österreich,info@rvs.at,+436628886,,18.08.2020
banken_privat_9_18-08-2020,Raiffeisenlandesbank Oberösterreich,Raiffeisenlandesbank Oberösterreich Aktiengesellschaft,Finanzen,Bank,Europaplatz 1a,4020,Linz,Österreich,internet@rlbooe.at,+4373265960,+43732659622739,18.08.2020
banken_privat_10_18-08-2020,Raiffeisen-Landesbank Tirol,Raiffeisen-Landesbank Tirol AG,Finanzen,Bank,Adamgasse 1-7,6020,Innsbruck,Österreich,info@rlb-tirol.at,+4351253050,+43512530511938,18.08.2020
banken_privat_11_18-08-2020,Raiffeisenlandesbank Vorarlberg,Raiffeisenlandesbank Vorarlberg Waren- und Revisionsverband registrierte Genossenschaft mit beschränkter Haftung,Finanzen,Bank,Rheinstraße 11,6900,Bregenz,Österreich,info@raiba.at,+4355744050,+435574405331,18.08.2020
banken_privat_12_18-08-2020,Volksbank Kärnten,Volksbank Kärnten eG,Finanzen,Bank,Pernhartgasse 7,9020,Klagenfurt am Wörthersee,Österreich,info@vbktn.at,+4350909,+43509099001,18.08.2020
banken_privat_13_18-08-2020,Volksbank Niederösterreich,Volksbank Niederösterreich AG,Finanzen,Bank,Brunngasse 10,3100,St. Pölten,Österreich,kundenservice@vbnoe.at,+4327423910,+4327423918001,18.08.2020
banken_privat_14_18-08-2020,Volksbank Oberösterreich,Volksbank Oberösterreich AG,Finanzen,Bank,Pfarrgasse 5,4600,Wels,Österreich,office@vb-ooe.at,+4372424950,+43724249597,18.08.2020
banken_privat_15_18-08-2020,Volksbank Salzburg,Volksbank Salzburg eG,Finanzen,Bank,St.-Julien-Straße 12,5020,Salzburg,Österreich,kundenservice@volksbanksalzburg.at,+4366286960,+43662869621,18.08.2020
banken_privat_16_18-08-2020,Volksbank Steiermark,Volksbank Steiermark AG,Finanzen,Bank,Schmiedgasse 31,8010,Graz,Österreich,vertrieb@volksbank-stmk.at,+4350901,+43509018169,18.08.2020
banken_privat_17_18-08-2020,Volksbank Tirol,Volksbank Tirol AG,Finanzen,Bank,Meinhardstraße 1,6020,Innsbruck,Österreich,kundenservice@volksbank.tirol,+4350566,,18.08.2020
banken_privat_18_18-08-2020,Volksbank Vorarlberg,Volksbank Vorarlberg e. Gen.,Finanzen,Bank,Ringstraße 27,6830,Rankweil,Österreich,volksbank@vvb.at,+43508828000,,18.08.2020
banken_privat_19_18-08-2020,Volksbank Horn,Volksbank Wien AG,Finanzen,Bank,Hauptplatz 10,3580,Horn,Österreich,kundenservice@volksbankwien.at,+4329822204,,18.08.2020
banken_privat_20_18-08-2020,Volksbank Wien,Volksbank Wien AG,Finanzen,Bank,Dietrichgasse 25,1030,Wien,Österreich,kundenservice@volksbankwien.at,+431401370,+431401377600,18.08.2020
banken_privat_21_18-08-2020,Oberbank,Oberbank AG,Finanzen,Bank,Untere Donaulände 28,4020,Linz,Österreich,office@oberbank.at,+4373278020,+43732780232140,18.08.2020
banken_privat_22_18-08-2020,BTV,Bank für Tirol und Vorarlberg Aktiengesellschaft,Finanzen,Bank,Stadtforum 1,6020,Innsbruck,Österreich,info@btv.at,+435053330,,18.08.2020
banken_privat_23_18-08-2020,BKS,BKS Bank AG,Finanzen,Bank,St. Veiter Ring 43,9020,Klagenfurt am Wörthersee,Österreich,bks@bks.at,+434635858,,18.08.2020
banken_privat_24_18-08-2020,Hypo NOE und Wien,HYPO NOE Landesbank für Niederösterreich und Wien AG,Finanzen,Bank,Hypogasse 1,3100,St. Pölten,Österreich,landesbank@hyponoe.at,+435909100,,18.08.2020
banken_privat_25_18-08-2020,Hypo Tirol,Hypo Tirol Bank AG,Finanzen,Bank,Meraner Straße 8,6020,Innsbruck,Österreich,service@hypotirol.com,+43507000,+435070041000,18.08.2020
banken_privat_26_18-08-2020,Hypo Vorarlberg,Hypo Vorarlberg Bank AG,Finanzen,Bank,Hypo-Passage 1,6900,Bregenz,Österreich,info@hypovbg.at,+43504141000,+43504141050,18.08.2020
banken_privat_27_18-08-2020,Hypo Burgenland,HYPO-BANK BURGENLAND Aktiengesellschaft,Finanzen,Bank,Neusiedlerstraße 33,7000,Eisenstadt,Österreich,info@bank-bgld.at,+4326826050,+4326826057209,18.08.2020
banken_privat_28_18-08-2020,Hypo Oberösterreich,Oberösterreichische Landesbank Aktiengesellschaft,Finanzen,Bank,Landstraße 38,4010,"Linz, Donau",Österreich,office@hypo-ooe.at,+4373276390,+437327639954954,18.08.2020
banken_privat_29_18-08-2020,Hypo Salzburg,Salzburger Landes‑Hypothekenbank Aktiengesellschaft,Finanzen,Bank,Residenzplatz 7,5020,Salzburg,Österreich,office@hyposalzburg.at,+436628046,+43662804664646,18.08.2020
banken_privat_30_18-08-2020,Hypo Steiermark,Landes-Hypothekenbank Steiermark AG,Finanzen,Bank,Radetzkystraße 15-17,8010,Graz,Österreich,hypo@landes.hypobank.at,+4331680510,+4331680515354,18.08.2020
banken_privat_31_18-08-2020,Ärzte- und Apothekerbank,Österreichische Ärzte- und Apothekerbank AG,Finanzen,Bank,Schottengasse 10,1010,Wien,Österreich,kundenservice@apobank.at,+431400800,,18.08.2020
banken_privat_32_18-08-2020,Austrian Anadi Bank,Austrian Anadi Bank AG,Finanzen,Bank,Domgasse 5,9020,Klagenfurt am Wörthersee,Österreich,austrian@anadibank.com,+43502020,+43502023000,18.08.2020
banken_privat_33_18-08-2020,Bankhaus Carl Spängler,Bankhaus Carl Spängler & Co. AG,Finanzen,Bank,Schwarzstraße 1,5020,Salzburg,Österreich,bankhaus@spaengler.at,+4366286860,+436628686158,18.08.2020
banken_privat_34_18-08-2020,Bankhaus Schelhammer & Schattera,Bankhaus Schelhammer and Schattera AG,Finanzen,Bank,Goldschmiedgasse 3,1010,Wien,Österreich,bank.office@schelhammer.at,+431534340,+431534348065,18.08.2020
banken_privat_35_18-08-2020,bank99,bank99 AG,Finanzen,Bank,Rochusplatz 1,1030,Wien,Österreich,info@bank99.at,+43800099099,,18.08.2020
banken_privat_36_18-08-2020,Capital Bank,CAPITAL BANK – GRAWE Gruppe AG,Finanzen,Bank,Burgring 16,8010,Graz,Österreich,office@capitalbank.at,+433168072,+4331680722291,18.08.2020
banken_privat_37_18-08-2020,DolomitenBank,DolomitenBank Osttirol-Westkärnten eG,Finanzen,Bank,Südtiroler Platz 9,9900,Lienz,Österreich,info@dolomitenbank.at,+43485266650,+434852666535,18.08.2020
banken_privat_38_18-08-2020,easybank,easybank AG,Finanzen,Bank,Wiedner Gürtel 11,1100,Wien,Österreich,easy@easybank.at,+4357005535,+4357005590,18.08.2020
banken_privat_39_18-08-2020,Schoellerbank,Schoellerbank AG,Finanzen,Bank,Renngasse 3,1010,Wien,Österreich,info@schoellerbank.at,+431534710,+431534711655,18.08.2020
banken_privat_40_18-08-2020,SPARDA-BANK,Volksbank Wien AG,Finanzen,Bank,Bahnhofplatz 7,9500,Villach,Österreich,mail@sparda.at  ,+43424228156,+434242281569485,18.08.2020
banken_privat_41_18-08-2020,VKB,Volkskreditbank AG,Finanzen,Bank,"Rudigierstraße 5-7, Postfach 116",4010,"Linz, Donau",Österreich,service@vkb-bank.at,+4373276370,+4373276371484,18.08.2020
banken_privat_42_18-08-2020,Marchfelder Bank,Marchfelder Bank eG,Finanzen,Bank,Marchfelder-Platz 1-2,2230,Gänserndorf,Österreich,mail@marchfelderbank.at,+43228289250,+432282892510,18.08.2020
banken_privat_43_18-08-2020,Sparkasse Feldkirchen,"Sparkasse Feldkirchen, Vereinssparkasse",Finanzen,Bank,Sparkassenstraße 1a,9560,Feldkirchen in Kärnten,Österreich,Info@Feldkirchen.Sparkasse.at,+435010033400,+4350100933400,18.08.2020
banken_privat_44_18-08-2020,Kärntner Sparkasse,Kärntner Sparkasse AG,Finanzen,Bank,Neuer Platz 14,9020,Klagenfurt am Wörthersee,Österreich,info@kspk.at,+435010020706,+4350100930800,18.08.2020
banken_privat_45_18-08-2020,Sparkasse der Stadt Amstetten,Sparkasse der Stadt Amstetten AG,Finanzen,Bank,Hauptplatz 31,3300,Amstetten,Österreich,info@amstetten.sparkasse.at,+435010025400,+4350100925400,18.08.2020
banken_privat_46_18-08-2020,Sparkasse Baden,"Sparkasse Baden, Vereinssparkasse",Finanzen,Bank,Hauptplatz 15,2500,Baden,Österreich,info@sparkassebaden.at,+435010020205,+435010020205,18.08.2020
banken_privat_47_18-08-2020,Sparkasse Hainburg-Bruck-Neusiedl,Sparkasse Hainburg-Bruck-Neusiedl AG,Finanzen,Bank,Hauptplatz 1,2410,Hainburg an der Donau,Österreich,info@sparkasse.hbn.at,+435010020216,+435010020216,18.08.2020
banken_privat_48_18-08-2020,Sparkasse Haugsdorf,Sparkasse Haugsdorf Vereinssparkasse,Finanzen,Bank,Hauptplatz 1,2054,Haugsdorf,Österreich,info@haugsdorf.sparkasse.at,+435010079800,+435010020218,18.08.2020
banken_privat_49_18-08-2020,Sparkasse Herzogenburg-Neulengbach,Sparkasse Herzogenburg-Neulengbach Bank AG,Finanzen,Bank,Rathausplatz 9-10,3130,Herzogenburg,Österreich,spk@herzogenburg.sparkasse.at,+435010010100,+435010025100,18.08.2020
banken_privat_50_18-08-2020,Sparkasse Horn-Ravelsbach-Kirchberg,Sparkasse Horn-Ravelsbach-Kirchberg AG,Finanzen,Bank,Kirchenplatz 12,3580,Horn,Österreich,office@horn.sparkasse.at,+435010026000,+435010020221,18.08.2020
banken_privat_51_18-08-2020,Sparkasse Korneuburg,Sparkasse Korneuburg AG,Finanzen,Bank,Sparkassenplatz 1,2100,Korneuburg,Österreich,information@korneuburg.sparkasse.at,+435010043200,+435010020227,18.08.2020
banken_privat_52_18-08-2020,Kremser Bank und Sparkasse,Kremser Bank und Sparkassen AG,Finanzen,Bank,Ringstraße 5-7,3500,Krems an der Donau,Österreich,info@kremserbank.at,+435010025500,+435010020228,18.08.2020
banken_privat_53_18-08-2020,Sparkasse Langenlois,Sparkasse Langenlois Vereinssparkasse,Finanzen,Bank,Kornplatz 2a,3550,Langenlois,Österreich,info@langenlois.sparkasse.at,+435010079700,+4350100979700,18.08.2020
banken_privat_54_18-08-2020,Sparkasse Neunkirchen,Sparkasse Neunkirchen,Finanzen,Bank,Hauptplatz 2,2620,Neunkirchen,Österreich,service@neunkirchen.sparkasse.at,+435010020241,+4350100972600,18.08.2020
banken_privat_55_18-08-2020,Sparkasse Pottenstein N.Ö.,Sparkasse Pottenstein N.Ö. Vereinssparkasse,Finanzen,Bank,Hauptplatz 5,2563,Pottenstein,Österreich,office@pottenstein.sparkasse.at,+435010020245,+4350100925950,18.08.2020
banken_privat_56_18-08-2020,Sparkasse Poysdorf,Sparkasse Poysdorf AG,Finanzen,Bank,Dreifaltigkeitsplatz 2,2170,Poysdorf,Österreich,office@poysdorf.sparkasse.at,+4350100–25200,+435010020246,18.08.2020
banken_privat_57_18-08-2020,Sparkasse Niederösterreich Mitte West,Sparkasse Niederösterreich Mitte West AG,Finanzen,Bank,Domgasse 5,3100,St. Pölten,Österreich,office@spknoe.at,+435010073200,+4350100973131,18.08.2020
banken_privat_58_18-08-2020,Sparkasse Scheibbs,Sparkasse Scheibbs AG,Finanzen,Bank,Hauptstraße 9,3270,Scheibbs,Österreich,info@scheibbs.sparkasse.at,+435010079900,+4350100979900,18.08.2020
banken_privat_59_18-08-2020,Wiener Neustädter Sparkasse,Wiener Neustädter Sparkasse Vereinssparkasse,Finanzen,Bank,Neunkirchner Straße 4,2700,Wiener Neustadt,Österreich,info@wrneustadt.sparkasse.at,+435010038200,+4.50100938200,18.08.2020
banken_privat_60_18-08-2020,Waldviertler Sparkasse,Waldviertler Sparkasse Bank AG,Finanzen,Bank,Sparkassenplatz 3,3910,Zwettl,Österreich,office@wspk.at,+435010079300,+435010020272,18.08.2020
banken_privat_61_18-08-2020,Sparkasse Salzkammergut,Sparkasse Salzkammergut AG,Finanzen,Bank,Sparkassenplatz 1,4820,Bad Ischl,Österreich,office@salzkammergut.sparkasse.at,+435010049600,+4350100949600,18.08.2020
banken_privat_62_18-08-2020,Sparkasse Eferding-Peuerbach-Waizenkirchen,Sparkasse Eferding-Peuerbach-Waizenkirchen Vereinssparkasse,Finanzen,Bank,Stadtplatz 1,4070,Eferding,Österreich,info@epw.sparkasse.at,+435010042000,+4350100942000,18.08.2020
banken_privat_63_18-08-2020,Sparkasse Frankenmarkt,Sparkasse Frankenmarkt AG,Finanzen,Bank,Hauptstraße 94,4890,Frankenmarkt,Österreich,Info@frankenmarkt.sparkasse.at,+435010049000,+4350100949000,18.08.2020
banken_privat_64_18-08-2020,Sparkasse Lambach,Sparkasse Lambach Bank AG,Finanzen,Bank,Klosterplatz 3,4650,Lambach,Österreich,info@lambach.sparkasse.at,+435010043000,+4350100943000,18.08.2020
banken_privat_65_18-08-2020,Allgemeine Sparkasse Oberösterreich,Allgemeine Sparkasse Oberösterreich Bankaktiengesellschaft,Finanzen,Bank,Promenade 11 – 13,4020,Linz,Österreich,ebusiness@sparkasse-ooe.at,+435010040000,+4350100940000,18.08.2020
banken_privat_66_18-08-2020,Sparkasse Neuhofen,Sparkasse Neuhofen Bank AG,Finanzen,Bank,Marktplatz 18,4501,Neuhofen an der Krems,Österreich,info@neuhofen.sparkasse.at,+435010042300,+4350100942300,18.08.2020
banken_privat_67_18-08-2020,Sparkasse Pregarten-Unterweißenbach,Sparkasse Pregarten-Unterweißenbach AG,Finanzen,Bank,Stadtplatz 19,4230,Pregarten,Österreich,office@pregarten.sparkasse.at,+435010042700,+435010042741,18.08.2020
banken_privat_68_18-08-2020,Sparkasse Ried im Innkreis-Haag am Hausruck,Sparkasse Ried im Innkreis-Haag am Hausruck Gemeindesparkasse,Finanzen,Bank,Marktplatz 2,4910,Ried im Innkreis,Österreich,mail@sparkasse-ried.at,+435010049400,+435010052222,18.08.2020
banken_privat_69_18-08-2020,Sparkasse Mühlviertel-West Bank,Sparkasse Mühlviertel-West Bank AG,Finanzen,Bank,Stadtplatz 24,4150,Rohrbach in Oberösterreich,Österreich,smw@smw.at,+435010042800,+4350100942800,18.08.2020
banken_privat_70_18-08-2020,Sparkasse Mittersill,Sparkasse Mittersill AG,Finanzen,Bank,Stadtplatz 4,5730,Mittersill,Österreich,info@mittersill.sparkasse.at,+435010048700,+4350100948700,18.08.2020
banken_privat_71_18-08-2020,Salzburger Sparkasse,Salzburger Sparkasse Bank AG,Finanzen,Bank,Alter Markt 3. Postfach 180,5021,Salzburg Postfach,Österreich,info@salzburg.sparkasse.at,+435010041000,+4350100941000,18.08.2020
banken_privat_72_18-08-2020,Steiermärkische Bank und Sparkasse,Steiermärkische Bank und Sparkassen AG,Finanzen,Bank,Sparkassenplatz 4,8010,Graz,Österreich,info@steiermaerkische.at,+435010036000,+4350100936000,18.08.2020
banken_privat_73_18-08-2020,Sparkasse Mürzzuschlag,Sparkasse Mürzzuschlag AG,Finanzen,Bank,Wiener Straße 78,8680,Mürzzuschlag,Österreich,info@muerzzuschlag.sparkasse.at,+435010037300,+4350100937300,18.08.2020
banken_privat_74_18-08-2020,Sparkasse Pöllau,Sparkasse Pöllau AG,Finanzen,Bank,Hauptplatz 2,8225,Pöllau bei Hartberg,Österreich,info@poellau.sparkasse.at,+435010037400,+4350100937400,18.08.2020
banken_privat_75_18-08-2020,Sparkasse Voitsberg-Köflach Bank,Sparkasse Voitsberg-Köflach Bank AG,Finanzen,Bank,Bahnhofstraße 2,8570,Voitsberg,Österreich,info@vk.sparkasse.at,+435010037500,+4350100937500,18.08.2020
banken_privat_76_18-08-2020,Sparkasse Imst,Sparkasse Imst AG,Finanzen,Bank,Sparkassenplatz 1,6460,Imst,Österreich,service@imst.sparkasse.at,+435010077000,+4350100977000,18.08.2020
banken_privat_77_18-08-2020,Tiroler Sparkasse,Tiroler Sparkasse Bankaktiengesellschaft Innsbruck,Finanzen,Bank,"Sparkassenplatz 1, Postfach 245",6010,Innsbruck,Österreich,sparkasse@tirolersparkasse.at,+435010070000,+4350100970000,18.08.2020
banken_privat_78_18-08-2020,Sparkasse der Stadt Kitzbühel,Sparkasse der Stadt Kitzbühel Gemeindesparkasse,Finanzen,Bank,Bahnhofstraße 6,6370,Kitzbühel,Österreich,info@sparkasse-kitzbuehel.at,+435010078600,,18.08.2020
banken_privat_79_18-08-2020,Sparkasse Kufstein,Sparkasse Kufstein Vereinssparkasse,Finanzen,Bank,Oberer Stadtplatz 1,6330,Kufstein,Österreich,service@sparkasse-kufstein.at,+435010076000,+4350100976000,18.08.2020
banken_privat_80_18-08-2020,Lienzer Sparkasse,Lienzer Sparkasse AG,Finanzen,Bank,Johannesplatz 6,9900,Lienz,Österreich,info@lienzer.sparkasse.at,+435010033500,+4350100933500,18.08.2020
banken_privat_81_18-08-2020,Sparkasse Rattenberg,Sparkasse Rattenberg Bank AG,Finanzen,Bank,Sparkassenplatz 69,6240,Rattenberg,Österreich,info@rattenberg.sparkasse.at,+435010076400,+4350100976400,18.08.2020
banken_privat_82_18-08-2020,Sparkasse Reutte,Sparkasse Reutte AG,Finanzen,Bank,Obermarkt 51,6600,Reutte,Österreich,office@sparkasse-reutte.at,+435010076800,+4350100976800,18.08.2020
banken_privat_83_18-08-2020,Sparkasse Schwaz,Sparkasse Schwaz AG,Finanzen,Bank,Franz-Josef-Straße 8 – 10,6130,Schwaz,Österreich,info@sparkasse-schwaz.at,+435010077300,+4350100977300,18.08.2020
banken_privat_84_18-08-2020,Sparkasse Bludenz,Sparkasse Bludenz Bank AG,Finanzen,Bank,Sparkassenplatz 1,6700,Bludenz,Österreich,info@bludenz.sparkasse.at,+435010077800,+4350100977800,18.08.2020
banken_privat_85_18-08-2020,Sparkasse Bregenz,Sparkasse Bregenz Bank AG,Finanzen,Bank,"Sparkassenplatz 1, Postfach 331",6901,Bregenz Postfach,Österreich,mail@bregenz.sparkasse.at,+435010075000,+4350100975000,18.08.2020
banken_privat_86_18-08-2020,Dornbirner Sparkasse,Dornbirner Sparkasse Bank AG,Finanzen,Bank,"Sparkassenplatz 1, Postfach 18",6850,Dornbirn,Österreich,service@dornbirn.sparkasse.at,+435010074000,+4350100974000,18.08.2020
banken_privat_87_18-08-2020,Sparkasse der Gemeinde Egg,Sparkasse der Gemeinde Egg Gemeindesparkasse,Finanzen,Bank,Loco 873,6863,Egg,Österreich,info@egg.sparkasse.at,+435010075500,+4350100975500,18.08.2020
banken_privat_88_18-08-2020,Sparkasse der Stadt Feldkirch,Sparkasse der Stadt Feldkirch Vereinssparkasse,Finanzen,Bank,"Sparkassenplatz 1, Postfach 50",6800,Feldkirch,Österreich,info@feldkirch.sparkasse.at,+435010043600,+4350100943600,18.08.2020
banken_privat_89_18-08-2020,Die Zweite Sparkasse,Die Zweite Wiener Vereins-Sparcasse,Finanzen,Bank,"Am Schweizer Garten 1, Objekt 2",1030,Wien,Österreich,wien7@diezweitesparkasse.at,+435010023092,,18.08.2020
salzburg_salzburg_1_19-08-2020,Bildungsdirektion Salzburg,Bildungsdirektion Salzburg,Bildung,Behörde,Mozartplatz 8-10,5010,Salzburg,Österreich,homepage@bildung-sbg.gv.at,+436628083,+4366280831099,19.08.2020
salzburg_salzburg_2_19-08-2020,Landespolizeidirektion Salzburg,Landespolizeidirektion Salzburg,Infrastruktur,Polizei,Alpenstraße 90,5020,Salzburg,Österreich,LPD-S@polizei.gv.at,+4359133500,+4359133507800,19.08.2020
salzburg_salzburg_3_18-08-2020,Wirtschaftskammer Salzburg,Wirtschaftskammer Salzburg,Interessensvertretung,Kammer,Julius-Raab-Platz 1,5027,Salzburg,Österreich,info@wks.at,+4366288880,+436628888188,18.08.2020
salzburg_salzburg_4_18-08-2020,Rechtanswaltskammer Salzburg,Rechtanswaltskammer Salzburg,Interessensvertretung,Kammer,Imbergstraße 31C,5020,Salzburg,Österreich,info@srak.at,+43662640042,+43662640428,18.08.2020
salzburg_salzburg_5_18-08-2020,Landeszahnärztekammer Salzburg,Landeszahnärztekammer Salzburg,Interessensvertretung,Kammer,Rochusgasse 4,5020,Salzburg,Österreich,office@sbg.zahnaerztekammer.at,+43505115020,+43505115025,18.08.2020
salzburg_salzburg_6_18-08-2020,Notariatskammer für Salzburg,Notariatskammer für Salzburg,Interessensvertretung,Kammer,Ignaz-Harrer-Straße 7,5020,Salzburg,Österreich,salzburg@notariatskammer.at,+43662845359,+436628453594,18.08.2020
salzburg_salzburg_7_18-08-2020,Ärztekammer Salzburg,Ärztekammer Salzburg,Interessensvertretung,Kammer,Faberstraße 10,5020,Salzburg,Österreich,aeksbg@aeksbg.at,+436628713270,+4366287132710,18.08.2020
salzburg_salzburg_8_18-08-2020,Apothekerkammer Salzburg,Apothekerkammer Salzburg,Interessensvertretung,Kammer,Alpenstraße 112/2,5020,Salzburg,Österreich,salzburg@apothekerkammer.at,+43662627496,+4366262751314,18.08.2020
salzburg_salzburg_9_18-08-2020,Arbeiterkammer Salzburg,Kammer für Arbeiter und Angestellte für Salzburg,Interessensvertretung,Kammer,Markus-Sittikus-Straße 10,5020,Salzburg,Österreich,kontakt@ak-salzburg.at,+436628687,+43662876258,18.08.2020
salzburg_salzburg_10_18-08-2020,Kammer der Steuerberater und Wirtschaftsprüfer Salzburg,Kammer der Steuerberater und Wirtschaftsprüfer Salzburg,Interessensvertretung,Kammer,Rainerstraße 5/3,5020,Salzburg,Österreich,salzburg@ksw.or.at,+436628711680,+436628711683,18.08.2020
salzburg_salzburg_11_18-08-2020,Kammer der ZiviltechnikerInnen für Oberösterreich und Salzburg,Kammer der ZiviltechnikerInnen für Oberösterreich und Salzburg,Interessensvertretung,Kammer,Kaarstraße 2/II,4040,Linz,Österreich,linz@arching-zt.at,+43732738394,+437327383944,18.08.2020
salzburg_salzburg_12_18-08-2020,Salzburger Landarbeiterkammer,Salzburger Kammer für Arbeiter und Angestellte in der Land- und Forstwirtschaft,Interessensvertretung,Kammer,"Schrannengasse 2/3/1, Postfach 11",5027,Salzburg,Österreich,landarbeiterkammer@lak-sbg.at,+436628712320,+436628712324,18.08.2020
bezirkshauptmannschaften_steiermark_1_19-08-2020,Magistrat Graz,Magistrat Graz,Bezirksbehörde,Administration,Hauptplatz 1,8010,Graz,Österreich,stadtverwaltung@graz.at,+433168720,+433168722369,19.08.2020
bezirkshauptmannschaften_steiermark_2_19-08-2020,BH Bruck-Mürzzuschlag,Bezirkshauptmannschaft Bruck-Mürzzuschlag,Bezirksbehörde,Administration,Dr.-Theodor-Körner-Straße 34,8600,Bruck an der Mur,Österreich,bhbm@stmk.gv.at,+4338628990,+433862899550,19.08.2020
bezirkshauptmannschaften_steiermark_3_19-08-2020,BH Deutschlandsberg,Bezirkshauptmannschaft Deutschlandsberg,Bezirksbehörde,Administration,Kirchengasse 12,8530,Deutschlandsberg,Österreich,bhdl@stmk.gv.at,+43346226060,+4334622606550,19.08.2020
bezirkshauptmannschaften_steiermark_4_19-08-2020,BH Graz-Umgebung,Bezirkshauptmannschaft Graz-Umgebung,Bezirksbehörde,Administration,Bahnhofgürtel 85,8020,Graz,Österreich,bhgu@stmk.gv.at,+4331670750,+433167075333,19.08.2020
bezirkshauptmannschaften_steiermark_5_19-08-2020,BH Hartberg-Fürstenfeld,Bezirkshauptmannschaft Hartberg-Fürstenfeld,Bezirksbehörde,Administration,Rochusplatz 2,8230,Hartberg,Österreich,bhhf@stmk.gv.at,+4333326060,+433332606550,19.08.2020
bezirkshauptmannschaften_steiermark_6_19-08-2020,BH Leibnitz,Bezirkshauptmannschaft Leibnitz,Bezirksbehörde,Administration,Kada-Gasse 12,8430,Leibnitz,Österreich,bhlb@stmk.gv.at,+433452829110,+43345282911550,19.08.2020
bezirkshauptmannschaften_steiermark_7_19-08-2020,BH Liezen,Bezirkshauptmannschaft Liezen,Bezirksbehörde,Administration,Hauptplatz 12,8940,Liezen,Österreich,bhli@stmk.gv.at,+43361228010,+4336122801550,19.08.2020
bezirkshauptmannschaften_steiermark_8_19-08-2020,BH Leoben,Bezirkshauptmannschaft Leoben,Bezirksbehörde,Administration,Peter Tunner-Straße 6,8700,Leoben,Österreich,bhln@stmk.gv.at,+433842455710,+43384245571550,19.08.2020
bezirkshauptmannschaften_steiermark_9_19-08-2020,BH Murtal,Bezirkshauptmannschaft Murtal,Bezirksbehörde,Administration,Kapellenweg 11,8750,Judenburg,Österreich,bhmt@stmk.gv.at,+433572832010,+43357283201550,19.08.2020
bezirkshauptmannschaften_steiermark_10_19-08-2020,BH Murau,Bezirkshauptmannschaft Murau,Bezirksbehörde,Administration,Bahnhofviertel 7,8850,Murau,Österreich,bhmu@stmk.gv.at,+43353221010,+4335322101550,19.08.2020
bezirkshauptmannschaften_steiermark_11_19-08-2020,BH Südoststeiermark,Bezirkshauptmannschaft Südoststeiermark,Bezirksbehörde,Administration,Bismarckstraße 11-13,8330,Feldbach,Österreich,bhso@stmk.gv.at,+43315225110,+4331522511550,19.08.2020
bezirkshauptmannschaften_steiermark_12_19-08-2020,BH Voitsberg,Bezirkshauptmannschaft Voitsberg,Bezirksbehörde,Administration,Schillerstraße 10,8570,Voitsberg,Österreich,bhvo@stmk.gv.at,+433142215200,+43314221520550,19.08.2020
bezirkshauptmannschaften_steiermark_13_19-08-2020,BH Weiz,Bezirkshauptmannschaft Weiz,Bezirksbehörde,Administration,Birkfelder Straße 28,8160,Weiz,Österreich,bhwz@stmk.gv.at,+4331726000,+433172600550,19.08.2020
steiermark_steiermark_1_19-08-2020,Bildungsdirektion für Steiermark,Bildungsdirektion für Steiermark,Bildung,Behörde,Körblergasse 23,8011,Graz Postfach,Österreich,bildungsdirektion@bildung-stmk.gv.at,+4350248345,,19.08.2020
steiermark_steiermark_2_19-08-2020,Landespolizeidirektion Steiermark,Landespolizeidirektion Steiermark,Infrastruktur,Polizei,Straßganger Straße 280,8052,Graz-Wetzelsdorf,Österreich,LPD-ST@polizei.gv.at,+4359133600,+4359133601009,19.08.2020
steiermark_steiermark_3_18-08-2020,Wirtschaftskammer Steiermark,Wirtschaftskammer Steiermark,Interessensvertretung,Kammer,Körblergasse 111-113,8010,Graz,Österreich,office@wkstmk.at,+43316601,+43316601361,18.08.2020
steiermark_steiermark_4_18-08-2020,Rechtanswaltskammer Steiermark,Rechtanswaltskammer Steiermark,Interessensvertretung,Kammer,Salzamtsgasse 3/IV,8010,Graz,Österreich,office@rakstmk.at,+433168302900,+43316829730,18.08.2020
steiermark_steiermark_5_18-08-2020,Landeszahnärztekammer Steiermark,Landeszahnärztekammer Steiermark,Interessensvertretung,Kammer,Marburger Kai 51/2,8010,Graz,Österreich,office@stmk.zahnaerztekammer.at,+43505118060,+43505118080,18.08.2020
steiermark_steiermark_6_18-08-2020,Notariatskammer für Steiermark,Notariatskammer für Steiermark,Interessensvertretung,Kammer,Wielandgasse 36/III,8010,Graz,Österreich,steiermark@notariatskammer.at,+43316825286,+433168252864,18.08.2020
steiermark_steiermark_7_18-08-2020,Ärztekammer Steiermark,Ärztekammer Steiermark,Interessensvertretung,Kammer,Kaiserfeldgasse 29,8010,Graz,Österreich,aek@aekstmk.or.at,+4331680440,+43316815671,18.08.2020
steiermark_steiermark_8_18-08-2020,Apothekerkammer Steiermark,Apothekerkammer Steiermark,Interessensvertretung,Kammer,Stadionplatz 2,8041,Graz-Liebenau,Österreich,steiermark@apothekerkammer.at,+43316475374,+4331647537422,18.08.2020
steiermark_steiermark_9_18-08-2020,Arbeiterkammer Steiermark,Kammer für Arbeiter und Angestellte für Steiermark,Interessensvertretung,Kammer,Hans-Resel-Gasse 8-14,8020,Graz,Österreich,redaktion@akstmk.at,+4357799,,18.08.2020
steiermark_steiermark_10_18-08-2020,Kammer der Steuerberater und Wirtschaftsprüfer Steiermark,Kammer der Steuerberater und Wirtschaftsprüfer Steiermark,Interessensvertretung,Kammer,Leechgasse 25,8010,Graz,Österreich,stmk@ksw.or.at,+43316830830,+4331683083040,18.08.2020
steiermark_steiermark_11_18-08-2020,Kammer der ZiviltechnikerInnen für Steiermark und Kärnten,Kammer der ZiviltechnikerInnen für Steiermark und Kärnten,Interessensvertretung,Kammer,Schönaugasse 7/1,8010,Graz,Österreich,office@ztkammer.at,+43316826344,+4331682634425,18.08.2020
steiermark_steiermark_12_20-08-2020,Steiermärkische Landarbeiterkammer,Steiermärkische Landarbeiterkammer,Interessensvertretung,Kammer,Raubergasse 20,8010,Graz,Österreich,office@lak-stmk.at,+433168325070,+4331683250720,20.08.2020
bezirkshauptmannschaften_tirol_1_19-08-2020,Magistrat Innsbruck,Stadtmagistrat Innsbruck,Bezirksbehörde,Administration,Maria-Theresien-Straße 18,6020,Innsbruck,Österreich,kontakt@magibk.at,+435125360,+43051253601767,19.08.2020
bezirkshauptmannschaften_tirol_2_19-08-2020,BH Imst,Bezirkshauptmannschaft Imst,Bezirksbehörde,Administration,Stadtplatz 1,6460,Imst,Österreich,bh.imst@tirol.gv.at,+4354126996,+43541269965215,19.08.2020
bezirkshauptmannschaften_tirol_3_18-08-2020,BH Innsbruck,Bezirkshauptmannschaft Innsbruck,Bezirksbehörde,Administration,Gilmstraße 2,6020,Innsbruck,Österreich,bh.innsbruck@tirol.gv.at,+43512508,+435125085005,18.08.2020
bezirkshauptmannschaften_tirol_4_18-08-2020,BH Kitzbühel,Bezirkshauptmannschaft Kitzbühel,Bezirksbehörde,Administration,Hinterstadt 28,6370,Kitzbühel,Österreich,bh.kitzbuehel@tirol.gv.at,+435356621310,+435356621316305,18.08.2020
bezirkshauptmannschaften_tirol_5_18-08-2020,BH Kufstein,Bezirkshauptmannschaft Kufstein,Bezirksbehörde,Administration,Bozner Platz 1 – 2,6332,Kufstein,Österreich,bh.kufstein@tirol.gv.at,+4353726060,+4353726066005,18.08.2020
bezirkshauptmannschaften_tirol_6_18-08-2020,BH Landeck,Bezirkshauptmannschaft Landeck,Bezirksbehörde,Administration,Innstraße 5,6500,Landeck,Österreich,bh.landeck@tirol.gv.at,+43544269960,+43544269965415,18.08.2020
bezirkshauptmannschaften_tirol_7_18-08-2020,BH Reutte,Bezirkshauptmannschaft Reutte,Bezirksbehörde,Administration,Obermarkt 5 - 7,6600,Reutte,Österreich,bh.reutte@tirol.gv.at,+43567269960,+43567269965605,18.08.2020
bezirkshauptmannschaften_tirol_8_18-08-2020,BH Schwaz,Bezirkshauptmannschaft Schwaz,Bezirksbehörde,Administration,Franz-Josef-Straße 25,6130,Schwaz,Österreich,bh.schwaz@tirol.gv.at,+43524269310,+43524269315805,18.08.2020
tirol_tirol_1_19-08-2020,Bildungsdirektion für Tirol,Bildungsdirektion für Tirol,Bildung,Behörde,Heiliggeiststraße 7,6020,Innsbruck,Österreich,office@bildung-tirol.gv.at,+435129012,,19.08.2020
tirol_tirol_2_19-08-2020,Landespolizeidirektion Tirol,Landespolizeidirektion Tirol,Infrastruktur,Polizei,Kaiserjägerstraße 8,6020,Innsbruck,Österreich,LPD-T@polizei.gv.at,+4359133700,,19.08.2020
tirol_tirol_3_18-08-2020,Wirtschaftskammer Tirol,Wirtschaftskammer Tirol,Interessensvertretung,Kammer,Wilhelm-Greil-Straße 7,6020,Innsbruck,Österreich,office@wktirol.at,+435909050,+435909051467,18.08.2020
tirol_tirol_4_18-08-2020,Rechtanswaltskammer Tirol,Rechtanswaltskammer Tirol,Interessensvertretung,Kammer,Meraner Straße 3/III,6020,Innsbruck,Österreich,office@tiroler-rak.at,+43512587067,+43512571384,18.08.2020
tirol_tirol_5_18-08-2020,Landeszahnärztekammer Tirol,Landeszahnärztekammer Tirol,Interessensvertretung,Kammer,Anichstraße 7/3,6020,Innsbruck,Österreich,office@tiroler.zahnaerztekammer.at,+43505116020,+43505116026,18.08.2020
tirol_tirol_6_18-08-2020,Notariatskammer für Tirol und Vorarlberg,Notariatskammer für Tirol und Vorarlberg,Interessensvertretung,Kammer,Maximilianstraße 3,6010,Innsbruck,Österreich,Notariatskammer@nktv.at,+43512564141,+4351256414150,18.08.2020
tirol_tirol_7_18-08-2020,Ärztekammer Tirol,Ärztekammer Tirol,Interessensvertretung,Kammer,Anichstraße 7/IV,6020,Innsbruck,Österreich,kammer@aektirol.at,+43512520580,+4351252058130,18.08.2020
tirol_tirol_8_18-08-2020,Apothekerkammer Tirol,Apothekerkammer Tirol,Interessensvertretung,Kammer,Sparkassenplatz 3,6020,Innsbruck,Österreich,tirol@apothekerkammer.at,+435125870730,+435125870733,18.08.2020
tirol_tirol_9_18-08-2020,Arbeiterkammer Tirol,Kammer für Arbeiter und Angestellte für Tirol,Interessensvertretung,Kammer,Maximilianstraße 7,6020,Innsbruck,Österreich,innsbruck@ak-tirol.com,+435125340,+4351253401208,18.08.2020
tirol_tirol_10_18-08-2020,Kammer der Steuerberater und Wirtschaftsprüfer Tirol,Kammer der Steuerberater und Wirtschaftsprüfer Tirol,Interessensvertretung,Kammer,Museumstraße 34/6. Stock,6020,Innsbruck,Österreich,tirol@ksw.or.at,+43512589012,+4351258901210,18.08.2020
tirol_tirol_11_18-08-2020,Kammer der ZiviltechnikerInnen für Tirol und Vorarlberg,Kammer der ZiviltechnikerInnen für Tirol und Vorarlberg,Interessensvertretung,Kammer,Rennweg 1,6020,Innsbruck,Österreich,arch.ing.office@kammerwest.at,+43512588335,+435125883356,18.08.2020
tirol_tirol_12_18-08-2020,Landarbeiterkammer Tirol,Landarbeiterkammer Tirol,Interessensvertretung,Kammer,Neugasteig 18,6167,Neustift im Stubaital,Österreich,andreas.gleirscher@lkv-tirol.at,+436648398910,+43592923099,18.08.2020
vorarlberg_vorarlberg_1_19-08-2020,Bildungsdirektion für Vorarlberg,Bildungsdirektion für Vorarlberg,Bildung,Behörde,Bahnhofstraße 12,6900,Bregenz,Österreich,office@bildung-vbg.gv.at,+43557449600,+4355744960408,19.08.2020
vorarlberg_vorarlberg_2_19-08-2020,Amt der Vorarlberger Landesregierung,Amt der Vorarlberger Landesregierung,Landesbehörde,Administration,Römerstraße 15,6901,Bregenz Postfach,Österreich,land@vorarlberg.at,+4355745110,+435574511920095,19.08.2020
vorarlberg_vorarlberg_3_19-08-2020,Landespolizeidirektion Vorarlberg,Amt der Vorarlberger Landesregierung,Infrastruktur,Polizei,Bahnhofstraße 45,6900,Bregenz,Österreich,LPD-V@polizei.gv.at,+4359133800,+4359133801009,19.08.2020
vorarlberg_vorarlberg_4_18-08-2020,Wirtschaftskammer Vorarlberg,Wirtschaftskammer Vorarlberg,Interessensvertretung,Kammer,Wichnergasse 9,6800,Feldkirch,Österreich,info@wkv.at,+435522305,+435522305100,18.08.2020
vorarlberg_vorarlberg_5_18-08-2020,Rechtanswaltskammer Vorarlberg,Rechtanswaltskammer Vorarlberg,Interessensvertretung,Kammer,Marktplatz 11,6800,Feldkirch,Österreich,kammer@rechtsanwaelte-vorarlberg.at ,+43552271122,+4355227112211,18.08.2020
vorarlberg_vorarlberg_6_18-08-2020,Landeszahnärztekammer Vorarlberg,Landeszahnärztekammer Vorarlberg,Interessensvertretung,Kammer,Rösslepark 1,6800,Feldkirch,Österreich,office@vlbg.zahnaerztekammer.at,+43505116800,+43505116804,18.08.2020
vorarlberg_vorarlberg_7_18-08-2020,Notariatskammer für Tirol und Vorarlberg,Notariatskammer für Tirol und Vorarlberg,Interessensvertretung,Kammer,Maximilianstraße 3,6010,Innsbruck,Österreich,Notariatskammer@nktv.at,+43512564141,+4351256414150,18.08.2020
vorarlberg_vorarlberg_8_18-08-2020,Ärztekammer Vorarlberg,Ärztekammer Vorarlberg,Interessensvertretung,Kammer,Schulgasse 17,6850,Dornbirn,Österreich,aek@aekvbg.at,+43557221900,+4355722190043,18.08.2020
vorarlberg_vorarlberg_9_18-08-2020,Apothekerkammer Vorarlberg,Apothekerkammer Vorarlberg,Interessensvertretung,Kammer,Bergstraße 8,6900,Bregenz,Österreich,vorarlberg@apothekerkammer.at,+43557443038,+4314028602956,18.08.2020
vorarlberg_vorarlberg_10_18-08-2020,Arbeiterkammer Vorarlberg,Kammer für Arbeiter und Angestellte für Vorarlberg,Interessensvertretung,Kammer,Widnau 2-4,6800,Feldkirch,Österreich,mailbox@ak-vorarlberg.at,+43502580,,18.08.2020
vorarlberg_vorarlberg_11_18-08-2020,Kammer der Steuerberater und Wirtschaftsprüfer Vorarlberg,Kammer der Steuerberater und Wirtschaftsprüfer Vorarlberg,Interessensvertretung,Kammer,Schillerstraße 22,6890,Lustenau,Österreich,vorarlberg@ksw.or.at,+4355778262810,+4355778262813,18.08.2020
vorarlberg_vorarlberg_12_18-08-2020,Kammer der ZiviltechnikerInnen für Tirol und Vorarlberg,Kammer der ZiviltechnikerInnen für Tirol und Vorarlberg,Interessensvertretung,Kammer,Rennweg 1,6020,Innsbruck,Österreich,arch.ing.office@kammerwest.at,+43512588335,+435125883356,18.08.2020
vorarlberg_vorarlberg_13_18-08-2020,Landarbeiterkammer Vorarlberg,Landarbeiterkammer Vorarlberg,Interessensvertretung,Kammer,Montfortstraße 9,6900,Bregenz,Österreich,dienstnehmer@lk-vbg.at,+435574400770,+435574400600,18.08.2020
wien_wien_1_19-08-2020,Obdach Wien,Obdach Wien gemeinnützige GmbH,Sozialleistungen,Dienstleister,Guglgasse 7-9,1030,Wien,Österreich,obdach.wien@fsw.at,+4350537940010,,19.08.2020
wien_wien_2_19-08-2020,AWZ Soziales Wien,AWZ Soziales Wien GmbH,Sozialleistungen,Dienstleister,Schlachthausgasse 37,1030,Wien,Österreich,office@awz-wien.at,+4350537970140,,19.08.2020
wien_wien_3_19-08-2020,Fonds Soziales Wien,Fonds Soziales Wien,Sozialleistungen,Dienstleister,Guglgasse 7-9,1030,Wien,Österreich,post@fsw.at ,+43505379,+435053798910099,19.08.2020
wien_wien_4_19-08-2020,FSW - Wiener Pflege- und Betreuungsdienste,FSW - Wiener Pflege- und Betreuungsdienste GmbH - Mobile Hauskrankenpflege - Fonds Soziales Wien (FSW),Sozialleistungen,Dienstleister,Guglgasse 7-9 / Stiege A / 2. Stock,1030,Wien,Österreich,mob.hkp.ak@fsw.at,+4312452430300,,19.08.2020
wien_wien_5_19-08-2020,Sucht- und Drogenkoordination Wien,Sucht- und Drogenkoordination Wien gemeinnützige GmbH,Sozialleistungen,Dienstleister,Modecenterstraße 14/A/2,1030,Wien,Österreich,office@sd-wien.at,+431400087375,+431400087340,19.08.2020
wien_wien_6_19-08-2020,Suchthilfe Wien,Suchthilfe Wien gemeinnützige GmbH,Sozialleistungen,Dienstleister,Gumpendorfer Gürtel 8,1080,Wien,Österreich,office@suchthilfe.at,+431400053600,+431400053699,19.08.2020
wien_wien_7_19-08-2020,Vereinigte Bühnen Wien,Vereinigte Bühnen Wien Ges.m.b.H.,Kultur,Museen / Theater,Linke Wienzeile 6,1060,Wien,Österreich,info@vbw.at,+431588301010,+43158830991010,19.08.2020
wien_wien_8_19-08-2020,Wiener Gesundheitsfonds,Wiener Gesundheitsfonds,Gesundheit,Dienstleister,Brigittenauer Lände 50-54,1200,Wien,Österreich,wiener.gesundheitsfonds@wien.gv.at,+431400084200,+43140009984200,19.08.2020
wien_wien_9_19-08-2020,Wiener Gesundheitsförderung,Wiener Gesundheitsförderung gemeinnützige GmbH,Gesundheit,Dienstleister,Treustraße 35 – 43,1200,Wien,Österreich,office@wig.or.at,+431400076905,+4340009976905,19.08.2020
wien_wien_10_19-08-2020,Wiener Gesundheitsverbund,Stadt Wien – Wiener Gesundheitsverbund,Gesundheit,Dienstleister,Thomas-Klestil-Platz 7/1,1030,Wien,Österreich,journaldienst@gesundheitsverbund.at,+431404090,+431404099967480,19.08.2020
wien_wien_11_19-08-2020,Wirtschaftsagentur Wien,Wirtschaftsagentur Wien. Ein Fonds der Stadt Wien.,Interessensvertretung,Dienstleister,Mariahilfer Straße 20,1070,Wien,Österreich,info@wirtschaftsagentur.at,+43125200,+43125200153,19.08.2020
wien_wien_12_19-08-2020,Bestattung Wien,Bestattung Wien GmbH,Infrastruktur,Dienstleister,Simmeringer Hauptstrasse 339,1110,Wien,Österreich,office@bestattungwien.at,+431501950,+4315019528509,19.08.2020
wien_wien_13_19-08-2020,Friedhöfe Wien,Friedhöfe Wien GmbH,Infrastruktur,Dienstleister,Simmeringer Hauptstrasse 339,1110,Wien,Österreich,post@friedhoefewien.at,+431534690,,19.08.2020
wien_wien_14_19-08-2020,Wiener Wohnen,Stadt Wien - Wiener Wohnen,Sozialleistungen,Dienstleister,Rosa-Fischer-Gasse 2,1030,Wien,Österreich,post@wrw.wien.gv.at,+435757575,,19.08.2020
wien_wien_15_19-08-2020,Wien Kanal,Wien Kanal (WKN),Infrastruktur,Dienstleister,"Modecenterstraße 14, Block C",1030,Wien,Österreich,post@wkn.wien.gv.at,+43140008030,,19.08.2020
wien_wien_16_19-08-2020,W24,WH Media GmbH,Infrastruktur,Dienstleister,Renngasse 5 / Top 4,1010,Wien,Österreich,office@w24.at,+4313683424,,19.08.2020
wien_wien_17_19-08-2020,Wien Energie,Wien Energie GmbH,Infrastruktur,Dienstleister,Thomas-Klestil-Platz 14,1030,Wien,Österreich,office@wienenergie.at,+43140040,,19.08.2020
wien_wien_18_19-08-2020,Wien Holding,Wien Holding GmbH,Infrastruktur,Dienstleister,Universitätsstraße 11,1010,Wien,Österreich,office@wienholding.at,+43140825690,+431408256937,19.08.2020
wien_wien_19_19-08-2020,Wiener Stadtwerke,WIENER STADTWERKE GMBH,Infrastruktur,Dienstleister,Thomas-Klestil-Platz 13,1030,Wien,Österreich,contact@wienerstadtwerke.at ,+431531230,,19.08.2020
wien_wien_20_19-08-2020,WienIT,WienIT EDV Dienstleistungsgesellschaft mbH & Co KG,Infrastruktur,Dienstleister,Thomas-Klestil-Platz 13,1030,Wien,Österreich,office@wienit.at ,+435904050,,19.08.2020
wien_wien_21_19-08-2020,WIPARK,WIPARK Garagen GmbH,Infrastruktur,Dienstleister,Thomas-Klestil-Platz 13,1030,Wien,Österreich,office@wipark.at,+4316003022,+431600302248199,19.08.2020
wien_wien_22_19-08-2020,Bildungsdirektion für Wien,Bildungsdirektion für Wien,Bildung,Behörde,Wipplingerstraße 28,1010,Wien,Österreich,office@ssr-wien.gv.at,+431525250,,19.08.2020
wien_wien_23_19-08-2020,Landespolizeidirektion Wien,Landespolizeidirektion Wien,Infrastruktur,Polizei,Schottenring 7-9,1010,Wien,Österreich,LPD-W@polizei.gv.at,+431313100,+4313131072119,19.08.2020
wien_wien_24_19-08-2020,AKH Wien,Allgemeines Krankenhaus der Stadt Wien,Gesundheit,Krankenhaus,Währinger Gürtel 18-20,1090,Wien,Österreich,postakhint@akhwien.at,+431404000,+4314040912120,19.08.2020
wien_wien_25_19-08-2020,Klinik Landstraße,Klinik Landstraße,Gesundheit,Krankenhaus,Juchgasse 25,1030,Wien,Österreich,kla.post@gesundheitsverbund.at,+43171165,+431711651009,19.08.2020
wien_wien_26_19-08-2020,Klinik Hietzing,Klinik Hietzing,Gesundheit,Krankenhaus,Wolkersbergenstraße 1,1130,Wien,Österreich,journaldienst@gesundheitsverbund.at,+431801100,,19.08.2020
wien_wien_27_19-08-2020,Klinik Penzing,Klinik Penzing,Gesundheit,Krankenhaus,Baumgartner Höhe 1,1140,Wien,Österreich,kpe@gesundheitsverbund.at,+431910600,+4319106011309,19.08.2020
wien_wien_28_19-08-2020,SMZ Floridsdorf,Sozialmedizinisches Zentrum Floridsdorf,Gesundheit,Krankenhaus,Bentheimstraße 5,1210,Wien,Österreich,post.gzf@wienkav.at,+43127522,+431275228009,19.08.2020
wien_wien_29_19-08-2020,Klinik Donaustadt,Klinik Donaustadt,Gesundheit,Krankenhaus,Langobardenstraße 122,1220,Wien,Österreich,journaldienst@gesundheitsverbund.at,+431288020,+431288022050,19.08.2020
wien_wien_30_19-08-2020,Klinik Favoriten,Klinik Favoriten,Gesundheit,Krankenhaus,Kundratstraße 3,1100,Wien,Österreich,journaldienst@gesundheitsverbund.at,+431601910,,19.08.2020
wien_wien_31_19-08-2020,Therapiezentrum Ybbs,Therapiezentrum Ybbs,Gesundheit,Krankenhaus,Persenbeugerstraße 1-3,3370,Ybbs an der Donau,Österreich,journaldienst@gesundheitsverbund.at,+437412551000,,19.08.2020
wien_wien_32_19-08-2020,Wilhelminenspital,Wilhelminenspital,Gesundheit,Krankenhaus,Montleartstraße 37,1160,Wien,Österreich,journaldienst@gesundheitsverbund.at,+431491500,,19.08.2020
wien_wien_33_19-08-2020,Wirtschaftskammer Wien,Wirtschaftskammer Wien,Interessensvertretung,Kammer,Straße der Wiener Wirtschaft 1,1020,Wien,Österreich,info@wkw.at,+431514500,,19.08.2020
wien_wien_34_18-08-2020,Rechtanswaltskammer Wien,Rechtanswaltskammer Wien,Interessensvertretung,Kammer,Ertlgasse 2,1010,Wien,Österreich,kanzlei@rakwien.at,+43153327180,+431533271844,18.08.2020
wien_wien_35_18-08-2020,Landeszahnärztekammer Wien,Landeszahnärztekammer Wien,Interessensvertretung,Kammer,Kohlmarkt 11/6,1010,Wien,Österreich,office@wr.zahnaerztekammer.at,+43505111000,+43505111014,18.08.2020
wien_wien_36_18-08-2020,"Notariatskammer für Wien, Niederösterreich und Burgenland ","Notariatskammer für Wien, Niederösterreich und Burgenland ",Interessensvertretung,Kammer,Landesgerichtsstraße 20,1010,Wien,Österreich,kammer-wnb@notar.or.at,+43140245090,+4314063475,18.08.2020
wien_wien_37_18-08-2020,Ärztekammer Wien,Ärztekammer Wien,Interessensvertretung,Kammer,Weihburggasse 10-12,1010,Wien,Österreich,aekwien@aekwien.at,+431515010,+431515011209,18.08.2020
wien_wien_38_18-08-2020,Apothekerkammer Wien,Apothekerkammer Wien,Interessensvertretung,Kammer,Spitalgasse 31,1091,Wien Postfach,Österreich,wien@apothekerkammer.at,+43140414152,+4314088283,18.08.2020
wien_wien_39_18-08-2020,Arbeiterkammer Wien,Kammer für Arbeiter und Angestellte für Wien,Interessensvertretung,Kammer,Prinz-Eugen-Straße 20-22,1040,Wien,Österreich,akmailbox@akwien.at,+431501650,,18.08.2020
wien_wien_40_18-08-2020,Kammer der Steuerberater und Wirtschaftsprüfer Wien,Kammer der Steuerberater und Wirtschaftsprüfer Wien,Interessensvertretung,Kammer,Schönbrunnerstraße 222-228/1/6/2,1120,Wien,Österreich,office@ksw.or.at,+431811730,+43181173100,18.08.2020
wien_wien_41_18-08-2020,"Kammer der ZiviltechnikerInnen für Wien, Niederösterreich und Burgenland","Kammer der ZiviltechnikerInnen für Wien, Niederösterreich und Burgenland",Interessensvertretung,Kammer,Karlsgasse 9/1,1040,Wien,Österreich,kammer@arching.at,+4315051781,+4315051005,18.08.2020
wien_wien_42_20-08-2020,Klinik Floridsdorf,Klinik Floridsdorf,Gesundheit,Krankenhaus,Brünner Straße 68,1210,Wien,Österreich,journaldienst@gesundheitsverbund.at,+431277000,,20.08.2020
magistratsabteilungen_wien_1_19-08-2020,MA 01 - Wien Digital,Magistratsabteilung 01 - Wien Digital,Landesbehörde,Administration,Stadlauer Straße 54-56,1220,Wien,Österreich,post@ma01.wien.gv.at,,+43140009971019,19.08.2020
magistratsabteilungen_wien_2_19-08-2020,MA 10 - Kindergärten,Magistratsabteilung 10 - Kindergärten,Landesbehörde,Administration,Thomas-Klestil-Platz 11,1030,Wien,Österreich,post@ma10.wien.gv.at,+431400090309,+43140009990248,19.08.2020
magistratsabteilungen_wien_3_19-08-2020,MA 11 - Kinder- und Jugendhilfe,Magistratsabteilung 11 - Kinder- und Jugendhilfe,Landesbehörde,Administration,Rüdengasse 11,1030,Wien,Österreich,post@ma11.wien.gv.at,+43140008011,+43140009990619,19.08.2020
magistratsabteilungen_wien_4_19-08-2020,MA 13 - Bildung und Jugend,Magistratsabteilung 13 - Bildung und Jugend,Landesbehörde,Administration,Friedrich-Schmidt-Platz 5,1080,Wien,Österreich,post@ma13.wien.gv.at,+431400084329,+43140009984328,19.08.2020
magistratsabteilungen_wien_5_19-08-2020,MA 15 - Gesundheitsdienst,Magistratsabteilung 15 - Gesundheitsdienst,Landesbehörde,Administration,Thomas-Klestil-Platz 8,1030,Wien,Österreich,post@ma15.wien.gv.at,+43140008015,+43140009987960,19.08.2020
magistratsabteilungen_wien_6_19-08-2020,MA 17 - Integration und Diversität,Magistratsabteilung 17 - Integration und Diversität,Landesbehörde,Administration,Friedrich-Schmidt-Platz 3,1080,Wien,Österreich,post@ma17.wien.gv.at,+431400081523,+43140009981523,19.08.2020
magistratsabteilungen_wien_7_19-08-2020,MA 18 - Stadtentwicklung und Stadtplanung,Magistratsabteilung 18 - Stadtentwicklung und Stadtplanung,Landesbehörde,Administration,Rathausstraße 14-16,1082,Wien,Österreich,post@ma18.wien.gv.at,+43140008018,+4314000998018,19.08.2020
magistratsabteilungen_wien_8_19-08-2020,MA 19 - Architektur und Stadtgestaltung,Magistratsabteilung 19 - Architektur und Stadtgestaltung,Landesbehörde,Administration,Niederhofstraße 21-23,1120,Wien,Österreich,post@ma19.wien.gv.at,+4318111488916,+43140009988910,19.08.2020
magistratsabteilungen_wien_9_19-08-2020,MA 2 - Personalservice,Magistratsabteilung 2 - Personalservice,Landesbehörde,Administration,Rathausstraße 4,1010,Wien,Österreich,post@ma02.wien.gv.at,+431400094020,+43140009994029,19.08.2020
magistratsabteilungen_wien_10_19-08-2020,MA 20 - Energieplanung,Magistratsabteilung 20 - Energieplanung,Landesbehörde,Administration,Rathausstraße 14-16,1010,Wien,Österreich,post@ma20.wien.gv.at,+431400088305,+431400088304,19.08.2020
magistratsabteilungen_wien_11_19-08-2020,MA 21 A - Stadtteilplanung und Flächenwidmung Innen-Südwest,Magistratsabteilung 21 A - Stadtteilplanung und Flächenwidmung Innen-Südwest,Landesbehörde,Administration,Rathausstraße 14-16,1010,Wien,Österreich,post@ma21a.wien.gv.at,+431400088116,+43140009988116,19.08.2020
magistratsabteilungen_wien_12_19-08-2020,MA 21 B - Stadtteilplanung und Flächenwidmung Nordost,Magistratsabteilung 21 B - Stadtteilplanung und Flächenwidmung Nordost,Landesbehörde,Administration,Rathausstraße 14-16,1010,Wien,Österreich,post@ma21b.wien.gv.at,+431400088116,+43140009988116,19.08.2020
magistratsabteilungen_wien_13_19-08-2020,MA 22 - Umweltschutz,Magistratsabteilung 22 - Umweltschutz,Landesbehörde,Administration,Dresdner Straße 45,1200,Wien,Österreich,post@ma22.wien.gv.at,,+43140009973415,19.08.2020
magistratsabteilungen_wien_14_19-08-2020,"MA 23 - Wirtschaft, Arbeit und Statistik","Magistratsabteilung 23 - Wirtschaft, Arbeit und Statistik",Landesbehörde,Administration,Meiereistraße 7,1020,Wien,Österreich,post@ma23.wien.gv.at,+431400083057,+431400083050,19.08.2020
magistratsabteilungen_wien_15_19-08-2020,MA 24 - Strategische Gesundheitsversorgung,Magistratsabteilung 24 - Strategische Gesundheitsversorgung,Landesbehörde,Administration,Brigittenauer Lände 50-54,1200,Wien,Österreich,post@ma24.wien.gv.at,+431400084200,+43140009984200,19.08.2020
magistratsabteilungen_wien_16_19-08-2020,MA 25 - Technische Stadterneuerung,Magistratsabteilung 25 - Technische Stadterneuerung,Landesbehörde,Administration,Maria-Restituta-Platz 1,1200,Wien,Österreich,post@ma25.wien.gv.at,+43140008025,+4314000998025,19.08.2020
magistratsabteilungen_wien_17_19-08-2020,MA 27 - Europäische Angelegenheiten,Magistratsabteilung 27 - Europäische Angelegenheiten,Landesbehörde,Administration,Friedrich-Schmidt-Platz 3,1080,Wien,Österreich,post@ma27.wien.gv.at,+4314000,+43140009927027,19.08.2020
magistratsabteilungen_wien_18_19-08-2020,MA 28 - Straßenverwaltung und Straßenbau,Magistratsabteilung 28 - Straßenverwaltung und Straßenbau,Landesbehörde,Administration,Lienfeldergasse 96,1170,Wien,Österreich,post@ma28.wien.gv.at,,+43140009949610,19.08.2020
magistratsabteilungen_wien_19_19-08-2020,MA 29 - Brückenbau und Grundbau,Magistratsabteilung 29 - Brückenbau und Grundbau,Landesbehörde,Administration,Wilhelminenstraße 93,1160,Wien,Österreich,post@ma29.wien.gv.at,+431400096915,+43140009996480,19.08.2020
magistratsabteilungen_wien_20_19-08-2020,MA 3 - Bedienstetenschutz und berufliche Gesundheitsförde,Magistratsabteilung 3 - Bedienstetenschutz und berufliche Gesundheitsförde,Landesbehörde,Administration,Hermanngasse 24-26,1070,Wien,Österreich,post@ma03.wien.gv.at,+431400075050,+43140009975050,19.08.2020
magistratsabteilungen_wien_21_19-08-2020,MA 31 - Wiener Wasser,Magistratsabteilung 31 - Wiener Wasser,Landesbehörde,Administration,Grabnergasse 4-6,1060,Wien,Österreich,post@ma31.wien.gv.at,+43159959,+431599599931326,19.08.2020
magistratsabteilungen_wien_22_19-08-2020,MA 33 - Wien leuchtet,Magistratsabteilung 33 - Wien leuchtet,Landesbehörde,Administration,Senngasse 2,1110,Wien,Österreich,post@ma33.wien.gv.at,+431400033011,+43140009933000,19.08.2020
magistratsabteilungen_wien_23_19-08-2020,MA 34 - Bau- und Gebäudemanagement,Magistratsabteilung 34 - Bau- und Gebäudemanagement,Landesbehörde,Administration,Muthgasse 62,1190,Wien,Österreich,post@ma34.wien.gv.at,+43140008034,+4314000998034,19.08.2020
magistratsabteilungen_wien_24_19-08-2020,MA 35 - Einwanderung und Staatsbürgerschaft,Magistratsabteilung 35 - Einwanderung und Staatsbürgerschaft,Landesbehörde,Administration,Dresdner Straße 93,1200,Wien,Österreich,post@ma35.wien.gv.at,,+43140009935010,19.08.2020
magistratsabteilungen_wien_25_19-08-2020,"MA 36 - Gewerbetechnik, Feuerpolizei und Veranstaltungen","Magistratsabteilung 36 - Gewerbetechnik, Feuerpolizei und Veranstaltungen",Landesbehörde,Administration,Dresdner Straße 73-75,1200,Wien,Österreich,post@ma36.wien.gv.at,+431400036110,+43140009936110,19.08.2020
magistratsabteilungen_wien_26_19-08-2020,MA 37 - Baupolizei,Magistratsabteilung 37 - Baupolizei,Landesbehörde,Administration,Dresdner Straße 73-75,1200,Wien,Österreich,post@ma37.wien.gv.at,,+43140009937010,19.08.2020
magistratsabteilungen_wien_27_19-08-2020,"MA 39 - Prüf-, Inspektions- und Zertifizierungsstelle","Magistratsabteilung 39 - Prüf-, Inspektions- und Zertifizierungsstelle",Landesbehörde,Administration,Rinnböckstraße 15,1110,Wien,Österreich,post@ma39.wien.gv.at,+43140008039,+4314000998039,19.08.2020
magistratsabteilungen_wien_28_19-08-2020,"MA 40 - Soziales, Sozial- und Gesundheitsrecht","Magistratsabteilung 40 - Soziales, Sozial- und Gesundheitsrecht",Landesbehörde,Administration,Thomas-Klestil-Platz 8,1030,Wien,Österreich,post@ma40.wien.gv.at,+431400040415,+43140009940419,19.08.2020
magistratsabteilungen_wien_29_19-08-2020,MA 41 - Stadtvermessung,Magistratsabteilung 41 - Stadtvermessung,Landesbehörde,Administration,Muthgasse 62,1190,Wien,Österreich,post@ma41.wien.gv.at,+431400089115,+4314000998041,19.08.2020
magistratsabteilungen_wien_30_19-08-2020,MA 42 - Wiener Stadtgärten,Magistratsabteilung 42 - Wiener Stadtgärten,Landesbehörde,Administration,Johannesgasse 35,1030,Wien,Österreich,post@ma42.wien.gv.at,+43140008042,+43140009942089,19.08.2020
magistratsabteilungen_wien_31_19-08-2020,MA 44 - Bäder,Magistratsabteilung 44 - Bäder,Landesbehörde,Administration,Reumannplatz 23,1100,Wien,Österreich,post@ma44.wien.gv.at,+4316011244115,+431601129944014,19.08.2020
magistratsabteilungen_wien_32_19-08-2020,MA 45 - Wiener Gewässer,Magistratsabteilung 45 - Wiener Gewässer,Landesbehörde,Administration,Am Brigittenauer Sporn 7,1200,Wien,Österreich,post@ma45.wien.gv.at,+431400096520,+431400096548,19.08.2020
magistratsabteilungen_wien_33_19-08-2020,MA 46 - Verkehrsorganisation und technische Verkehrsangele,Magistratsabteilung 46 - Verkehrsorganisation und technische Verkehrsangele,Landesbehörde,Administration,Niederhofstraße 21-23,1120,Wien,Österreich,post@ma46.wien.gv.at,+431400092615,+43140009992637,19.08.2020
magistratsabteilungen_wien_34_19-08-2020,"MA 48 - Abfallwirtschaft, Straßenreinigung und Fuhrpark","Magistratsabteilung 48 - Abfallwirtschaft, Straßenreinigung und Fuhrpark",Landesbehörde,Administration,Einsiedlergasse 2,1050,Wien,Österreich,post@ma48.wien.gv.at,+43140000,+431400099480037,19.08.2020
magistratsabteilungen_wien_35_19-08-2020,MA 49 - Forst- und Landwirtschaftsbetrieb,Magistratsabteilung 49 - Forst- und Landwirtschaftsbetrieb,Landesbehörde,Administration,Triester Straße 114,1100,Wien,Österreich,post@ma49.wien.gv.at,+431400049000,+43140009949099,19.08.2020
magistratsabteilungen_wien_36_19-08-2020,MA 5 - Finanzwesen,Magistratsabteilung 5 - Finanzwesen,Landesbehörde,Administration,Ebendorferstraße 2,1010,Wien,Österreich,post@ma05.wien.gv.at,+431400086515,+43140009986510,19.08.2020
magistratsabteilungen_wien_37_19-08-2020,MA 50 - Wohnbauförderung und Schlichtungsstelle für wohnre,Magistratsabteilung 50 - Wohnbauförderung und Schlichtungsstelle für wohnre,Landesbehörde,Administration,Muthgasse 62,1190,Wien,Österreich,post@ma50.wien.gv.at,+43140008050,+43140009974810,19.08.2020
magistratsabteilungen_wien_38_19-08-2020,MA 51 - Sport Wien,Magistratsabteilung 51 - Sport Wien,Landesbehörde,Administration,Meiereistraße 7,1020,Wien,Österreich,post@ma51.wien.gv.at,+431400051151,+43140009951151,19.08.2020
magistratsabteilungen_wien_39_19-08-2020,MA 53 - Presse- und Informationsdienst,Magistratsabteilung 53 - Presse- und Informationsdienst,Landesbehörde,Administration,Lichtenfelsgasse 2,1010,Wien,Österreich,post@ma53.wien.gv.at,+431400081015,+43140009981015,19.08.2020
magistratsabteilungen_wien_40_19-08-2020,MA 54 - Zentraler Einkauf,Magistratsabteilung 54 - Zentraler Einkauf,Landesbehörde,Administration,Simone-de-Beauvoir-Platz 6,1220,Wien,Österreich,post@ma54.wien.gv.at,,+43140009954100,19.08.2020
magistratsabteilungen_wien_41_19-08-2020,MA 56 - Wiener Schulen,Magistratsabteilung 56 - Wiener Schulen,Landesbehörde,Administration,Mollardgasse 87,1060,Wien,Österreich,post@ma56.wien.gv.at,+4315991695010,+431599169995010,19.08.2020
magistratsabteilungen_wien_42_19-08-2020,MA 57 - Frauenservice Wien,Magistratsabteilung 57 - Frauenservice Wien,Landesbehörde,Administration,Friedrich-Schmidt-Platz 3,1080,Wien,Österreich,frauen@ma57.wien.gv.at,+431400083515,+43140009983511,19.08.2020
magistratsabteilungen_wien_43_19-08-2020,MA 58 - Wasserrecht,Magistratsabteilung 58 - Wasserrecht,Landesbehörde,Administration,Dresdner Straße 73-75,1200,Wien,Österreich,post@ma58.wien.gv.at,+431400096815,+43140009996810,19.08.2020
magistratsabteilungen_wien_44_19-08-2020,MA 59 - Marktamt,Magistratsabteilung 59 - Marktamt,Landesbehörde,Administration,Spittelauer Lände 45,1090,Wien,Österreich,post@ma59.wien.gv.at,+431400059210,+43140009959210,19.08.2020
magistratsabteilungen_wien_45_19-08-2020,MA 6 - Rechnungs- und Abgabenwesen,Magistratsabteilung 6 - Rechnungs- und Abgabenwesen,Landesbehörde,Administration,Ebendorferstraße 2,1010,Wien,Österreich,post@ma06.wien.gv.at,+431400086019,+43140009986010,19.08.2020
magistratsabteilungen_wien_46_19-08-2020,MA 60 - Veterinäramt und Tierschutz,Magistratsabteilung 60 - Veterinäramt und Tierschutz,Landesbehörde,Administration,Karl-Farkas-Gasse 16,1030,Wien,Österreich,post@ma60.wien.gv.at,+43140008060,+43140009997619,19.08.2020
magistratsabteilungen_wien_47_19-08-2020,MA 62 - Wahlen und verschiedene Rechtsangelegenheiten,Magistratsabteilung 62 - Wahlen und verschiedene Rechtsangelegenheiten,Landesbehörde,Administration,Lerchenfelder Straße 4,1082,Wien,Österreich,post@ma62.wien.gv.at,+431400089424,+43140009989400,19.08.2020
magistratsabteilungen_wien_48_19-08-2020,"MA 63 - Gewerberecht, Datenschutz und Personenstand","Magistratsabteilung 63 - Gewerberecht, Datenschutz und Personenstand",Landesbehörde,Administration,Wipplingerstraße 6-8,1010,Wien,Österreich,post@ma63.wien.gv.at,+431400097097,+43140009997115,19.08.2020
magistratsabteilungen_wien_49_19-08-2020,"MA 64 - Bau-, Energie-, Eisenbahn- und Luftfahrtrecht","Magistratsabteilung 64 - Bau-, Energie-, Eisenbahn- und Luftfahrtrecht",Landesbehörde,Administration,Lerchenfelder Straße 4,1080,Wien,Österreich,post@ma64.wien.gv.at,+431400089919,+43140009989910,19.08.2020
magistratsabteilungen_wien_50_19-08-2020,MA 65 - Rechtliche Verkehrsangelegenheiten,Magistratsabteilung 65 - Rechtliche Verkehrsangelegenheiten,Landesbehörde,Administration,Ungargasse 33,1030,Wien,Österreich,post@ma65.wien.gv.at,+43140003830,+431795149938319,19.08.2020
magistratsabteilungen_wien_51_19-08-2020,MA 67 - Parkraumüberwachung,Magistratsabteilung 67 - Parkraumüberwachung,Landesbehörde,Administration,Dresdner Straße 81-85,1200,Wien,Österreich,post@ma67.wien.gv.at,+43140006700,+43140009967010,19.08.2020
magistratsabteilungen_wien_52_19-08-2020,MA 68 - Feuerwehr und Katastrophenschutz,Magistratsabteilung 68 - Feuerwehr und Katastrophenschutz,Landesbehörde,Administration,Am Hof 9-10,1010,Wien,Österreich,post@ma68.wien.gv.at,+431531990,+4315319951209,19.08.2020
magistratsabteilungen_wien_53_19-08-2020,MA 69 - Immobilienmanagement,Magistratsabteilung 69 - Immobilienmanagement,Landesbehörde,Administration,Lerchenfelder Straße 4,1080,Wien,Österreich,post@ma69.wien.gv.at,+43140008069,+43140009969600,19.08.2020
magistratsabteilungen_wien_54_19-08-2020,MA 7 - Kultur,Magistratsabteilung 7 - Kultur,Landesbehörde,Administration,Friedrich-Schmidt-Platz 5,1080,Wien,Österreich,post@ma07.wien.gv.at,+431400084719,+4314000998007,19.08.2020
magistratsabteilungen_wien_55_19-08-2020,MA 70 - Berufsrettung Wien,Magistratsabteilung 70 - Berufsrettung Wien,Landesbehörde,Administration,Radetzkystraße 1,1030,Wien,Österreich,post@ma70.wien.gv.at,+431711190,,19.08.2020
magistratsabteilungen_wien_56_19-08-2020,MA 8 - Wiener Stadt- und Landesarchiv,Magistratsabteilung 8 - Wiener Stadt- und Landesarchiv,Landesbehörde,Administration,Guglgasse 14,1110,Wien,Österreich,post@ma08.wien.gv.at,+431400084808,+431400084809,19.08.2020
magistratische_bezirksaemter_wien_1_19-08-2020,"MBA für den 1., 8. Bezirk","Magistratisches Bezirksamt für den 1., 8. Bezirk",Bezirksbehörde,Administration,Wipplingerstraße 6-8,1010,Wien,Österreich,post@mba01.wien.gv.at,,+43140009901210,19.08.2020
magistratische_bezirksaemter_wien_2_19-08-2020,MBA für den 10. Bezirk,Magistratisches Bezirksamt für den 10. Bezirk,Bezirksbehörde,Administration,Laxenburger Straße 43-45,1100,Wien,Österreich,post@mba10.wien.gv.at,+431400010000,+43140009910220,19.08.2020
magistratische_bezirksaemter_wien_3_19-08-2020,MBA für den 11. Bezirk,Magistratisches Bezirksamt für den 11. Bezirk,Bezirksbehörde,Administration,Enkplatz 2,1110,Wien,Österreich,post@mba11.wien.gv.at,+431400011000,+43140009911220,19.08.2020
magistratische_bezirksaemter_wien_4_19-08-2020,MBA für den 12. Bezirk,Magistratisches Bezirksamt für den 12. Bezirk,Bezirksbehörde,Administration,Schönbrunner Straße 259,1120,Wien,Österreich,post@mba12.wien.gv.at,+431400012000,+43140009912220,19.08.2020
magistratische_bezirksaemter_wien_5_19-08-2020,"MBA für den 13., 14. Bezirk","Magistratisches Bezirksamt für den 13., 14. Bezirk",Bezirksbehörde,Administration,Hietzinger Kai 1,1130,Wien,Österreich,post@mba13.wien.gv.at,+431400013000,+43140009913220,19.08.2020
magistratische_bezirksaemter_wien_6_19-08-2020,MBA für den 15. Bezirk,Magistratisches Bezirksamt für den 15. Bezirk,Bezirksbehörde,Administration,Gasgasse 8-10,1150,Wien,Österreich,post@mba15.wien.gv.at,+431400015000,+43140009915220,19.08.2020
magistratische_bezirksaemter_wien_7_19-08-2020,MBA für den 16. Bezirk,Magistratisches Bezirksamt für den 16. Bezirk,Bezirksbehörde,Administration,Richard-Wagner-Platz 19,1160,Wien,Österreich,post@mba16.wien.gv.at,+431400016261,+43140009916220,19.08.2020
magistratische_bezirksaemter_wien_8_19-08-2020,"MBA für den 18., 19. Bezirk","Magistratisches Bezirksamt für den 18., 19. Bezirk",Bezirksbehörde,Administration,Martinstraße 100,1180,Wien,Österreich,post@mba18.wien.gv.at,+431400018000,+43140009918220,19.08.2020
magistratische_bezirksaemter_wien_9_19-08-2020,"MBA für den 2., 20. Bezirk","Magistratisches Bezirksamt für den 2., 20. Bezirk",Bezirksbehörde,Administration,Brigittaplatz 10,1200,Wien,Österreich,post@mba20.wien.gv.at,+431400002000,+43140009920220,19.08.2020
magistratische_bezirksaemter_wien_10_19-08-2020,MBA für den 21. Bezirk,Magistratisches Bezirksamt für den 21. Bezirk,Bezirksbehörde,Administration,Am Spitz 1,1210,Wien,Österreich,post@mba21.wien.gv.at,+431400021000,+43140009921220,19.08.2020
magistratische_bezirksaemter_wien_11_19-08-2020,MBA für den 22. Bezirk,Magistratisches Bezirksamt für den 22. Bezirk,Bezirksbehörde,Administration,Schrödingerplatz 1,1220,Wien,Österreich,post@mba22.wien.gv.at,+431400022000,+43140009922220,19.08.2020
magistratische_bezirksaemter_wien_12_19-08-2020,MBA für den 23. Bezirk,Magistratisches Bezirksamt für den 23. Bezirk,Bezirksbehörde,Administration,Perchtoldsdorfer Straße 2,1230,Wien,Österreich,post@mba23.wien.gv.at,+431400023000,+43140009923210,19.08.2020
magistratische_bezirksaemter_wien_13_19-08-2020,MBA für den 3. Bezirk,Magistratisches Bezirksamt für den 3. Bezirk,Bezirksbehörde,Administration,Karl-Borromäus-Platz 3,1030,Wien,Österreich,post@mba03.wien.gv.at,+431400003000,+43140009903210,19.08.2020
magistratische_bezirksaemter_wien_14_19-08-2020,"MBA für den 4., 5. Bezirk","Magistratisches Bezirksamt für den 4., 5. Bezirk",Bezirksbehörde,Administration,Rechte Wienzeile 105,1050,Wien,Österreich,post@mba04.wien.gv.at,+431400005000,+43140009905220,19.08.2020
magistratische_bezirksaemter_wien_15_19-08-2020,"MBA für den 6., 7. Bezirk","Magistratisches Bezirksamt für den 6., 7. Bezirk",Bezirksbehörde,Administration,Hermanngasse 24-26,1070,Wien,Österreich,post@mba06.wien.gv.at,+431400007000,+43140009907220,19.08.2020
