status,id,display_name,legal_name,url,department,street_address,city,neighbourhood,postal_code,region,country,requires_identification,operating_countries,custom_identifier,identifiers,generic_url,generic_email,generic_note,access_url,access_email,access_note,deletion_url,deletion_email,deletion_note,portability_url,portability_email,portability_note,correction_url,correction_email,correction_note
,,AUVA,Allgemeine Unfallversicherungsanstalt,,,Adalbert-Stifter-Straße 65,Wien,,1200,Wien,AUSTRIA,,,sozialversicherung_bund_1_20-08-2020,,,kontakt@auva.at,"Phone: +435939320000, Fax: +435939320606",,,,,,,,,,,,
,,PVA,Pensionsversicherungsanstalt,,,Friedrich-Hillegeist-Straße 1,Wien Postfach,,1021,Wien,AUSTRIA,,,sozialversicherung_bund_2_20-08-2020,,,pva@pensionsversicherung.at,"Phone: +4350303, Fax: +435030328850",,,,,,,,,,,,
,,VA des österreichischen Notariates,Versorgungsanstalt des österreichischen Notariates,,,"Florianigasse 2, Postfach 15",Wien,,1080,Wien,AUSTRIA,,,sozialversicherung_bund_3_20-08-2020,,,office@van.co.at,"Phone: +43140513810, Fax: ",,,,,,,,,,,,
,,BUAK,Bauarbeiter- Urlaubs- und Abfertigungskasse,,,Kliebergasse 1A,Wien,,1050,Wien,AUSTRIA,,,sozialversicherung_bund_4_20-08-2020,,,kommunikation@buak.at,"Phone: +43579579, Fax: ",,,,,,,,,,,,
,,ELGA,ELGA GmbH,,,Treustraße 35-43/ Stg. 4/ 1. Stock,Wien,,1200,Wien,AUSTRIA,,,sozialversicherung_bund_5_20-08-2020,,,office@elga.gv.at,"Phone: +4312127050, Fax: ",,,,,,,,,,,,
,,Dachverband der Sozialversicherungsträger,Dachverband der Sozialversicherungsträger,,,Kundmanngasse 21,Wien,,1030,Wien,AUSTRIA,,,sozialversicherung_bund_6_20-08-2020,,,posteingang.allgemein@sozialversicherung.at,"Phone: +431711320, Fax: ",,,,,,,,,,,,
,,HK-SKA,HK-SKA Betriebs-GmbH,,,Gartenstraße 9,Bad Ischl,,4820,Oberösterreich,AUSTRIA,,,sozialversicherung_bund_7_20-08-2020,,,info@herzreha.at,"Phone: +436132278010, Fax: +436132278018190",,,,,,,,,,,,
,,IEF-Service,IEF-Service GmbH,,,Linke Wienzeile 246,Wien,,1150,Wien,AUSTRIA,,,sozialversicherung_bund_8_20-08-2020,,,office@insolvenzentgelt.at,"Phone: +43120512120, Fax: ",,,,,,,,,,,,
,,IT-Services der Sozialversicherung,IT-Services der Sozialversicherung GmbH,,,Johann-Böhm-Platz 1,Wien,,1020,Wien,AUSTRIA,,,sozialversicherung_bund_9_20-08-2020,,,office@itsv.at,"Phone: +43501248445600, Fax: +43501248445080",,,,,,,,,,,,
,,SVC,Sozialversicherungs-Chipkarten Betriebs- und Errichtungsgesellschaft m.b.H.,,,Ernst-Melchior-Gasse 22,Wien,,1020,Wien,AUSTRIA,,,sozialversicherung_bund_10_20-08-2020,,,info@svc.co.at,"Phone: +43501247140, Fax: +43501247143776",,,,,,,,,,,,
,,SVD,SVD Büromanagement GmbH,,,Dresdner Straße 45,Wien,,1200,Wien,AUSTRIA,,,sozialversicherung_bund_11_20-08-2020,,,office@svdgmbh.at,"Phone: +4317981414, Fax: +4317981414200",,,,,,,,,,,,
,,BVAEB,"Versicherungsanstalt öffentlich Bediensteter, Eisenbahnen und Bergbau",,,Josefstätter Straße 80,Wien,,1080,Wien,AUSTRIA,,,sozialversicherung_bund_12_20-08-2020,,,postoffice@bvaeb.sv.at,"Phone: +4350405, Fax: +435040522900",,,,,,,,,,,,
,,ÖGK,Österreichische Gesundheitskasse,,,"Haidingergasse 1, Postfach 7",Wien,,1006,Wien,AUSTRIA,,,sozialversicherung_bund_13_20-08-2020,,,office@oegk.at,"Phone: +43507660, Fax: ",,,,,,,,,,,,
,,SVS,Sozialversicherungsanstalt der Selbstständigen,,,Wiedner Hauptstraße 84-86,Wien Postfach,,1051,Wien,AUSTRIA,,,sozialversicherung_bund_14_20-08-2020,,,dsb@svs.at,"Phone: +4350808808, Fax: ",,,,,,,,,,,,
,,Allianz Vorsorgekasse,Allianz Vorsorgekasse AG,,,Hietzinger Kai 101-105,Wien,,1130,Wien,AUSTRIA,,,sozialversicherung_bund_15_20-08-2020,,,servicekasse@allianz.at,"Phone: +435900980181, Fax: +435900940128",,,,,,,,,,,,
,,APK Vorsorgekasse,APK Vorsorgekasse AG,,,Thomas-Klestil-Platz 13,Wien,,1030,Wien,AUSTRIA,,,sozialversicherung_bund_16_20-08-2020,,,office@apk-vk.at,"Phone: +435027550, Fax: +43502755609",,,,,,,,,,,,
,,BONUS Vorsorgekasse,BONUS Vorsorgekasse AG,,,Traungasse 14-16,Wien,,1030,Wien,AUSTRIA,,,sozialversicherung_bund_17_20-08-2020,,,kundenservice@bonusvorsorge.at,"Phone: +4319949974, Fax: +43199499741999",,,,,,,,,,,,
,,BUAK Betriebliche Vorsorgekasse,BUAK Betriebliche Vorsorgekasse GesmbH,,,Kliebergasse 1a,Wien,,1050,Wien,AUSTRIA,,,sozialversicherung_bund_18_20-08-2020,,,buak-bvk@buak.at,"Phone: +435795793000, Fax: +4357957993099",,,,,,,,,,,,
,,fair-finance Vorsorgekasse,fair-finance Vorsorgekasse AG,,,Alser Straße 21,Wien,,1080,Wien,AUSTRIA,,,sozialversicherung_bund_19_20-08-2020,,,office@fair-finance.at,"Phone: +43140571710, Fax: +431405717171",,,,,,,,,,,,
,,Niederösterreichische Vorsorgekasse,Niederösterreichische Vorsorgekasse AG,,,Neue Herrengasse 10,St. Pölten,,3100,Niederösterreich,AUSTRIA,,,sozialversicherung_bund_20_22-08-2020,,,office@noevk.at,"Phone: +432742905557100, Fax: +432742905557120",,,,,,,,,,,,
,,Valida Plus,Valida Plus AG,,,Mooslackengasse 12,Wien,,1190,Wien,AUSTRIA,,,sozialversicherung_bund_21_20-08-2020,,,office@valida.at,"Phone: +431316480, Fax: +431316486010",,,,,,,,,,,,
,,VBV – Vorsorgekasse,VBV – Vorsorgekasse AG,,,Obere Donaustraße 49-53,Wien,,1020,Wien,AUSTRIA,,,sozialversicherung_bund_22_20-08-2020,,,info@vorsorgekasse.at,"Phone: +431217018500, Fax: +4312170178260",,,,,,,,,,,,
,,Bundeskammer der ZiviltechnikerInnen,Bundeskammer der ZiviltechnikerInnen,,,Karlsgasse 9/2,Wien,,1040,Wien,AUSTRIA,,,kammern_bund_1_18-08-2020,,,office@arching.at,"Phone: +4315055807, Fax: +4315053211",,,,,,,,,,,,
,,Kammer der Steuerberater und Wirtschaftsprüfer,Kammer der Steuerberater und Wirtschaftsprüfer,,,Schönbrunner Straße 222-228,Wien,,1120,Wien,AUSTRIA,,,kammern_bund_2_18-08-2020,,,office@ksw.or.at,"Phone: +431811730, Fax: +43181173100",,,,,,,,,,,,
,,Arbeiterkammer,Kammer für Arbeiter und Angestellte für Wien als Büro der Bundesarbeitskammer,,,Prinz-Eugen-Straße 20-22,Wien,,1040,Wien,AUSTRIA,,,kammern_bund_3_18-08-2020,,,akmailbox@akwien.at,"Phone: +431501650, Fax: ",,,,,,,,,,,,
,,Apothekerkammer,Österreichische Apothekerkammer,,,Spitalgasse 31,Wien,,1090,Wien,AUSTRIA,,,kammern_bund_4_18-08-2020,,,info@apotheker.or.at,"Phone: +43140414100, Fax: +4314088440",,,,,,,,,,,,
,,Ärztekammer,Österreichische Ärztekammer,,,Weihburggasse 10-12,Wien,,1010,Wien,AUSTRIA,,,kammern_bund_5_18-08-2020,,,post@aerztekammer.at,"Phone: +431514063000, Fax: +431514063042",,,,,,,,,,,,
,,Notariatskammer,Österreichische Notariatskammer,,,Landesgerichtsstraße 20,Wien,,1010,Wien,AUSTRIA,,,kammern_bund_6_18-08-2020,,,kammer@notar.or.at,"Phone: +43140245090, Fax: +4314063475",,,,,,,,,,,,
,,Patentanwaltskammer,Österreichische Patentanwaltskammer,,,Linke Wienzeile 4/1/9,Wien,,1060,Wien,AUSTRIA,,,kammern_bund_7_18-08-2020,,,info@oepak.at,"Phone: +4315234382, Fax: +438109554103327",,,,,,,,,,,,
,,Tierärztekammer,Österreichische Tierärztekammer,,,Hietzinger Kai 87,Wien,,1130,Wien,AUSTRIA,,,kammern_bund_8_18-08-2020,,,oe@tieraerztekammer.at,"Phone: +4315121766, Fax: +4315121470",,,,,,,,,,,,
,,Zahnärztekammer,Österreichische Zahnärztekammer,,,Kohlmarkt 11/6,Wien,,1010,Wien,AUSTRIA,,,kammern_bund_9_18-08-2020,,,office@zahnaerztekammer.at,"Phone: +4350511, Fax: +43505111167",,,,,,,,,,,,
,,Österreichischer Landarbeiterkammertag,Österreichischer Landarbeiterkammertag,,,Marco d´Avianogasse 1/1,Wien,,1015,Wien,AUSTRIA,,,kammern_bund_10_18-08-2020,,,oelakt@landarbeiterkammer.at,"Phone: +4315122331, Fax: +431512233170",,,,,,,,,,,,
,,Österreichischer Rechtsanwaltskammertag,Österreichischer Rechtsanwaltskammertag,,,Wollzeile 1-3,Wien,,1010,Wien,AUSTRIA,,,kammern_bund_11_18-08-2020,,,rechtsanwaelte@oerak.at,"Phone: +43153512750, Fax: +431535127513",,,,,,,,,,,,
,,Pharmazeutische Gehaltskasse,Pharmazeutische Gehaltskasse für Österreich,,,Spitalgasse 31,Wien,,1090,Wien,AUSTRIA,,,kammern_bund_12_18-08-2020,,,office@gk.or.at,"Phone: +43140414200, Fax: +43140414249",,,,,,,,,,,,
,,Wirtschaftskammer,Wirtschaftskammer Österreich,,,Wiedner Hauptstraße 63,Wien,,1045,Wien,AUSTRIA,,,kammern_bund_13_18-08-2020,,,office@wko.at,"Phone: +43590900, Fax: +43590900250",,,,,,,,,,,,
,,ASFINAG,Autobahnen- und Schnellstraßen Finanzierungs-Aktiengesellschaft,,,"Rotenturmstraße 5-9, Postfach 983",Wien Postfach,,1011,Wien,AUSTRIA,,,staatsnahe_staatseigene_unternehmen_bund_1_21-08-2020,,,office@asfinag.at,"Phone: +435010810000, Fax: +435010810020",,,,,,,,,,,,
,,BIG,Bundesimmobiliengesellschaft m.b.H.,,,Trabrennstraße 2c,Wien,,1020,Wien,AUSTRIA,,,staatsnahe_staatseigene_unternehmen_bund_2_21-08-2020,,,office@big.at,"Phone: +43502440, Fax: +43502442211",,,,,,,,,,,,
,,Österreichische Bundesforste,Österreichische Bundesforste AG,,,Pummergasse 10-12,Purkersdorf,,3002,Niederösterreich,AUSTRIA,,,staatsnahe_staatseigene_unternehmen_bund_3_21-08-2020,,,bundesforste@bundesforste.at,"Phone: +4322316000, Fax: ",,,,,,,,,,,,
,,GIS,GIS Gebühren Info Service GmbH,,,"Faulmanngasse 4, Postfach 1000",Wien Postfach,,1051,Wien,AUSTRIA,,,staatsnahe_staatseigene_unternehmen_bund_4_21-08-2020,,,kundenservice@gis.at,"Phone: +4350200, Fax: +4350200300",,,,,,,,,,,,
,,Nationalfonds der Republik Österreich für Opfer des Nationalsozialismus,Nationalfonds der Republik Österreich für Opfer des Nationalsozialismus,,,"Parlament, Dr.-Karl-Renner-Ring 3",Wien-Parlament,,1017,Wien,AUSTRIA,,,staatsnahe_staatseigene_unternehmen_bund_5_21-08-2020,,,nf-sekretariat@nationalfonds.org,"Phone: +4314081263, Fax: ",,,,,,,,,,,,
,,Bundesbeschaffung,Bundesbeschaffung GmbH,,,Lassallestraße 9b,Wien,,1020,Wien,AUSTRIA,,,staatsnahe_staatseigene_unternehmen_bund_6_21-08-2020,,,office@bbg.gv.at,"Phone: +431245700, Fax: +4312457099",,,,,,,,,,,,
,,BRZ,Bundesrechenzentrum GmbH,,,Hintere Zollamtsstraße 4,Wien,,1030,Wien,AUSTRIA,,,staatsnahe_staatseigene_unternehmen_bund_7_21-08-2020,,,kommunikation@brz.gv.at,"Phone: +431711230, Fax: ",,,,,,,,,,,,
,,Bundesstelle für Sektenfragen,Bundesstelle für Sektenfragen,,,Wollzeile 12/2/19,Wien,,1010,Wien,AUSTRIA,,,staatsnahe_staatseigene_unternehmen_bund_8_21-08-2020,,,bundesstelle@sektenfragen.at,"Phone: +4315130460, Fax: +431513046030",,,,,,,,,,,,
,,ÖNB,Österreichische Nationalbibliothek,,,"Josefsplatz 1, Postfach 25",Wien,,1015,Wien,AUSTRIA,,,staatsnahe_staatseigene_unternehmen_bund_9_21-08-2020,,,onb@onb.ac.at,"Phone: +43153410, Fax: +43153410280",,,,,,,,,,,,
,,Volksoper,Volksoper Wien,,,Währinger Straße 78,Wien,,1090,Wien,AUSTRIA,,,staatsnahe_staatseigene_unternehmen_bund_10_21-08-2020,,,office@volksoper.at,"Phone: +431514440, Fax: +431514443215",,,,,,,,,,,,
,,Bundestheater Holding,Bundestheater-Holding GmbH,,,Goethegasse 1,Wien,,1010,Wien,AUSTRIA,,,staatsnahe_staatseigene_unternehmen_bund_11_21-08-2020,,,office@bundestheater.at,"Phone: +431514440, Fax: ",,,,,,,,,,,,
,,Burgtheater,Burgtheater GmbH,,,Universitätsring 2,Wien,,1010,Wien,AUSTRIA,,,staatsnahe_staatseigene_unternehmen_bund_12_21-08-2020,,,info@burgtheater.at,"Phone: +431514444545, Fax: ",,,,,,,,,,,,
,,Kunsthistorisches Museum,Kunsthistorisches Museum,,,Burgring 5,Wien,,1010,Wien,AUSTRIA,,,staatsnahe_staatseigene_unternehmen_bund_13_21-08-2020,,,info@khm.at,"Phone: +431525240, Fax: +431525244099",,,,,,,,,,,,
,,Naturhistorisches Museum,Naturhistorisches Museum Wien,,,Burgring 7,Wien,,1010,Wien,AUSTRIA,,,staatsnahe_staatseigene_unternehmen_bund_14_21-08-2020,,,info@nhm-wien.ac.at,"Phone: +431521770, Fax: +43152177578",,,,,,,,,,,,
,,Technisches Museum,Technisches Museum Wien mit Österreichischer Mediathek,,,Mariahilfer Straße 212,Wien,,1140,Wien,AUSTRIA,,,staatsnahe_staatseigene_unternehmen_bund_15_21-08-2020,,,museumsbox@tmw.at,"Phone: +431899980, Fax: ",,,,,,,,,,,,
,,Agentur für Passagier- und Fahrgastrechte,Österreichische Gesellschaft für Schienenmarktregulierung mit beschränkter Haftung,,,Linke Wienzeile 4/1/6,Wien,,1060,Wien,AUSTRIA,,,staatsnahe_staatseigene_unternehmen_bund_16_21-08-2020,,,office@schienencontrol.gv.at,"Phone: +4315050707, Fax: ",,,,,,,,,,,,
,,Austria Wirtschaftsservice,Austria Wirtschaftsservice Gesellschaft m.b.H.,,,Walcherstraße 11A,Wien,,1020,Wien,AUSTRIA,,,staatsnahe_staatseigene_unternehmen_bund_17_21-08-2020,,,post@aws.at,"Phone: +431501750, Fax: +43150175900",,,,,,,,,,,,
,,Staatsoper,Wiener Staatsoper GmbH,,,Opernring 2,Wien,,1010,Wien,AUSTRIA,,,staatsnahe_staatseigene_unternehmen_bund_18_21-08-2020,,,information@wiener-staatsoper.at,"Phone: +431514442250, Fax: +431514442259",,,,,,,,,,,,
,,ORF,Österreichischer Rundfunk,,,Würzburggasse 30,Wien,,1136,Wien,AUSTRIA,,,staatsnahe_staatseigene_unternehmen_bund_19_21-08-2020,,,kundendienst@orf.at,"Phone: +431878780, Fax: +4318787830",,,,,,,,,,,,
,,Spanische Hofreitschule – Lipizzanergestüt Piber,Spanische Hofreitschule – Lipizzanergestüt Piber,,,Michaelerplatz 1,Wien,,1010,Wien,AUSTRIA,,,staatsnahe_staatseigene_unternehmen_bund_20_21-08-2020,,,office@srs.at,"Phone: +4315339031, Fax: ",,,,,,,,,,,,
,,AGES,Österreichische Agentur für Gesundheit und Ernährungssicherheit GmbH,,,Spargelfeldstrasse 191,Wien,,1220,Wien,AUSTRIA,,,staatsnahe_staatseigene_unternehmen_bund_21_20-08-2020,,,management@ages.at,"Phone: +43505550, Fax: +435055522019",,,,,,,,,,,,
,,Landwirtschaftliche Bundesversuchswirtschaften,Landwirtschaftliche Bundesversuchswirtschaften GmbH,,,Rottenhauserstraße 32,Wieselburg,,3250,Niederösterreich,AUSTRIA,,,staatsnahe_staatseigene_unternehmen_bund_22_21-08-2020,,,office@bvw.at,"Phone: +437416522410, Fax: +4374165224115",,,,,,,,,,,,
,,LFRZ,"Land-, forst- und wasserwirtschaftliches Rechenzentrum GmbH",,,Hintere Zollamtsstraße 4,Wien,,1030,Wien,AUSTRIA,,,staatsnahe_staatseigene_unternehmen_bund_23_20-08-2020,,,office@lfrz.gv.at,"Phone: +431331760, Fax: ",,,,,,,,,,,,
,,WSR,Wirtschafts- und Sozialwissenschaftliches Rechenzentrum,,,Arsenal Objekt 20,Wien,,1030,Wien,AUSTRIA,,,staatsnahe_staatseigene_unternehmen_bund_24_20-08-2020,,,info@wsr.ac.at,"Phone: +4317981122, Fax: +431798112250",,,,,,,,,,,,
,,ÖBAG,Österreichische Beteiligungs AG,,,Kolingasse 14-16,Wien,,1090,Wien,AUSTRIA,,,staatsnahe_staatseigene_unternehmen_bund_25_21-08-2020,,,kontakt@oebag.gv.at,"Phone: +431711140, Fax: ",,,,,,,,,,,,
,,OeSD,Österreichische Staatsdruckerei GmbH,,,Tenschertstraße 7,Wien,,1239,Wien,AUSTRIA,,,staatsnahe_staatseigene_unternehmen_bund_26_22-08-2020,,,office@staatsdruckerei.at,"Phone: +431206660, Fax: +43120666100",,,,,,,,,,,,
,,Dorotheum,Dorotheum GmbH & Co KG,,,Dorotheergasse 17,Wien,,1010,Wien,AUSTRIA,,,staatsnahe_staatseigene_unternehmen_bund_27_22-08-2020,,,client.services@dorotheum.at,"Phone: +431515600, Fax: +43151560443",,,,,,,,,,,,
,,Austria Tabak,JTI Austria GmbH,,,Erdberger Lände 26a/71,Wien,,1030,Wien,AUSTRIA,,,staatsnahe_staatseigene_unternehmen_bund_28_22-08-2020,,,konsumentenservice@jti.com,"Phone: +431313421, Fax: ",,,,,,,,,,,,
,,Vamed,Vamed AG,,,Sterngasse 5,Wien,,1230,Wien,AUSTRIA,,,staatsnahe_staatseigene_unternehmen_bund_29_22-08-2020,,,office@vamed.com,"Phone: +431601270, Fax: +43160127108",,,,,,,,,,,,
,,"Bundesministerium für Soziales, Gesundheit, Pflege und Konsumentenschutz","Bundesministerium für Soziales, Gesundheit, Pflege und Konsumentenschutz",,,Stubenring 1,Wien,,1010,Wien,AUSTRIA,,,bundesbehoerden_bund_1_20-08-2020,,,post@sozialministerium.at,"Phone: +431711000, Fax: +4317158258",,,,,,,,,,,,
,,"Bundesministerium für Bildung, Wissenschaft und Forschung","Bundesministerium für Bildung, Wissenschaft und Forschung",,,Minoritenplatz 5,Wien,,1010,Wien,AUSTRIA,,,bundesbehoerden_bund_2_20-08-2020,,,ministerium@bmbwf.gv.at,"Phone: +431531200, Fax: +431531203099",,,,,,,,,,,,
,,Bundesministerium für europäische und internationale Angelegenheiten,Bundesministerium für europäische und internationale Angelegenheiten,,,Minoritenplatz 8,Wien,,1010,Wien,AUSTRIA,,,bundesbehoerden_bund_3_20-08-2020,,,post@bmeia.gv.at,"Phone: +43501150, Fax: +43501159",,,,,,,,,,,,
,,"Bundesministerium für Arbeit, Familie und Jugend","Bundesministerium für Arbeit, Familie und Jugend",,,Untere Donaustraße 13 - 15,Wien,,1020,Wien,AUSTRIA,,,bundesbehoerden_bund_4_20-08-2020,,,office@bmafj.gv.at,"Phone: +431711000, Fax: ",,,,,,,,,,,,
,,Bundesministerium für Finanzen,Bundesministerium für Finanzen,,,Johannesgasse 5,Wien,,1010,Wien,AUSTRIA,,,bundesbehoerden_bund_5_20-08-2020,,,post@bmf.gv.at,"Phone: +431514330, Fax: ",,,,,,,,,,,,
,,Bundesministerium für Inneres,Bundesministerium für Inneres,,,Herrengasse 7,Wien,,1010,Wien,AUSTRIA,,,bundesbehoerden_bund_6_20-08-2020,,,post@bmi.gv.at,"Phone: +431531260, Fax: +43153126108613",,,,,,,,,,,,
,,Bundesministerium für Justiz,Bundesministerium für Justiz,,,Museumstraße 7,Wien,,1070,Wien,AUSTRIA,,,bundesbehoerden_bund_7_20-08-2020,,,post@bmj.gv.at,"Phone: +4315263686, Fax: ",,,,,,,,,,,,
,,"Bundesministerium für Landwirtschaft, Regionen und Tourismus","Bundesministerium für Landwirtschaft, Regionen und Tourismus",,,Stubenring 1,Wien,,1010,Wien,AUSTRIA,,,bundesbehoerden_bund_8_20-08-2020,,,office@bmlrt.gv.at,"Phone: +431711000, Fax: +43171100606503",,,,,,,,,,,,
,,Bundesministerium für Landesverteidigung,Bundesministerium für Landesverteidigung,,,Roßauer Lände 1,Wien,,1090,Wien,AUSTRIA,,,bundesbehoerden_bund_9_20-08-2020,,,buergerservice@bmlv.gv.at,"Phone: +43502011021160, Fax: ",,,,,,,,,,,,
,,"Bundesministerium für Klimaschutz, Umwelt, Energie, Mobilität, Innovation und Technologie","Bundesministerium für Klimaschutz, Umwelt, Energie, Mobilität, Innovation und Technologie",,,Radetzkystraße 2,Wien,,1030,Wien,AUSTRIA,,,bundesbehoerden_bund_10_20-08-2020,,,servicebuero@bmk.gv.at,"Phone: +43171162650, Fax: ",,,,,,,,,,,,
,,"Bundesministerium für Kunst, Kultur, öffentlichen Dienst und Sport","Bundesministerium für Kunst, Kultur, öffentlichen Dienst und Sport",,,Radetzkystraße 2,Wien,,1030,Wien,AUSTRIA,,,bundesbehoerden_bund_11_20-08-2020,,,buergerservice@bmkoes.gv.at,"Phone: +431716060, Fax: ",,,,,,,,,,,,
,,Bundesministerium für Digitalisierung und Wirtschaftsstandort,Bundesministerium für Digitalisierung und Wirtschaftsstandort,,,Stubenring 1,Wien,,1010,Wien,AUSTRIA,,,bundesbehoerden_bund_12_20-08-2020,,,service@bmdw.gv.at,"Phone: +431711000, Fax: ",,,,,,,,,,,,
,,Sozialministeriumservice,Bundesamt für Soziales und Behindertenwesen – Sozialministeriumservice,,,Babenbergerstraße 5,Wien,,1010,Wien,AUSTRIA,,,bundesbehoerden_bund_13_20-08-2020,,,post@sozialministeriumservice.at,"Phone: +4359988, Fax: +431588312266",,,,,,,,,,,,
,,Beschussamt Wien,Beschussamt Wien,,,Wielandweg 27,Wien,,1220,Wien,AUSTRIA,,,bundesbehoerden_bund_14_20-08-2020,,,office-wien@beschussamt.gv.at,"Phone: +43173462680, Fax: +431734626812",,,,,,,,,,,,
,,Beschussamt Ferlach,Beschussamt Ferlach,,,Maschinenhausgasse 3-4,Ferlach,,9170,Kärnten,AUSTRIA,,,bundesbehoerden_bund_15_20-08-2020,,,office-ferlach@beschussamt.gv.at,"Phone: +4342272576, Fax: +4342274174",,,,,,,,,,,,
,,Bundeskanzleramt,Bundeskanzleramt,,,Ballhausplatz 2,Wien,,1010,Wien,AUSTRIA,,,bundesbehoerden_bund_16_20-08-2020,,,service@bka.gv.at,"Phone: +431531150, Fax: +43153115204274",,,,,,,,,,,,
,,Datenschutzbehörde,Österreichische Datenschutzbehörde,,,Barichgasse 40-42,Wien,,1030,Wien,AUSTRIA,,,bundesbehoerden_bund_17_20-08-2020,,,dsb@dsb.gv.at,"Phone: +431521522569, Fax: ",,,,,,,,,,,,
,,KommAustria,KommAustria,,,Mariahilfer Straße 77-79,Wien,,1060,Wien,AUSTRIA,,,bundesbehoerden_bund_18_20-08-2020,,,rtr@rtr.at,"Phone: +431580580, Fax: +431580589191",,,,,,,,,,,,
,,RTR,Rundfunk und Telekom Regulierungs-GmbH,,,Mariahilfer Straße 77-79,Wien,,1060,Wien,AUSTRIA,,,bundesbehoerden_bund_19_20-08-2020,,,rtr@rtr.at,"Phone: +431580580, Fax: +431580589191",,,,,,,,,,,,
,,Bundesverwaltungsgericht,Bundesverwaltungsgericht,,,Erdbergstraße 192-196,Wien,,1030,Wien,AUSTRIA,,,bundesbehoerden_bund_20_20-08-2020,,,einlaufstelle@bvwg.gv.at,"Phone: +431601490, Fax: +431711238891541",,,,,,,,,,,,
,,Verwaltungsgerichtshof,Verwaltungsgerichtshof,,,"Judenplatz 11, Postfach 50",Wien,,1016,Wien,AUSTRIA,,,bundesbehoerden_bund_21_20-08-2020,,,office@vwgh.gv.at,"Phone: +431531110, Fax: +43153111101508",,,,,,,,,,,,
,,Oberster Gerichtshof,Oberster Gerichtshof,,,Schmerlingplatz 11,Wien,,1010,Wien,AUSTRIA,,,bundesbehoerden_bund_22_20-08-2020,,,christoph.brenn@justiz.gv.at,"Phone: +431521520, Fax: +431521523710",,,,,,,,,,,,
,,Verfassungsgerichtshof,Verfassungsgerichtshof,,,Freyung 8,Wien,,1010,Wien,AUSTRIA,,,bundesbehoerden_bund_23_20-08-2020,,,vfgh@vfgh.gv.at,"Phone: +431531220, Fax: +431531220499",,,,,,,,,,,,
,,Bundesdenkmalamt,Bundesdenkmalamt,,,"Hofburg, Säulenstiege",Wien,,1010,Wien,AUSTRIA,,,bundesbehoerden_bund_24_20-08-2020,,,service@bda.gv.at,"Phone: +43153415, Fax: ",,,,,,,,,,,,
,,Hofmusikkapelle,Hofmusikkapelle,,,"Hofburg, Schweizerhof",Wien,,1010,Wien,AUSTRIA,,,bundesbehoerden_bund_25_20-08-2020,,,office@hofmusikkapelle.gv.at,"Phone: +4315339927, Fax: +431533992780",,,,,,,,,,,,
,,Sicherheitsuntersuchungsstelle des Bundes,Sicherheitsuntersuchungsstelle des Bundes,,,"Radetzkystraße 2, Postfach 206",Wien,,1000,Wien,AUSTRIA,,,bundesbehoerden_bund_26_20-08-2020,,,sub@bmvit.gv.at,"Phone: +43171162657777, Fax: +43171162659298",,,,,,,,,,,,
,,BFTK,Büro für Funkanlagen und Telekommunikationsendeinrichtungen,,,Radetzkystraße 2,Wien,,1030,Wien,AUSTRIA,,,bundesbehoerden_bund_27_20-08-2020,,,bftk@bmvit.gv.at,"Phone: +43171162654040, Fax: +43171162654049",,,,,,,,,,,,
,,Fernmeldebehörde Republik Österreich,Fernmeldebehörde Republik Österreich,,,Radetzkystraße 2,Wien,,1030,Wien,AUSTRIA,,,bundesbehoerden_bund_28_20-08-2020,,,fb@bmvit.gv.at,"Phone: +43171162650, Fax: +4317130326",,,,,,,,,,,,
,,Bundesamt für Wasserwirtschaft,Bundesamt für Wasserwirtschaft,,,Scharfling 18,Mondsee,,5310,Oberösterreich,AUSTRIA,,,bundesbehoerden_bund_29_20-08-2020,,,direktion@baw.at,"Phone: +43623238470, Fax: +436232384733",,,,,,,,,,,,
,,Bundesamt für Weinbau,Bundesamt für Weinbau,,,Gölbeszeile 1,Eisenstadt,,7000,Burgenland,AUSTRIA,,,bundesbehoerden_bund_30_20-08-2020,,,office@bawb.at,"Phone: +43268265905, Fax: +4326826590542",,,,,,,,,,,,
,,Bundesanstalt für Agrarwirtschaft und Bergbauernfragen,Bundesanstalt für Agrarwirtschaft und Bergbauernfragen,,,Dietrichgasse 27,Wien,,1030,Wien,AUSTRIA,,,bundesbehoerden_bund_31_20-08-2020,,,office@bab.gv.at,"Phone: +43171100637415, Fax: +43171100637490",,,,,,,,,,,,
,,BFW,"Bundesforschungs- und Ausbildungszentrum für Wald, Naturgefahren und Landschaft sowie Bundesamt für Wald",,,Seckendorff-Gudent-Weg 8,Wien Postfach,,1131,Wien,AUSTRIA,,,bundesbehoerden_bund_32_20-08-2020,,,direktion@bfw.gv.at,"Phone: +431878381250, Fax: +431878381250",,,,,,,,,,,,
,,Österreichische Bundesgärten,HBFLA für Gartenbau Schönbrunn und Österreichische Bundesgärten,,,Grünbergstraße 24,Wien,,1130,Wien,AUSTRIA,,,bundesbehoerden_bund_33_20-08-2020,,,office@bundesgaerten.at,"Phone: +43181359500, Fax: +431813595099",,,,,,,,,,,,
,,Bundeskellereiinspektion,Bundeskellereiinspektion,,,Marxergasse 2,Wien,,1030,Wien,AUSTRIA,,,bundesbehoerden_bund_34_20-08-2020,,,elfriede.gumprecht@bundeskellereiinspektion.at,"Phone: +43171100637025, Fax: +43171100637054",,,,,,,,,,,,
,,Statistik Austria,Bundesanstalt Statistik Österreich ,,,Guglgasse 13,Wien,,1110,Wien,AUSTRIA,,,bundesbehoerden_bund_35_20-08-2020,,,office@statistik.gv.at,"Phone: +431711280, Fax: +431711287728",,,,,,,,,,,,
,,E-Control,Energie-Control Austria für die Regulierung der Elektrizitäts- und Erdgaswirtschaft,,,Rudolfsplatz 13a,Wien,,1010,Wien,AUSTRIA,,,bundesbehoerden_bund_36_20-08-2020,,,office@e-control.at,"Phone: +431247240, Fax: +43124724900",,,,,,,,,,,,
,,GBA,Geologische Bundesanstalt,,,Neulinggasse 38,Wien,,1030,Wien,AUSTRIA,,,bundesbehoerden_bund_37_20-08-2020,,,office@geologie.ac.at,"Phone: +4317125674, Fax: +431712567456",,,,,,,,,,,,
,,ZAMG,Zentralanstalt für Meteorologie und Geodynamik ,,,Hohe Warte 38,Wien,,1190,Wien,AUSTRIA,,,bundesbehoerden_bund_38_20-08-2020,,,dion@zamg.ac.at,"Phone: +43136026, Fax: +4313691233",,,,,,,,,,,,
,,Gedenkstätte Mauthausen,Gedenkstätte Mauthausen,,,"Argentinierstraße 13, Top 103+104",Wien,,1040,Wien,AUSTRIA,,,bundesbehoerden_bund_39_20-08-2020,,,office@mauthausen-memorial.org,"Phone: +4313763000100, Fax: ",,,,,,,,,,,,
,,JBA,Justizbetreuungsagentur,,,Universitätsstraße 5/7,Wien,,1010,Wien,AUSTRIA,,,bundesbehoerden_bund_40_20-08-2020,,,office@jba.gv.at,"Phone: +4319089022300, Fax: +4319089022310",,,,,,,,,,,,
,,BHAG,Buchhaltungsagentur des Bundes,,,Dresdner Straße 89,Wien,,1200,Wien,AUSTRIA,,,bundesbehoerden_bund_41_20-08-2020,,,ds@bhag.gv.at,"Phone: +4350506859843, Fax: ",,,,,,,,,,,,
,,Agentur für Rechnungswesen,Agentur für Rechnungswesen GmbH,,,Dresdner Straße 89,Wien,,1200,Wien,AUSTRIA,,,bundesbehoerden_bund_42_20-08-2020,,,office@arw.gv.at,"Phone: +43505060, Fax: ",,,,,,,,,,,,
,,BEV,Bundesamt für Eich- und Vermessungswesen,,,Schiffamtsgasse 1-3,Wien,,1020,Wien,AUSTRIA,,,bundesbehoerden_bund_43_20-08-2020,,,kundenservice@bev.gv.at,"Phone: +43121110822160, Fax: +4312111082992161",,,,,,,,,,,,
,,BAES,Bundesamt für Ernährungssicherheit,,,"p.A. AGES, Spargelfeldstrasse 191",Wien,,1200,Wien,AUSTRIA,,,bundesbehoerden_bund_44_20-08-2020,,,baes@baes.gv.at,"Phone: +435055532350, Fax: ",,,,,,,,,,,,
,,BFA,Bundesamt für Fremdenwesen und Asyl,,,Modecenterstraße 22,Wien,,1030,Wien,AUSTRIA,,,bundesbehoerden_bund_45_20-08-2020,,,BFA-Einlaufstelle@bmi.gv.at,"Phone: +4359133987004, Fax: +4359133987399",,,,,,,,,,,,
,,BAK,Bundesamt zur Korruptionsprävention und Korruptionsbekämpfung,,,Herrengasse 7,Wien,,1010,Wien,AUSTRIA,,,bundesbehoerden_bund_46_20-08-2020,,,BMI-III-BAK-SPOC@bak.gv.at,"Phone: +43153126906800, Fax: +43153126108583",,,,,,,,,,,,
,,BASG,Bundesamt für Sicherheit im Gesundheitswesen,,,Traisengasse 5,Wien,,1200,Wien,AUSTRIA,,,bundesbehoerden_bund_47_20-08-2020,,,basg_anfragen@basg.gv.at,"Phone: +435055536111, Fax: +435055536111",,,,,,,,,,,,
,,BVT,Bundesamt für Verfassungsschutz und Terrorismusbekämpfung,,,"Herrengasse 7, Postfach 100",Wien,,1010,Wien,AUSTRIA,,,bundesbehoerden_bund_48_20-08-2020,,,BMI-II-BVT@bmi.gv.at,"Phone: +431531260, Fax: +43153126108613",,,,,,,,,,,,
,,BFW,Bundesamt für Wald,,,Seckendorff-Gudent-Weg 8,Wien Postfach,,1131,Wien,AUSTRIA,,,bundesbehoerden_bund_49_20-08-2020,,,bundesamt@bfw.gv.at,"Phone: +431878382214, Fax: ",,,,,,,,,,,,
,,Umweltbundesamt,Umweltbundesamt GmbH,,,Spittelauer Lände 5,Wien,,1090,Wien,AUSTRIA,,,bundesbehoerden_bund_50_20-08-2020,,,datenschutzbeauftragter@umweltbundesamt.at,"Phone: +43131304, Fax: +431313045400",,,,,,,,,,,,
,,AMS,Arbeitsmarktservice,,,Treustraße 35-43,Wien,,1200,Wien,AUSTRIA,,,bundesbehoerden_bund_51_20-08-2020,,,ams.oesterreich@ams.at,"Phone: +4350904199, Fax: +4350904188",,,,,,,,,,,,
,,Austro Control,Österreichische Gesellschaft für Zivilluftfahrt mit beschränkter Haftung,,,Wagramer Straße 19,Wien,,1220,Wien,AUSTRIA,,,bundesbehoerden_bund_52_20-08-2020,,,info@austrocontrol.at,"Phone: +43517030, Fax: +435170301536",,,,,,,,,,,,
,,Österreichische Nationalbank,Österreichische Nationalbank,,,Otto-Wagner-Platz 3,Wien,,1090,Wien,AUSTRIA,,,bundesbehoerden_bund_53_20-08-2020,,,posteingang@oenb.at,"Phone: +431404200, Fax: +43140420042399",,,,,,,,,,,,
,,Rechnungshof,Rechnungshof Österreich,,,Dampfschiffstraße 2,Wien Postfach,,1031,Wien,AUSTRIA,,,bundesbehoerden_bund_54_20-08-2020,,,office@rechnungshof.gv.at,"Phone: +431711710, Fax: ",,,,,,,,,,,,
,,Schienen Control,Österreichische Gesellschaft für Schienenmarktregulierung mit beschränkter Haftung,,,Linke Wienzeile 4/1/6,Wien,,1060,Wien,AUSTRIA,,,bundesbehoerden_bund_55_20-08-2020,,,office@schienencontrol.gv.at,"Phone: +4315050707, Fax: ",,,,,,,,,,,,
,,Patentamt,Österreichisches Patentamt,,,Dresdner Straße 87,Wien,,1200,Wien,AUSTRIA,,,bundesbehoerden_bund_56_20-08-2020,,,info@patentamt.at,"Phone: +431534240, Fax: ",,,,,,,,,,,,
,,Heerespersonalamt,Heerespersonalamt,,,Panikengasse 2,Wien,,1163,Wien,AUSTRIA,,,bundesbehoerden_bund_57_20-08-2020,,,hpa.wien1@bmlvs.gv.at,"Phone: +4350201991650, Fax: ",,,,,,,,,,,,
,,Studienbeihilfenbehörde,Studienbeihilfenbehörde,,,Gudrunstraße 179,Wien,,1100,Wien,AUSTRIA,,,bundesbehoerden_bund_58_23-08-2020,,,dsb@stbh.gv.at,"Phone: +431601730, Fax: +43160173200",,,,,,,,,,,,
,,BIFIE,"Bundesinstitut für Bildungsforschung, Innovation & Entwicklung des österreichischen Schulwesens",,,Alpenstraße 121,Salzburg,,5020,Salzburg,AUSTRIA,,,bundesbehoerden_bund_59_23-08-2020,,,office@bifie.at,"Phone: +43662620088, Fax: +436626200881900",,,,,,,,,,,,
,,ÖSZ,Österreichisches Sprachen-Kompetenz-Zentrum,,,Hans-Sachs-Gasse 3/I,Graz,,8010,Steiermark,AUSTRIA,,,bundesbehoerden_bund_60_23-08-2020,,,office@oesz.at,"Phone: +43316824150, Fax: +433168241506",,,,,,,,,,,,
,,ÖGB,Österreichischer Gewerkschaftsbund,,,Johann-Böhm-Platz 1,Wien,,1020,Wien,AUSTRIA,,,gewerkschaften_bund_1_22-08-2020,,,oegb@oegb.at,"Phone: +4315344439, Fax: ",,,,,,,,,,,,
,,GPA-djp,"Gewerkschaft der Privatangestellten, Druck, Journalismus, Papier",,,Alfred-Dallinger-Platz 1,Wien,,1034,Wien,AUSTRIA,,,gewerkschaften_bund_2_22-08-2020,,,service@gpa-djp.at,"Phone: +4350301301, Fax: ",,,,,,,,,,,,
,,GÖD,Gewerkschaft Öffentlicher Dienst,,,Teinfaltstraße 7,Wien,,1010,Wien,AUSTRIA,,,gewerkschaften_bund_3_22-08-2020,,,goed@goed.at,"Phone: +431534540, Fax: ",,,,,,,,,,,,
,,younion,younion_Die Daseinsgewerkschaft,,,Maria-Theresien-Straße 11,Wien,,1090,Wien,AUSTRIA,,,gewerkschaften_bund_4_22-08-2020,,,infocenter@younion.at,"Phone: +431313168300, Fax: ",,,,,,,,,,,,
,,GBH,Gewerkschaft Bau-Holz,,,Johann-Böhm-Platz 1,Wien,,1020,Wien,AUSTRIA,,,gewerkschaften_bund_5_22-08-2020,,,bau-holz@gbh.at,"Phone: +4315344459110, Fax: ",,,,,,,,,,,,
,,vida,Gewerkschaft vida,,,Johann-Böhm-Platz 1,Wien,,1020,Wien,AUSTRIA,,,gewerkschaften_bund_6_22-08-2020,,,info@vida.at,"Phone: +43153444790, Fax: ",,,,,,,,,,,,
,,GPF,Gewerkschaft der Post- und Fernmeldebediensteten,,,Johann-Böhm-Platz 1,Wien,,1020,Wien,AUSTRIA,,,gewerkschaften_bund_7_22-08-2020,,,gpf@gpf.at,"Phone: +4315344449440, Fax: ",,,,,,,,,,,,
,,PROGE,Produktionsgewerkschaft,,,Johann-Böhm-Platz 1,Wien,,1020,Wien,AUSTRIA,,,gewerkschaften_bund_8_22-08-2020,,,proge@proge.at,"Phone: +43153444690, Fax: ",,,,,,,,,,,,
,,Magistrat der Stadt Rust,Magistrat der Stadt Rust,,,Conradplatz 1,Rust,,7071,Burgenland,AUSTRIA,,,bezirkshauptmannschaften_burgenland_1_25-08-2020,,,post@rust.bgld.gv.at,"Phone: +432685202, Fax: +43268520212",,,,,,,,,,,,
,,Magistrat Eisenstadt,Magistrat Eisenstadt,,,Hauptstraße 35,Eisenstadt,,7000,Burgenland,AUSTRIA,,,bezirkshauptmannschaften_burgenland_2_25-08-2020,,,datenschutz@eisenstadt.at,"Phone: +4326827050, Fax: ",,,,,,,,,,,,
,,BH Eisenstadt-Umgebung,Bezirkshauptmannschaft Eisenstadt-Umgebung,,,Ing. Julius Raab-Straße 1,Eisenstadt,,7000,Burgenland,AUSTRIA,,,bezirkshauptmannschaften_burgenland_3_25-08-2020,,,bh.eisenstadt@bgld.gv.at,"Phone: +4357600, Fax: +435760074177",,,,,,,,,,,,
,,BH Güssing,Bezirkshauptmannschaft Güssing,,,Hauptstraße 1,Güssing,,7540,Burgenland,AUSTRIA,,,bezirkshauptmannschaften_burgenland_4_25-08-2020,,,bh.guessing@bgld.gv.at,"Phone: +43576004691, Fax: +43576004670",,,,,,,,,,,,
,,BH Mattersburg,Bezirkshauptmannschaft Mattersburg,,,Marktgasse 2,Mattersburg,,7210,Burgenland,AUSTRIA,,,bezirkshauptmannschaften_burgenland_5_25-08-2020,,,bh.mattersburg@bgld.gv.at,"Phone: +43576004300, Fax: +43576004377",,,,,,,,,,,,
,,BH Neusiedl am See,Bezirkshauptmannschaft Neusiedl am See,,,Eisenstädter Straße 1a,Neusiedl am See,,7100,Burgenland,AUSTRIA,,,bezirkshauptmannschaften_burgenland_6_25-08-2020,,,bh.neusiedl@bgld.gv.at,"Phone: +43576004299, Fax: +43576004296",,,,,,,,,,,,
,,BH Oberpullendorf,Bezirkshauptmannschaft Oberpullendorf,,,Hauptstraße 56,Oberpullendorf,,7350,Burgenland,AUSTRIA,,,bezirkshauptmannschaften_burgenland_7_25-08-2020,,,bh.oberpullendorf@bgld.gv.at,"Phone: +43576004499, Fax: +43576004477",,,,,,,,,,,,
,,BH Oberwart,Bezirkshauptmannschaft Oberwart,,,Hauptplatz 1,Oberwart,,7400,Burgenland,AUSTRIA,,,bezirkshauptmannschaften_burgenland_8_25-08-2020,,,bh.oberwart@bgld.gv.at,"Phone: +43576004591, Fax: +43576004577",,,,,,,,,,,,
,,BH Jennersdorf,Bezirkshauptmannschaft Jennersdorf,,,Hauptplatz 15,Jennersdorf,,8380,Burgenland,AUSTRIA,,,bezirkshauptmannschaften_burgenland_9_25-08-2020,,,bh.jennersdorf@bgld.gv.at,"Phone: +43576004700, Fax: +43576004777",,,,,,,,,,,,
,,Bildungsdirektion Burgenland,Bildungsdirektion Burgenland,,,Kernausteig 3,Eisenstadt,,7000,Burgenland,AUSTRIA,,,burgenland_burgenland_1_19-08-2020,,,office@bildung-bgld.gv.at,"Phone: +432682710, Fax: +4326827101009",,,,,,,,,,,,
,,Landespolizeidirektion Burgenland,Landespolizeidirektion Burgenland,,,Neusiedler Straße 84,Eisenstadt,,7000,Burgenland,AUSTRIA,,,burgenland_burgenland_2_19-08-2020,,,LPD-B@polizei.gv.at,"Phone: +4359133100, Fax: +4359133101009",,,,,,,,,,,,
,,Wirtschaftskammer Burgenland,Wirtschaftskammer Burgenland,,,Robert-Graf-Platz 1,Eisenstadt,,7000,Burgenland,AUSTRIA,,,burgenland_burgenland_3_18-08-2020,,,wkbgld@wkbgld.at,"Phone: +435909072000, Fax: +435909072015",,,,,,,,,,,,
,,Rechtanswaltskammer Burgenland,Rechtanswaltskammer Burgenland,,,Marktstraße 3,Eisenstadt,,7000,Burgenland,AUSTRIA,,,burgenland_burgenland_4_18-08-2020,,,rak.bgld@aon.at,"Phone: +43720211990, Fax: +43720211991",,,,,,,,,,,,
,,Landeszahnärztekammer Burgenland,Landeszahnärztekammer Burgenland,,,Schlossplatz 1,Bad Tatzmannsdorf,,7431,Burgenland,AUSTRIA,,,burgenland_burgenland_5_18-08-2020,,,office@bgld.zahnaerztekammer.at,"Phone: +43505117000, Fax: +43505117002",,,,,,,,,,,,
,,"Notariatskammer für Wien, Niederösterreich und Burgenland","Notariatskammer für Wien, Niederösterreich und Burgenland ",,,Landesgerichtsstraße 20,Wien,,1010,Wien,AUSTRIA,,,burgenland_burgenland_6_18-08-2020,,,kammer-wnb@notar.or.at,"Phone: +43140245090, Fax: +4314063475",,,,,,,,,,,,
,,Ärztekammer Burgenland,Ärztekammer Burgenland,,,Johann Permayerstraße 3,Eisenstadt,,7000,Burgenland,AUSTRIA,,,burgenland_burgenland_7_18-08-2020,,,office@aekbgld.at,"Phone: +43268262521, Fax: +4326826252190",,,,,,,,,,,,
,,Apothekerkammer Burgenland,Apothekerkammer Burgenland,,,Permayerstraße 3,Eisenstadt,,7000,Burgenland,AUSTRIA,,,burgenland_burgenland_8_18-08-2020,,,burgenland@apothekerkammer.at,"Phone: +43268261645, Fax: +43268266115",,,,,,,,,,,,
,,Kammer der Steuerberater und Wirtschaftsprüfer Burgenland,Kammer der Steuerberater und Wirtschaftsprüfer Burgenland,,,Schönbrunnerstraße 222-228/1/6/2,Wien,,1120,Wien,AUSTRIA,,,burgenland_burgenland_9_18-08-2020,,,office@ksw.or.at,"Phone: +431811730, Fax: +43181173100",,,,,,,,,,,,
,,"Kammer der ZiviltechnikerInnen für Wien, Niederösterreich und Burgenland","Kammer der ZiviltechnikerInnen für Wien, Niederösterreich und Burgenland",,,Karlsgasse 9/1,Wien,,1040,Wien,AUSTRIA,,,burgenland_burgenland_10_18-08-2020,,,kammer@arching.at,"Phone: +4315051781, Fax: +4315051005",,,,,,,,,,,,
,,Arbeiterkammer Burgenland,Kammer für Arbeiter und Angestellte für das Burgenland,,,Wiener Straße 7,Eisenstadt,,7000,Burgenland,AUSTRIA,,,burgenland_burgenland_11_18-08-2020,,,akbgld@akbgld.at,"Phone: +432682740, Fax: ",,,,,,,,,,,,
,,FH Burgenland,Fachhochschule Burgenland GmbH,,,Campus 1,Eisenstadt,,7000,Burgenland,AUSTRIA,,,burgenland_burgenland_12_24-08-2020,,,office@fh-burgenland.at,"Phone: +4357705, Fax: +43577051199",,,,,,,,,,,,
,,PH Burgenland,Stiftung private Pädagogische Hochschule Burgenland,,,Thomas-Alva-Edison-Straße 1,Eisenstadt,,7000,Burgenland,AUSTRIA,,,burgenland_burgenland_13_24-08-2020,,,office@ph-burgenland.at,"Phone: +43268224817, Fax: ",,,,,,,,,,,,
,,Magistrat Klagenfurt,Magistrat der Landeshauptstadt Klagenfurt am Wörthersee,,,"Rathaus, Neuer Platz 1",Klagenfurt am Wörthersee,,9010,Kärnten,AUSTRIA,,,bezirkshauptmannschaften_kaernten_1_25-08-2020,,,info@klagenfurt.at,"Phone: +434635370, Fax: ",,,,,,,,,,,,
,,Magistrat der Stadt Villach,Magistrat der Stadt Villach,,,Rathausplatz 1,Villach,,9500,Kärnten,AUSTRIA,,,bezirkshauptmannschaften_kaernten_2_25-08-2020,,,service@villach.at,"Phone: +434242205, Fax: ",,,,,,,,,,,,
,,BH Feldkirchen,Bezirkshauptmannschaft Feldkirchen,,,Milesistraße 10,Feldkirchen in Kärnten,,9560,Kärnten,AUSTRIA,,,bezirkshauptmannschaften_kaernten_3_25-08-2020,,,post.bhfe@ktn.gv.at,"Phone: +435053667000, Fax: +435053667200",,,,,,,,,,,,
,,BH Hermagor,Bezirkshauptmannschaft Hermagor,,,Hauptstraße 44,Hermagor,,9620,Kärnten,AUSTRIA,,,bezirkshauptmannschaften_kaernten_4_25-08-2020,,,post.bhhe@ktn.gv.at,"Phone: +435053663000, Fax: +435053663810",,,,,,,,,,,,
,,BH Klagenfurt Land,Bezirkshauptmannschaft Klagenfurt Land,,,Völkermarkter Ring 19,Klagenfurt am Wörthersee,,9010,Kärnten,AUSTRIA,,,bezirkshauptmannschaften_kaernten_5_25-08-2020,,,post.bhkl@ktn.gv.at,"Phone: +435053664000, Fax: +435053664001",,,,,,,,,,,,
,,BH Spittal an der Drau,Bezirkshauptmannschaft Spittal an der Drau,,,Tiroler Straße 16,Spittal an der Drau,,9800,Kärnten,AUSTRIA,,,bezirkshauptmannschaften_kaernten_6_25-08-2020,,,post.bhsp@ktn.gv.at,"Phone: +435053662000, Fax: +435053662333",,,,,,,,,,,,
,,BH St. Veit an der Glan,Bezirkshauptmannschaft St. Veit an der Glan,,,Hauptplatz 28,St. Veit an der Glan,,9300,Kärnten,AUSTRIA,,,bezirkshauptmannschaften_kaernten_7_25-08-2020,,,post.bhsv@ktn.gv.at,"Phone: +435053668000, Fax: +435053668200",,,,,,,,,,,,
,,BH Villach Land,Bezirkshauptmannschaft Villach Land,,,Meister-Friedrich-Straße 4,Villach,,9500,Kärnten,AUSTRIA,,,bezirkshauptmannschaften_kaernten_8_25-08-2020,,,post.bhvl@ktn.gv.at,"Phone: +435053661000, Fax: +435053661341",,,,,,,,,,,,
,,BH Völkermarkt,Bezirkshauptmannschaft Völkermarkt,,,Spanheimergasse 2,Völkermarkt,,9100,Kärnten,AUSTRIA,,,bezirkshauptmannschaften_kaernten_9_25-08-2020,,,post.bhvk@ktn.gv.at,"Phone: +435053665000, Fax: +435053665511",,,,,,,,,,,,
,,BH Wolfsberg,Bezirkshauptmannschaft Wolfsberg,,,Am Weiher 5/6,Wolfsberg,,9400,Kärnten,AUSTRIA,,,bezirkshauptmannschaften_kaernten_10_25-08-2020,,,post.bhwo@ktn.gv.at,"Phone: +435053666000, Fax: +435053666200",,,,,,,,,,,,
,,Bildungsdirektion für Kärnten,Bildungsdirektion für Kärnten,,,10. -Oktober-Straße 24,Klagenfurt am Wörthersee,,9020,Kärnten,AUSTRIA,,,kaernten_kaernten_1_19-08-2020,,,office@bildung-ktn.gv.at,"Phone: +4350534, Fax: +435053411111",,,,,,,,,,,,
,,Landespolizeidirektion Kärnten,Landespolizeidirektion Kärnten,,,Buchengasse 3,Klagenfurt am Wörthersee,,9020,Kärnten,AUSTRIA,,,kaernten_kaernten_2_19-08-2020,,,LPD-K@polizei.gv.at,"Phone: +4359133200, Fax: +4359133201009",,,,,,,,,,,,
,,Wirtschaftskammer Kärnten,Wirtschaftskammer Kärnten,,,Europaplatz 1,Klagenfurt am Wörthersee Postfach,,9021,Kärnten,AUSTRIA,,,kaernten_kaernten_3_18-08-2020,,,wirtschaftskammer@wkk.or.at,"Phone: +435909040, Fax: +43590904704",,,,,,,,,,,,
,,Rechtanswaltskammer Kärnten,Rechtanswaltskammer Kärnten,,,Theatergasse 4,Klagenfurt am Wörthersee,,9020,Kärnten,AUSTRIA,,,kaernten_kaernten_4_18-08-2020,,,kammer@rechtsanwaelte-kaernten.at,"Phone: +43463512425, Fax: +4346351242515",,,,,,,,,,,,
,,Landeszahnärztekammer Kärnten,Landeszahnärztekammer Kärnten,,,Neuer Platz 7/1,Klagenfurt am Wörthersee,,9020,Kärnten,AUSTRIA,,,kaernten_kaernten_5_18-08-2020,,,office@ktn.zahnaerztekammer.at,"Phone: +43505119020, Fax: +43505119023",,,,,,,,,,,,
,,Ärztekammer Kärnten,Ärztekammer Kärnten,,,St. Veiter Straße 34/II,Klagenfurt am Wörthersee,,9020,Kärnten,AUSTRIA,,,kaernten_kaernten_6_18-08-2020,,,aek@aekktn.at,"Phone: +46358560, Fax: +463514222",,,,,,,,,,,,
,,Apothekerkammer Kärnten,Apothekerkammer Kärnten,,,Alter Platz 24/II,Klagenfurt am Wörthersee,,9020,Kärnten,AUSTRIA,,,kaernten_kaernten_7_18-08-2020,,,kaernten@apothekerkammer.at,"Phone: +43463513366, Fax: +4346351336620",,,,,,,,,,,,
,,Arbeiterkammer Kärnten,Kammer für Arbeiter und Angestellte für Kärnten,,,Bahnhofplatz 3,Klagenfurt am Wörthersee Postfach,,9021,Kärnten,AUSTRIA,,,kaernten_kaernten_8_18-08-2020,,,arbeiterkammer@akktn.at,"Phone: +4350477, Fax: +43504772400",,,,,,,,,,,,
,,Kammer der Steuerberater und Wirtschaftsprüfer Kärnten,Kammer der Steuerberater und Wirtschaftsprüfer Kärnten,,,"Lakeside B11 a, 1. OG",Klagenfurt am Wörthersee,,9020,Kärnten,AUSTRIA,,,kaernten_kaernten_9_18-08-2020,,,kaernten@ksw.or.at,"Phone: +43463512944, Fax: +434635129445",,,,,,,,,,,,
,,Kammer der ZiviltechnikerInnen für Steiermark und Kärnten,Kammer der ZiviltechnikerInnen für Steiermark und Kärnten,,,Schönaugasse 7/1,Graz,,8010,Steiermark,AUSTRIA,,,kaernten_kaernten_10_18-08-2020,,,office@ztkammer.at,"Phone: +43316826344, Fax: +4331682634425",,,,,,,,,,,,
,,Landarbeiterkammer Kärnten,Landarbeiterkammer Kärnten,,,Bahnhofstrasse 44/III,Klagenfurt am Wörthersee,,9020,Kärnten,AUSTRIA,,,kaernten_kaernten_11_18-08-2020,,,lak@lakktn.at,"Phone: +434635870419, Fax: +434635870420",,,,,,,,,,,,
,,Notariatskammer für Kärnten,Notariatskammer für Kärnten,,,Lakeside B 11 a,Klagenfurt am Wörthersee,,9020,Kärnten,AUSTRIA,,,kaernten_kaernten_12_18-08-2020,,,office@ktn-notare.at,"Phone: +43463512797, Fax: +434635127974",,,,,,,,,,,,
,,KFA der Beamten der Stadt Villach,Krankenfürsorgeanstalt der Beamten der Stadt Villach,,,Rathausplatz 1,Villach,,9500,Kärnten,AUSTRIA,,,kaernten_kaernten_13_20-08-2020,,,kfa@villach.at,"Phone: +4342422051919, Fax: ",,,,,,,,,,,,
,,GSZ,Gemeinde-Servicezentrum,,,Gabelsbergerstraße 5,Klagenfurt am Wörthersee,,9020,Kärnten,AUSTRIA,,,kaernten_kaernten_14_20-08-2020,,,gsz@ktn.gde.at,"Phone: +4346355111300, Fax: +4346355111222",,,,,,,,,,,,
,,AAU,Alpen-Adria-Universität Klagenfurt,,,Universitätsstraße 65-67,Klagenfurt am Wörthersee,,9020,Kärnten,AUSTRIA,,,kaernten_kaernten_15_23-08-2020,,,uni@aau.at,"Phone: +434632700, Fax: ",,,,,,,,,,,,
,,GMPU,Gustav Mahler Privatuniversität für Musik,,,Mießtalerstraße 8,Klagenfurt am Wörthersee,,9020,Kärnten,AUSTRIA,,,kaernten_kaernten_16_24-08-2020,,,info@gmpu.ac.at,"Phone: +435053616552, Fax: ",,,,,,,,,,,,
,,FH Kärnten,Fachhochschule Kärnten - Gemeinnützige Privatstiftung,,,Villacher Straße 1,Spittal an der Drau,,9800,Kärnten,AUSTRIA,,,kaernten_kaernten_17_24-08-2020,,,info@fh-kaernten.at,"Phone: +43590500, Fax: +435905009910",,,,,,,,,,,,
,,PH Kärnten,Pädagogische Hochschule Kärnten,,,Hubertusstraße 1,Klagenfurt am Wörthersee,,9020,Kärnten,AUSTRIA,,,kaernten_kaernten_18_24-08-2020,,,office@ph-kaernten.ac.at,"Phone: +43463508508, Fax: ",,,,,,,,,,,,
,,BH Amstetten,Bezirkshauptmannschaft Amstetten,,,Preinsbacher Straße 11,Amstetten,,3300,Niederösterreich,AUSTRIA,,,bezirkshauptmannschaften_niederoesterreich_1_25-08-2020,,,post.bham@noel.gv.at ,"Phone: +43747290250, Fax: +437472902521000",,,,,,,,,,,,
,,BH Baden,Bezirkshauptmannschaft Baden,,,Schwartzstraße 50,Baden,,2500,Niederösterreich,AUSTRIA,,,bezirkshauptmannschaften_niederoesterreich_2_25-08-2020,,,post.bhbn@noel.gv.at ,"Phone: +43225290250, Fax: +432252902522000",,,,,,,,,,,,
,,BH Bruck an der Leitha,Bezirkshauptmannschaft Bruck an der Leitha,,,Fischamender Straße 10,Bruck an der Leitha,,2460,Niederösterreich,AUSTRIA,,,bezirkshauptmannschaften_niederoesterreich_3_25-08-2020,,,post.bhbl@noel.gv.at ,"Phone: +43216290250, Fax: +432162902523000",,,,,,,,,,,,
,,BH Gänserndorf,Bezirkshauptmannschaft Gänserndorf,,,Schönkirchner Straße 1,Gänserndorf,,2230,Niederösterreich,AUSTRIA,,,bezirkshauptmannschaften_niederoesterreich_4_25-08-2020,,,post.bhgf@noel.gv.at ,"Phone: +43228290250, Fax: +432282902524000",,,,,,,,,,,,
,,BH Gmünd,Bezirkshauptmannschaft Gmünd,,,Schremser Straße 8,Gmünd,,3950,Niederösterreich,AUSTRIA,,,bezirkshauptmannschaften_niederoesterreich_5_25-08-2020,,,post.bhgd@noel.gv.at ,"Phone: +43285290250, Fax: +432852902525000",,,,,,,,,,,,
,,BH Hollabrunn,Bezirkshauptmannschaft Hollabrunn,,,Mühlgasse 24,Hollabrunn,,2020,Niederösterreich,AUSTRIA,,,bezirkshauptmannschaften_niederoesterreich_6_25-08-2020,,,post.bhhl@noel.gv.at ,"Phone: +43295290250, Fax: +432952902527000",,,,,,,,,,,,
,,BH Horn,Bezirkshauptmannschaft Horn,,,Frauenhofner Straße 2,Horn,,3580,Niederösterreich,AUSTRIA,,,bezirkshauptmannschaften_niederoesterreich_7_25-08-2020,,,post.bhho@noel.gv.at ,"Phone: +43298290250, Fax: +432982902528000",,,,,,,,,,,,
,,BH Korneuburg,Bezirkshauptmannschaft Korneuburg,,,Bankmannring 5,Korneuburg,,2100,Niederösterreich,AUSTRIA,,,bezirkshauptmannschaften_niederoesterreich_8_25-08-2020,,,post.bhko@noel.gv.at ,"Phone: +43226290250, Fax: +432262902529000",,,,,,,,,,,,
,,BH Krems,Bezirkshauptmannschaft Krems,,,Drinkweldergasse 15,Krems an der Donau,,3500,Niederösterreich,AUSTRIA,,,bezirkshauptmannschaften_niederoesterreich_9_25-08-2020,,,post.bhkr@noel.gv.at ,"Phone: +43273290250, Fax: +432732902530000",,,,,,,,,,,,
,,BH Lilienfeld,Bezirkshauptmannschaft Lilienfeld,,,Am Anger 2,Lilienfeld,,3180,Niederösterreich,AUSTRIA,,,bezirkshauptmannschaften_niederoesterreich_10_25-08-2020,,,post.bhlf@noel.gv.at ,"Phone: +43276290250, Fax: +432762902531000",,,,,,,,,,,,
,,BH Melk,Bezirkshauptmannschaft Melk,,,Abt Karl-Straße  25a,Melk,,3390,Niederösterreich,AUSTRIA,,,bezirkshauptmannschaften_niederoesterreich_11_25-08-2020,,,post.bhme@noel.gv.at ,"Phone: +43275290250, Fax: +432752902532000",,,,,,,,,,,,
,,BH Mistelbach,Bezirkshauptmannschaft Mistelbach,,,Hauptplatz  4-5 ,Mistelbach,,2130,Niederösterreich,AUSTRIA,,,bezirkshauptmannschaften_niederoesterreich_12_25-08-2020,,,post.bhmi@noel.gv.at ,"Phone: +43257290250, Fax: +432572902533000",,,,,,,,,,,,
,,BH Mödling,Bezirkshauptmannschaft Mödling,,,Bahnstraße 2,Mödling,,2340,Niederösterreich,AUSTRIA,,,bezirkshauptmannschaften_niederoesterreich_13_25-08-2020,,,post.bhmd@noel.gv.at ,"Phone: +43223690250, Fax: +432236902534000",,,,,,,,,,,,
,,BH Neunkirchen,Bezirkshauptmannschaft Neunkirchen,,,Peischingerstraße 17,Neunkirchen,,2620,Niederösterreich,AUSTRIA,,,bezirkshauptmannschaften_niederoesterreich_14_25-08-2020,,,post.bhnk@noel.gv.at,"Phone: +43263590250, Fax: +432635902535000",,,,,,,,,,,,
,,BH Scheibbs,Bezirkshauptmannschaft Scheibbs,,,Rathausplatz 5,Scheibbs,,3270,Niederösterreich,AUSTRIA,,,bezirkshauptmannschaften_niederoesterreich_15_25-08-2020,,,post.bhsb@noel.gv.at,"Phone: +43748290250, Fax: +437482902538000",,,,,,,,,,,,
,,BH St. Pölten,Bezirkshauptmannschaft St. Pölten,,,Am Bischofteich 1,St. Pölten,,3100,Niederösterreich,AUSTRIA,,,bezirkshauptmannschaften_niederoesterreich_16_25-08-2020,,,post.bhpl@noel.gv.at ,"Phone: +43274290250, Fax: +432742902537000",,,,,,,,,,,,
,,BH Tulln,Bezirkshauptmannschaft Tulln,,,Hauptplatz 33,Tulln an der Donau,,3430,Niederösterreich,AUSTRIA,,,bezirkshauptmannschaften_niederoesterreich_17_25-08-2020,,,post.bhtu@noel.gv.at ,"Phone: +43227290250, Fax: +432272902539000",,,,,,,,,,,,
,,BH Waidhofen an der Thaya,Bezirkshauptmannschaft Waidhofen an der Thaya,,,Aignerstraße 1,Waidhofen an der Thaya,,3830,Niederösterreich,AUSTRIA,,,bezirkshauptmannschaften_niederoesterreich_18_25-08-2020,,,post.bhwt@noel.gv.at ,"Phone: +43284290250, Fax: +432842902540000",,,,,,,,,,,,
,,BH Wiener Neustadt,Bezirkshauptmannschaft Wiener Neustadt,,,Ungargasse 33,Wiener Neustadt,,2700,Niederösterreich,AUSTRIA,,,bezirkshauptmannschaften_niederoesterreich_19_25-08-2020,,,post.bhwb@noel.gv.at,"Phone: +43262290250, Fax: +432622902541000",,,,,,,,,,,,
,,BH Zwettl,Bezirkshauptmannschaft Zwettl,,,Am Statzenberg 1,Zwettl,,3910,Niederösterreich,AUSTRIA,,,bezirkshauptmannschaften_niederoesterreich_20_25-08-2020,,,post.bhzt@noel.gv.at,"Phone: +43282290250, Fax: +432822902542000",,,,,,,,,,,,
,,Bildungsdirektion für Niederösterreich,Bildungsdirektion für Niederösterreich,,,Rennbahnstraße 29,St. Pölten,,3109,Niederösterreich,AUSTRIA,,,niederoesterreich_niederoesterreich_1_19-09-2020,,,office@bildung-noe.gv.at,"Phone: +4327422800, Fax: +4327422801111",,,,,,,,,,,,
,,Landespolizeidirektion Niederösterreich,Landespolizeidirektion Niederösterreich,,,Neue Herrengasse 15,St. Pölten,,3100,Niederösterreich,AUSTRIA,,,niederoesterreich_niederoesterreich_2_19-09-2020,,,LPD-N@polizei.gv.at,"Phone: +4359133300, Fax: +4359133301009",,,,,,,,,,,,
,,VP NÖ,Volkspartei Niederösterreich,,,Ferstlergasse 4,St. Pölten,,3100,Niederösterreich,AUSTRIA,,,niederoesterreich_niederoesterreich_3_19-09-2020,,,vp.direkt@vpnoe.at,"Phone: +4327429020, Fax: ",,,,,,,,,,,,
,,SPÖ NÖ,"Sozialdemokratischen Partei Österreichs, Landesorganisation Niederösterreich",,,Niederösterreichring 1a,St. Pölten,,3100,Niederösterreich,AUSTRIA,,,niederoesterreich_niederoesterreich_4_19-09-2020,,,servicenoe@spoe.at,"Phone: +4327422255, Fax: ",,,,,,,,,,,,
,,Grüne NÖ,Die Grünen Niederösterreich,,,Daniel Gran Straße 48,St. Pölten,,3100,Niederösterreich,AUSTRIA,,,niederoesterreich_niederoesterreich_5_19-09-2020,,,noe@gruene.at,"Phone: +432742310660, Fax: ‘+43274231066011",,,,,,,,,,,,
,,FPÖ NÖ,FPÖ-Landesgruppe NÖ,,,Purkersdorferstraße 38,St. Pölten,,3100,Niederösterreich,AUSTRIA,,,niederoesterreich_niederoesterreich_6_19-09-2020,,,fpoe-niederoesterreich@fpoe.at,"Phone: +432742256280, Fax: +43274225628034",,,,,,,,,,,,
,,Wirtschaftskammer Niederösterreich,Wirtschaftskammer Niederösterreich,,,Wirtschaftskammer-Platz 1,St. Pölten,,3100,Niederösterreich,AUSTRIA,,,niederoesterreich_niederoesterreich_7_18-08-2020,,,wknoe@wknoe.at,"Phone: +4327428510, Fax: +43274285115899",,,,,,,,,,,,
,,Rechtanswaltskammer Niederösterreich,Rechtanswaltskammer Niederösterreich,,,Andreas-Hofer-Straße 6,St. Pölten,,3100,Niederösterreich,AUSTRIA,,,niederoesterreich_niederoesterreich_8_18-08-2020,,,office@raknoe.at,"Phone: +432742716500, Fax: +43274276588",,,,,,,,,,,,
,,Landeszahnärztekammer Niederösterreich,Landeszahnärztekammer Niederösterreich,,,Kremser Gasse 20,St. Pölten,,3100,Niederösterreich,AUSTRIA,,,niederoesterreich_niederoesterreich_9_18-08-2020,,,office@noe.zahnaerztekammer.at,"Phone: +43505113100, Fax: +43505113109",,,,,,,,,,,,
,,"Notariatskammer für Wien, Niederösterreich und Burgenland","Notariatskammer für Wien, Niederösterreich und Burgenland ",,,Landesgerichtsstraße 20,Wien,,1010,Wien,AUSTRIA,,,niederoesterreich_niederoesterreich_10_18-08-2020,,,kammer-wnb@notar.or.at,"Phone: +43140245090, Fax: +4314063475",,,,,,,,,,,,
,,Ärztekammer Niederösterreich,Ärztekammer Niederösterreich,,,Wipplingerstraße 2,Wien,,1010,Wien,AUSTRIA,,,niederoesterreich_niederoesterreich_11_18-08-2020,,,arztnoe@arztnoe.at,"Phone: +431537510, Fax: +4315375119",,,,,,,,,,,,
,,Apothekerkammer Niederösterreich,Apothekerkammer Niederösterreich,,,Spitalgasse 31,Wien Postfach,,1091,Wien,AUSTRIA,,,niederoesterreich_niederoesterreich_12_18-08-2020,,,noe@apothekerkammer.at,"Phone: +43140414162, Fax: +4314088818",,,,,,,,,,,,
,,Arbeiterkammer Niederösterreich,Kammer für Arbeiter und Angestellte für Niederösterreich,,,AK-Platz 1,St. Pölten,,3100,Niederösterreich,AUSTRIA,,,niederoesterreich_niederoesterreich_13_18-08-2020,,,mailbox@aknoe.at,"Phone: +4357171, Fax: ",,,,,,,,,,,,
,,Kammer der Steuerberater und Wirtschaftsprüfer Niederösterreich,Kammer der Steuerberater und Wirtschaftsprüfer Niederösterreich,,,Schönbrunnerstraße 222-228/1/6/2,Wien,,1120,Wien,AUSTRIA,,,niederoesterreich_niederoesterreich_14_18-08-2020,,,office@ksw.or.at,"Phone: +431811730, Fax: +43181173100",,,,,,,,,,,,
,,"Kammer der ZiviltechnikerInnen für Wien, Niederösterreich und Burgenland","Kammer der ZiviltechnikerInnen für Wien, Niederösterreich und Burgenland",,,Karlsgasse 9/1,Wien,,1040,Wien,AUSTRIA,,,niederoesterreich_niederoesterreich_15_18-08-2020,,,kammer@arching.at,"Phone: +4315051781, Fax: +4315051005",,,,,,,,,,,,
,,NÖ Landarbeiterkammer,Kammer für Arbeiter und Angestellte in der Land- und Forstwirtschaft in Niederösterreich,,,Marco d'Avianogasse 1/1,Wien,,1010,Wien,AUSTRIA,,,niederoesterreich_niederoesterreich_16_18-08-2020,,,lak@lak-noe.at,"Phone: +431512160110, Fax: +4315139366",,,,,,,,,,,,
,,Donau Uni,Universität für Weiterbildung Krems,,,Dr.-Karl-Dorrek-Straße 30,Krems an der Donau,,3500,Niederösterreich,AUSTRIA,,,niederoesterreich_niederoesterreich_18_23-08-2020,,,info@donau-uni.ac.at,"Phone: +4327328930, Fax: +4327328934000",,,,,,,,,,,,
,,Bertha von Suttner Privatuniversität,Bertha von Suttner Privatuniversität St. Pölten GmbH,,,Matthias Corvinus-Straße 15,St. Pölten,,3100,Niederösterreich,AUSTRIA,,,niederoesterreich_niederoesterreich_19_24-08-2020,,,office@suttneruni.at,"Phone: +432742313228800, Fax: ",,,,,,,,,,,,
,,DPU,Danube Private University GmbH,,,Steiner Landstraße 124,Krems an der Donau,,3500,Niederösterreich,AUSTRIA,,,niederoesterreich_niederoesterreich_20_24-08-2020,,,info@dp-uni.ac.at,"Phone: +43676842419305, Fax: ",,,,,,,,,,,,
,,NDU,New Design University Privatuniversität GesmbH,,,Mariazeller Straße 97a,St. Pölten,,3100,Niederösterreich,AUSTRIA,,,niederoesterreich_niederoesterreich_21_24-08-2020,,,office@ndu.ac.at,"Phone: +4327428902411, Fax: +4327428902413",,,,,,,,,,,,
,,IMC Fachhochschule Krems,IMC Fachhochschule Krems GmbH,,,Piaristengasse 1,Krems an der Donau,,3500,Niederösterreich,AUSTRIA,,,niederoesterreich_niederoesterreich_22_24-08-2020,,,datenschutz@fh-krems.ac.at,"Phone: +432732802, Fax: ",,,,,,,,,,,,
,,FH St. Pölten,Fachhochschule St. Pölten GmbH,,,Matthias Corvinus-Straße 15,St. Pölten,,3100,Niederösterreich,AUSTRIA,,,niederoesterreich_niederoesterreich_23_24-08-2020,,,csc@fhstp.ac.at,"Phone: +432742313228200, Fax: +432742313228339",,,,,,,,,,,,
,,FH Wiener Neustadt,Fachhochschule Wiener Neustadt GmbH,,,Johannes Gutenberg-Straße 3,Wiener Neustadt,,2700,Niederösterreich,AUSTRIA,,,niederoesterreich_niederoesterreich_24_24-08-2020,,,office@fhwn.ac.at,"Phone: +432622890840, Fax: +4326228908499",,,,,,,,,,,,
,,Ferdinand Porsche FernFH,Ferdinand Porsche Fern-Fachhochschule GmbH,,,Ferdinand Porsche Ring 3,Wiener Neustadt,,2700,Niederösterreich,AUSTRIA,,,niederoesterreich_niederoesterreich_25_24-08-2020,,,office@fernfh.ac.at,"Phone: +43262232600, Fax: ",,,,,,,,,,,,
,,MilAk,Theresianische Militärakademie,,,Burgplatz 1,Wiener Neustadt,,2700,Niederösterreich,AUSTRIA,,,niederoesterreich_niederoesterreich_26_24-08-2020,,,redaktion.milak@bmlv.gv.at,"Phone: +43502012028901, Fax: ",,,,,,,,,,,,
,,PH Niederösterreich,Pädagogische Hochschule Niederösterreich,,,Mühlgasse 67,Baden,,2500,Niederösterreich,AUSTRIA,,,niederoesterreich_niederoesterreich_27_24-08-2020,,,support@ph-noe.ac.at,"Phone: +43225288570108, Fax: ",,,,,,,,,,,,
,,KPH Wien/Krems,Kirchliche Pädagogische Hochschule Wien/Krems,,,Mayerweckstraße 1,Wien,,1210,Wien,AUSTRIA,,,niederoesterreich_niederoesterreich_28_24-08-2020,,,datenschutz@kphvie.ac.at,"Phone: +431291080, Fax: +43129108402",,,,,,,,,,,,
,,KL,Karl Landsteiner Privatuniversität für Gesundheitswissenschaften GmbH,,,Dr.-Karl-Dorrek-Straße 30,Krems an der Donau,,3500,Niederösterreich,AUSTRIA,,,niederoesterreich_niederoesterreich_29_24-08-2020,,,office@kl.ac.at,"Phone: +432732720900, Fax: +43273272090500",,,,,,,,,,,,
,,BH Braunau,Bezirkshauptmannschaft Braunau,,,Hammersteinplatz 1,Braunau am Inn,,5280,Oberösterreich,AUSTRIA,,,bezirkshauptmannschaften_oberoesterreich_1_19-08-2020,,,bh-br.post@ooe.gv.at,"Phone: +4377228030, Fax: ",,,,,,,,,,,,
,,BH Freistadt,Bezirkshauptmannschaft Freistadt,,,Promenade 5,Freistadt,,4240,Oberösterreich,AUSTRIA,,,bezirkshauptmannschaften_oberoesterreich_2_19-08-2020,,,bh-fr.post@ooe.gv.at,"Phone: +4379427020, Fax: +437942702262399",,,,,,,,,,,,
,,BH Gmunden,Bezirkshauptmannschaft Gmunden,,,Esplanade 10,Gmunden,,4810,Oberösterreich,AUSTRIA,,,bezirkshauptmannschaften_oberoesterreich_3_19-08-2020,,,bh-gm.post@ooe.gv.at,"Phone: +4376127920, Fax: +437327720263399",,,,,,,,,,,,
,,BH Grieskirchen und Eferding,Bezirkshauptmannschaften Grieskirchen und Eferding,,,Manglburg 14,Grieskirchen,,4710,Oberösterreich,AUSTRIA,,,bezirkshauptmannschaften_oberoesterreich_4_19-08-2020,,,BH-GR-EF.Post@ooe.gv.at,"Phone: +4372486030, Fax: +437327720264399",,,,,,,,,,,,
,,BH Kirchdorf,Bezirkshauptmannschaft Kirchdorf,,,Garnisonstraße 3,Kirchdorf an der Krems,,4560,Oberösterreich,AUSTRIA,,,bezirkshauptmannschaften_oberoesterreich_5_19-08-2020,,,bh-ki.post@ooe.gv.at,"Phone: +4375826850, Fax: +437582685265399",,,,,,,,,,,,
,,BH Linz-Land,Bezirkshauptmannschaft Linz-Land,,,Kärntnerstraße 14-16,Linz,,4020,Oberösterreich,AUSTRIA,,,bezirkshauptmannschaften_oberoesterreich_6_19-08-2020,,,bh-ll.post@ooe.gv.at,"Phone: +43732694140, Fax: +4373269414266399",,,,,,,,,,,,
,,BH Perg,Bezirkshauptmannschaft Perg,,,Dirnbergerstraße 11,Perg,,4320,Oberösterreich,AUSTRIA,,,bezirkshauptmannschaften_oberoesterreich_7_19-08-2020,,,bh-pe.post@ooe.gv.at,"Phone: +4372625510, Fax: +437262551267399",,,,,,,,,,,,
,,BH Ried,Bezirkshauptmannschaft Ried,,,Parkgasse 1,Ried im Innkreis,,4910,Oberösterreich,AUSTRIA,,,bezirkshauptmannschaften_oberoesterreich_8_19-08-2020,,,bh-ri.post@ooe.gv.at,"Phone: +4377529120, Fax: +437327720268399",,,,,,,,,,,,
,,BH Rohrbach,Bezirkshauptmannschaft Rohrbach,,,Am Teich 1,Rohrbach in Oberösterreich,,4150,Oberösterreich,AUSTRIA,,,bezirkshauptmannschaften_oberoesterreich_9_19-08-2020,,,bh-ro.post@ooe.gv.at,"Phone: +43728988510, Fax: +4372898851269399",,,,,,,,,,,,
,,BH Schärding,Bezirkshauptmannschaft Schärding,,,Ludwig-Pfliegl-Gasse 11,Schärding,,4780,Oberösterreich,AUSTRIA,,,bezirkshauptmannschaften_oberoesterreich_10_19-08-2020,,,Personal.BH-SD.Post@ooe.gv.at,"Phone: +43771231050, Fax: +4377123105270399",,,,,,,,,,,,
,,BH Steyr-Land,Bezirkshauptmannschaft Steyr-Land,,,Spitalskystraße 10a,Steyr,,4400,Oberösterreich,AUSTRIA,,,bezirkshauptmannschaften_oberoesterreich_11_19-08-2020,,,bh-se.post@ooe.gv.at,"Phone: +437252523610, Fax: +43725252361271399",,,,,,,,,,,,
,,BH Urfahr-Umgebung,Bezirkshauptmannschaft Urfahr-Umgebung,,,Peuerbachstraße 26,Linz,,4040,Oberösterreich,AUSTRIA,,,bezirkshauptmannschaften_oberoesterreich_12_19-08-2020,,,bh-uu.post@ooe.gv.at,"Phone: +437327313010, Fax: +43732731301272399",,,,,,,,,,,,
,,BH Vöcklabruck,Bezirkshauptmannschaft Vöcklabruck,,,Sportplatzstraße 1-3,Vöcklabruck,,4840,Oberösterreich,AUSTRIA,,,bezirkshauptmannschaften_oberoesterreich_13_19-08-2020,,,bh-vb.post@ooe.gv.at,"Phone: +4376727020, Fax: +437672702273399",,,,,,,,,,,,
,,BH Wels-Land,Bezirkshauptmannschaft Wels-Land,,,Herrengasse 8,Wels,,4600,Oberösterreich,AUSTRIA,,,bezirkshauptmannschaften_oberoesterreich_14_19-08-2020,,,bh-wl.post@ooe.gv.at,"Phone: +4372426180, Fax: +437242618274399",,,,,,,,,,,,
,,Bildungsdirektion Oberösterreich,Bildungsdirektion Oberösterreich,,,Sonnensteinstraße 20,Linz,,4040,Oberösterreich,AUSTRIA,,,oberoesterreich_oberoesterreich_1_19-08-2020,,,bd.post@bildung-ooe.gv.at,"Phone: +4373270714131, Fax: +4373270714140",,,,,,,,,,,,
,,Landespolizeidirektion Oberösterreich,Landespolizeidirektion Oberösterreich,,,Gruberstraße 35,"Linz, Donau Postfach",,4021,Oberösterreich,AUSTRIA,,,oberoesterreich_oberoesterreich_2_19-08-2020,,,LPD-O@polizei.gv.at,"Phone: +4359133500, Fax: +4359133407800",,,,,,,,,,,,
,,Wirtschaftskammer Oberösterreich,Wirtschaftskammer Oberösterreich,,,Hessenplatz 3,Linz,,4020,Oberösterreich,AUSTRIA,,,oberoesterreich_oberoesterreich_3_18-08-2020,,,service@wkooe.at,"Phone: +43590909, Fax: +435909092800",,,,,,,,,,,,
,,Rechtanswaltskammer Oberösterreich,Rechtanswaltskammer Oberösterreich,,,Gruberstraße 21,Linz,,4020,Oberösterreich,AUSTRIA,,,oberoesterreich_oberoesterreich_4_18-08-2020,,,office@ooerak.or.at,"Phone: +43732771730, Fax: +4373277173085",,,,,,,,,,,,
,,Landeszahnärztekammer Oberösterreich,Landeszahnärztekammer Oberösterreich,,,Marienstraße 9/1,Linz,,4020,Oberösterreich,AUSTRIA,,,oberoesterreich_oberoesterreich_5_18-08-2020,,,office@ooe.zahnaerztekammer.at,"Phone: +43505114010, Fax: +43505114014",,,,,,,,,,,,
,,Notariatskammer für Oberösterreich,Notariatskammer für Oberösterreich,,,Schmiedegasse 20/5,Linz,,4040,Oberösterreich,AUSTRIA,,,oberoesterreich_oberoesterreich_6_18-08-2020,,,oberoesterreich@notariatskammer.at,"Phone: +43732737073, Fax: +43732708019",,,,,,,,,,,,
,,Ärztekammer Oberösterreich,Ärztekammer Oberösterreich,,,Dinghoferstraße 4,"Linz, Donau",,4010,Oberösterreich,AUSTRIA,,,oberoesterreich_oberoesterreich_7_18-08-2020,,,aekooe@aekooe.at,"Phone: +437327783710, Fax: +43732783660300",,,,,,,,,,,,
,,Apothekerkammer Oberösterreich,Apothekerkammer Oberösterreich,,,Mozartstraße 26/1,Linz,,4020,Oberösterreich,AUSTRIA,,,oberoesterreich_oberoesterreich_8_18-08-2020,,,ooe@apothekerkammer.at,"Phone: +43732770350, Fax: +4314028602951",,,,,,,,,,,,
,,Arbeiterkammer Oberösterreich,Kammer für Arbeiter und Angestellte für Oberösterreich,,,Volksgartenstraße 40,Linz,,4020,Oberösterreich,AUSTRIA,,,oberoesterreich_oberoesterreich_9_18-08-2020,,,online@akooe.at,"Phone: +43506906, Fax: +435069062860",,,,,,,,,,,,
,,Kammer der Steuerberater und Wirtschaftsprüfer Oberösterreich,Kammer der Steuerberater und Wirtschaftsprüfer Oberösterreich,,,Landstraße 49/III,Linz,,4020,Oberösterreich,AUSTRIA,,,oberoesterreich_oberoesterreich_10_18-08-2020,,,ooe@ksw.or.at,"Phone: +43732773385, Fax: +4373277338515",,,,,,,,,,,,
,,Kammer der ZiviltechnikerInnen für Oberösterreich und Salzburg,Kammer der ZiviltechnikerInnen für Oberösterreich und Salzburg,,,Kaarstraße 2/II,Linz,,4040,Oberösterreich,AUSTRIA,,,oberoesterreich_oberoesterreich_11_18-08-2020,,,linz@arching-zt.at,"Phone: +43732738394, Fax: +437327383944",,,,,,,,,,,,
,,OÖ Landarbeiterkammer,Kammer für Arbeiter und Angestellte in der Land- und Forstwirtschaft in OÖ,,,Scharitzerstraße 9,Linz,,4020,Oberösterreich,AUSTRIA,,,oberoesterreich_oberoesterreich_12_18-08-2020,,,office@lak-ooe.at,"Phone: +43732656381, Fax: ",,,,,,,,,,,,
,,KFA für die Beamten der Landeshauptstadt Linz,Krankenfürsorge für die Beamten der Landeshauptstadt Linz,,,Hauptplatz 1,Linz,,4020,Oberösterreich,AUSTRIA,,,oberoesterreich_oberoesterreich_13_20-08-2020,,,mkf@mag.linz.at,"Phone: +4373270701241, Fax: ",,,,,,,,,,,,
,,KFA für oberösterreichische Gemeinden,Kranken- und Unfallfürsorge für oberösterreichische Gemeinden,,,Ferihumerstraße 8,"Linz, Donau Postfach",,4041,Oberösterreich,AUSTRIA,,,oberoesterreich_oberoesterreich_14_20-08-2020,,,office@kfg.ooe.gv.at,"Phone: +437327880000, Fax: +4373278800030",,,,,,,,,,,,
,,KFA für oberösterreichische Landesbedienstete,Kranken- und Unfallfürsorge für oberösterreichische Landesbedienstete,,,Promenade 28,"Linz, Donau",,4010,Oberösterreich,AUSTRIA,,,oberoesterreich_oberoesterreich_15_20-08-2020,,,klf.post@ooe.gv.at,"Phone: +43732772013861, Fax: ",,,,,,,,,,,,
,,Oberösterreichische Lehrer-Kranken- und Unfallfürsorge,Oberösterreichische Lehrer-Kranken- und Unfallfürsorge,,,Leonfeldner Straße 11,"Linz, Donau Postfach",,4041,Oberösterreich,AUSTRIA,,,oberoesterreich_oberoesterreich_16_20-08-2020,,,office@kfg.ooe.gv.at,"Phone: +437326682210, Fax: ",,,,,,,,,,,,
,,KFA für Beamte der Stadt Steyr,Krankenfürsorgeanstalt für Beamte der Stadt Steyr,,,"Postfach 200, Stadtplatz 27",Steyr,,4400,Oberösterreich,AUSTRIA,,,oberoesterreich_oberoesterreich_17_20-08-2020,,,kfa@steyr.gv.at,"Phone: +437252575, Fax: ",,,,,,,,,,,,
,,KFA für die Beamten der Stadt Wels,Krankenfürsorge für die Beamten der Stadt Wels,,,Stadtpiatz 1,Wels,,4600,Oberösterreich,AUSTRIA,,,oberoesterreich_oberoesterreich_18_20-08-2020,,,kfw@wels.gv.at,"Phone: +4372422354800, Fax: ",,,,,,,,,,,,
,,Pensionsinstitut der Linz AG,Pensionsinstitut der Linz AG,,,"Postfach 1300, Wiener Straße 151","Linz, Donau Postfach",,4021,Oberösterreich,AUSTRIA,,,oberoesterreich_oberoesterreich_19_20-08-2020,,,pensionsinstitut@linzag.at,"Phone: +4373234003518, Fax: +4373234003522",,,,,,,,,,,,
,,JKU,Johannes Kepler Universität Linz,,,Altenberger Straße 69,Linz,,4040,Oberösterreich,AUSTRIA,,,oberoesterreich_oberoesterreich_20_23-08-2020,,,datenschutz@jku.at,"Phone: +4373224680, Fax: +4373224684929",,,,,,,,,,,,
,,Bruckner Uni,Anton Bruckner Privatuniversität,,,Hagenstraße 57,Linz,,4040,Oberösterreich,AUSTRIA,,,oberoesterreich_oberoesterreich_21_24-08-2020,,,information@bruckneruni.at,"Phone: +43732701000, Fax: +43732701000299",,,,,,,,,,,,
,,KU Linz,Katholische Privat-Universität Linz,,,Bethlehemstraße 20,Linz,,4020,Oberösterreich,AUSTRIA,,,oberoesterreich_oberoesterreich_22_24-08-2020,,,office@ku-linz.at,"Phone: +43732784293, Fax: +437327842934155",,,,,,,,,,,,
,,FH Oberösterreich,FH OÖ Studienbetriebs GmbH,,,Roseggerstraße 15,Wels,,4600,Oberösterreich,AUSTRIA,,,oberoesterreich_oberoesterreich_23_24-08-2020,,,info@fh-ooe.at,"Phone: +435080410, Fax: +435080411900",,,,,,,,,,,,
,,FH Gesundheitsberufe Oberösterreich,FH Gesundheitsberufe OÖ GmbH,,,Semmelweisstraße 34/D3,Linz,,4020,Oberösterreich,AUSTRIA,,,oberoesterreich_oberoesterreich_24_24-08-2020,,,office@fhgooe.ac.at,"Phone: +435034420000, Fax: +435034420099",,,,,,,,,,,,
,,PH Oberösterreich,Pädagogische Hochschule Oberösterreich,,,Kaplanhofstraße 40,Linz,,4020,Oberösterreich,AUSTRIA,,,oberoesterreich_oberoesterreich_25_24-08-2020,,,office@ph-ooe.at,"Phone: +4373274700, Fax: ",,,,,,,,,,,,
,,PH Linz,Private Pädagogische Hochschule der Diözese Linz,,,Salesianumweg 3,Linz,,4020,Oberösterreich,AUSTRIA,,,oberoesterreich_oberoesterreich_26_24-08-2020,,,office@ph-linz.at,"Phone: +43732772666, Fax: ",,,,,,,,,,,,
,,UFG,Universität für künstlerische und industrielle Gestaltung Linz,,,Hauptplatz 6,Linz,,4020,Oberösterreich,AUSTRIA,,,oberoesterreich_oberoesterreich_27_23-08-2020,,,datenschutz@ufg.at,"Phone: +437327898, Fax: +43732783508",,,,,,,,,,,,
,,ÖAMTC,"Österreichischer Automobil-, Motorrad- und Touringclub",,,Baumgasse 129,Wien,,1030,Wien,AUSTRIA,,,vereine_privat_1_24-08-2020,,,office@oeamtc.at,"Phone: +431711990, Fax: ",,,,,,,,,,,,
,,Rotes Kreuz,Österreichisches Rotes Kreuz,,,Wiedner Hauptstraße 32,Wien Postfach,,1041,Wien,AUSTRIA,,,vereine_privat_2_24-08-2020,,,service@roteskreuz.at,"Phone: +431589000, Fax: +43158900199",,,,,,,,,,,,
,,ARBÖ,"Auto-, Motor- und Radfahrerbund Österreichs, Bundesorganisation",,,Johann-Böhm-Platz 1,Wien,,1020,Wien,AUSTRIA,,,vereine_privat_3_24-08-2020,,,info@arboe.at,"Phone: +431891210, Fax: +43189121236",,,,,,,,,,,,
,,WWF,Umweltverband WWF Österreich (WORLD WIDE FUND FOR NATURE),,,Ottakringer Straße 114-116,Wien,,1160,Wien,AUSTRIA,,,vereine_privat_4_24-08-2020,,,wwf@wwf.at,"Phone: +431488170, Fax: +4314881744",,,,,,,,,,,,
,,Greenpeace,Greenpeace in Zentral- und Osteuropa,,,Wiedner Hauptstraße 120-124,Wien,,1050,Wien,AUSTRIA,,,vereine_privat_5_24-08-2020,,,service@greenpeace.at,"Phone: +4315454580, Fax: ",,,,,,,,,,,,
,,Global2000,GLOBAL 2000/Friends of the Earth Austria,,,Neustiftgasse 36,Wien,,1070,Wien,AUSTRIA,,,vereine_privat_6_24-08-2020,,,office@global2000.at,"Phone: +4318125730, Fax: +4318125728",,,,,,,,,,,,
,,Ärzte ohne Grenzen,Ärzte ohne Grenzen Österreich,,,Taborstraße 10,Wien,,1020,Wien,AUSTRIA,,,vereine_privat_7_24-08-2020,,,datenschutz@aerzte-ohne-grenzen.at,"Phone: +4314097276, Fax: +431409727640",,,,,,,,,,,,
,,Skywarn,SKYWARN Austria - Organisation für mobile Unwettermeldungen und Wetterbeobachtung in Österreich,,,Weißenbachstraße 7,Adlwang,,4541,Oberösterreich,AUSTRIA,,,vereine_privat_8_24-08-2020,,,office@skywarn.at,"Phone: , Fax: ",,,,,,,,,,,,
,,ÖVSV,Österreichischer Versuchssenderverband – Dachverband,,,"Industriezentrum NÖ-Süd, Straße 14, Objekt 31",Wiener Neudorf,,2351,Niederösterreich,AUSTRIA,,,vereine_privat_9_24-08-2020,,,oevsv@oevsv.at,"Phone: +4319992132, Fax: +4319992133",,,,,,,,,,,,
,,ÖSV,Österreichischer Skiverband,,,Olympiastraße 10,Innsbruck,,6020,Tirol,AUSTRIA,,,vereine_privat_10_24-08-2020,,,info@oesv.at,"Phone: +43512335010, Fax: +43512361998",,,,,,,,,,,,
,,Pro mente,Österreichischer Dachverband für Vereine und Gesellschaften für psychische und soziale Gesundheit,,,Johann-Konrad-Vogel-Straße 13,Linz,,4020,Oberösterreich,AUSTRIA,,,vereine_privat_11_24-08-2020,,,office@promenteaustria.at,"Phone: +43732785397, Fax: ",,,,,,,,,,,,
,,Schülerunion,Schülerunion Österreich,,,Postfach 21,Wien,,1082,Wien,AUSTRIA,,,vereine_privat_12_24-08-2020,,,service@schuelerunion.at,"Phone: +436649601571, Fax: ",,,,,,,,,,,,
,,C3W,Chaos Computer Club Wien,,,Rathausstraße 6,Wien,,1010,Wien,AUSTRIA,,,vereine_privat_13_24-08-2020,,,buero@c3w.at,"Phone: , Fax: ",,,,,,,,,,,,
,,NOYB,NOYB - Europäisches Zentrum für digitale Rechte,,,Goldschlagstraße 172/4/2,Wien,,1140,Wien,AUSTRIA,,,vereine_privat_14_24-08-2020,,,info@noyb.eu,"Phone: , Fax: ",,,,,,,,,,,,
,,metalab,Verein zur Förderung der Erforschung und Bildung sozialer und technischer Innovationen – metalab,,,Rathausstraße 6,Wien,,1010,Wien,AUSTRIA,,,vereine_privat_15_24-08-2020,,,core@metalab.at,"Phone: +43720002323, Fax: ",,,,,,,,,,,,
,,ASBÖ,Arbeiter-Samariter-Bund Österreichs,,,Hollergasse 2-6,Wien,,1150,Wien,AUSTRIA,,,vereine_privat_16_24-08-2020,,,info@samariterbund.net,"Phone: +43189145226, Fax: +43189145149",,,,,,,,,,,,
,,Reporter ohne Grenzen,Reporter ohne Grenzen Österreich,,,Helferstorferstraße 5,Wien,,1010,Wien,AUSTRIA,,,vereine_privat_17_24-08-2020,,,info@rog.at,"Phone: +436642546847, Fax: ",,,,,,,,,,,,
,,Amnesty,Amnesty International Österreich,,,Lerchenfelder Gürtel 43/4/3,Wien,,1160,Wien,AUSTRIA,,,vereine_privat_18_24-08-2020,,,office@amnesty.at,"Phone: +43178008, Fax: +4317800844",,,,,,,,,,,,
,,AKS,"Aktion kritischer Schüler_innen, Bundesorganisation",,,Amtshausgasse 4,Wien,,1050,Wien,AUSTRIA,,,vereine_privat_19_24-08-2020,,,aks@aks.at,"Phone: +431523124331, Fax: ",,,,,,,,,,,,
,,AKV,AKV EUROPA – Alpenländischer Kreditorenverband,,,Schleifmühlgasse 2,Wien Postfach,,1041,Wien,AUSTRIA,,,firmen_privat_1_24-08-2020,,,office@akveuropa.at,"Phone: +435041000, Fax: +435041001522",,,,,,,,,,,,
,,KSV1870,KS­V1870 Hol­ding AG,,,Wagenseilgasse 7,Wien,,1120,Wien,AUSTRIA,,,firmen_privat_2_24-08-2020,,,ksv@ksv.at,"Phone: +43501870, Fax: +43501870991000",,,,,,,,,,,,
,,Creditreform Wirtschaftsauskunftei Kubicki,Creditreform Wirtschaftsauskunftei Kubicki KG,,,Muthgasse 36-40/Bauteil 4,Wien,,1190,Wien,AUSTRIA,,,firmen_privat_3_24-08-2020,,,creditreform@wien.creditreform.at,"Phone: +43121862200, Fax: +43121862204",,,,,,,,,,,,
,,Aktiv Inkasso,Aktiv Inkasso e.U.,,,Walfischgasse 6/1/242,Wien,,1010,Wien,AUSTRIA,,,firmen_privat_4_24-08-2020,,,erfolg@aktivinkasso.at,"Phone: +436606300000, Fax: ",,,,,,,,,,,,
,,Detektei Lux,Auskunftei Lux staatl konz cand jur K.G. WRBA,,,Grünentorgasse 29,Wien,,1090,Wien,AUSTRIA,,,firmen_privat_5_24-08-2020,,,wrba@a1.net,"Phone: +4313151939, Fax: ",,,,,,,,,,,,
,,AVS,AVS Betriebsorganisation GesmbH,,,Hebbelplatz 5,Wien,,1100,Wien,AUSTRIA,,,firmen_privat_6_24-08-2020,,,austria@avs-europe.com,"Phone: +4316045858, Fax: +4316039595",,,,,,,,,,,,
,,Bisnode,Bisnode Austria GmbH,,,Jakov-Lind Straße 4/1,Wien,,1020,Wien,AUSTRIA,,,firmen_privat_7_24-08-2020,,,office.at@bisnode.com,"Phone: +431588610, Fax: +431588613444",,,,,,,,,,,,
,,Bisnode D&B,Bisnode D&B Austria GmbH,,,Jakov-Lind Straße 4/1,Wien,,1020,Wien,AUSTRIA,,,firmen_privat_8_24-08-2020,,,office.at@bisnode.com,"Phone: +431588610, Fax: +431588613444",,,,,,,,,,,,
,,Coface Central Europe,Coface Central Europe Holding GmbH,,,Marxergasse 4c,Wien,,1030,Wien,AUSTRIA,,,firmen_privat_9_24-08-2020,,,office@cofacecentraleurope.com,"Phone: +431515540, Fax: +4315124415",,,,,,,,,,,,
,,Eder Christian Auskunftei,Eder Christian Auskunftei GmbH,,,Wallackstraße 17,Bruck an der Großglocknerstraße,,5671,Salzburg,AUSTRIA,,,firmen_privat_10_24-08-2020,,,christian.eder@sbg.at,"Phone: +436644302981, Fax: +4365456048",,,,,,,,,,,,
,,Fair Use Auskunftei,Fair Use Auskunftei GmbH,,,Metzgerstraße 54,Salzburg,,5020,Salzburg,AUSTRIA,,,firmen_privat_11_24-08-2020,,,office@fair-use.at,"Phone: +43622939024, Fax: ",,,,,,,,,,,,
,,payolution,payolution GmbH,,,Am Euro-Platz 2,Wien,,1120,Wien,AUSTRIA,,,firmen_privat_12_24-08-2020,,,office@payolution.com,"Phone: +438004043300, Fax: ",,,,,,,,,,,,
,,PROINFORM,PROINFORM Wirtschaftsinformationen GmbH,,,Pongauerstraße 16,Neumarkt am Wallersee,,5202,Salzburg,AUSTRIA,,,firmen_privat_13_24-08-2020,,,info@proinform.at,"Phone: +4377463854, Fax: ",,,,,,,,,,,,
,,CRIF,CRIF GmbH,,,Rothschildplatz 3/Top 3.06.B,Wien,,1020,Wien,AUSTRIA,,,firmen_privat_14_24-08-2020,,,auskunft@crif.com,"Phone: +43189742440, Fax: +4318974244833",,,,,,,,,,,,
,,infoscore,infoscore austria GmbH,,,Weyringergasse 1,Wien,,1040,Wien,AUSTRIA,,,firmen_privat_15_24-08-2020,,,info@infoscore.at,"Phone: +43150364090, Fax: +4315036490968",,,,,,,,,,,,
,,Wiener Linien,Wiener Linien GmbH & Co KG,,,Erdbergstraße 202,Wien,,1030,Wien,AUSTRIA,,,firmen_privat_16_24-08-2020,,,post@wienerlinien.at,"Phone: +43179090, Fax: +431790924609",,,,,,,,,,,,
,,Österreichische Post,Österreichische Post Aktiengesellschaft,,,Rochusplatz 1,Wien,,1030,Wien,AUSTRIA,,,firmen_privat_17_24-08-2020,,,kundenservice@post.at,"Phone: +43577670, Fax: +435776722071",,,,,,,,,,,,
,,dm,dm drogerie markt GmbH,,,Günter-Bauer-Straße 1,Wals,,5071,Salzburg,AUSTRIA,,,firmen_privat_18_24-08-2020,,,kundenservice@dm.at,"Phone: +4366285830, Fax: +4366285831111",,,,,,,,,,,,
,,Conrad,Conrad Electronic GmbH & Co KG,,,Durisolstraße 2,Wels,,4600,Oberösterreich,AUSTRIA,,,firmen_privat_19_24-08-2020,,,sales@conrad.at,"Phone: +4350204040, Fax: +4350204044",,,,,,,,,,,,
,,Lieb Markt,Lieb Markt GmbH,,,Birkfelder Straße 40,Weiz,,8160,Steiermark,AUSTRIA,,,firmen_privat_20_24-08-2020,,,office@lieb.at,"Phone: +43317224170, Fax: ",,,,,,,,,,,,
,,EDUSCHO,EDUSCHO (Austria) GmbH,,,Gadnergasse 71,Wien,,1110,Wien,AUSTRIA,,,firmen_privat_21_24-08-2020,,,service@eduscho.at,"Phone: +431766220, Fax: +431766222297",,,,,,,,,,,,
,,XXXLutz,XXXLutz KG,,,Römerstraße 39,Wels,,4600,Oberösterreich,AUSTRIA,,,firmen_privat_22_24-08-2020,,,kundenservice@lutz.at  ,"Phone: +43501111000, Fax: +43724243881 ",,,,,,,,,,,,
,,Strandmeister,Strandmeister GmbH,,,SCS Voesendorf Allee 214 Shop 92,Vösendorf,,2334,Niederösterreich,AUSTRIA,,,firmen_privat_23_24-08-2020,,,service@strandmeister.at,"Phone: +4318902003, Fax: ",,,,,,,,,,,,
,,Obi,OBI Bau-und Heimwerkermärkte Systemzentrale GmbH,,,Litfaßstraße 8,Wien,,1030,Wien,AUSTRIA,,,firmen_privat_24_24-08-2020,,,service@obi.at,"Phone: +43720883595, Fax: ",,,,,,,,,,,,
,,Hartlauer,Hartlauer Handelsgesellschaft m.b.H.,,,Stadtplatz 13,Steyr,,4400,Oberösterreich,AUSTRIA,,,firmen_privat_25_24-08-2020,,,office@hartlauer.at,"Phone: +435061331001, Fax: +435061331099",,,,,,,,,,,,
,,Hervis Sports,Hervis Sport- und Modegesellschaft m.b.H.,,,Europastraße 3,Salzburg,,5015,Salzburg,AUSTRIA,,,firmen_privat_26_24-08-2020,,,office@hervis.at,"Phone: +4366289640, Fax: +436628964379311",,,,,,,,,,,,
,,Breddys,BREDDY'S GmbH,,,Leo Mathauser-Gasse 71/2,Wien,,1230,Wien,AUSTRIA,,,firmen_privat_27_24-08-2020,,,bestellungen@breddys.com,"Phone: +4316091361, Fax: ",,,,,,,,,,,,
,,IKEA,IKEA Möbelvertrieb OHG,,,Südring,Vösendorf,,2334,Niederösterreich,AUSTRIA,,,firmen_privat_28_24-08-2020,,,ikea.austria@ikea.com,"Phone: +43800081100, Fax: +43800081900",,,,,,,,,,,,
,,Cineplexx,Cinepromotion und Filmmarketing Ges.m.b.H.,,,Zollergasse 36,Wien,,1070,Wien,AUSTRIA,,,firmen_privat_29_24-08-2020,,,cinepromotion@constantinfilm.at,"Phone: , Fax: ",,,,,,,,,,,,
,,Deichmann,Deichmann GmbH,,,Modecenterstraße 22,Wien,,1030,Wien,AUSTRIA,,,firmen_privat_30_24-08-2020,,,service-at@deichmann.com,"Phone: +4317986400, Fax: +4317986400120",,,,,,,,,,,,
,,denn's,dennree Naturkost GmbH,,,Taborstraße 13/4,Wien,,1020,Wien,AUSTRIA,,,firmen_privat_31_24-08-2020,,,info@denns.at,"Phone: +4314818880, Fax: ",,,,,,,,,,,,
,,ÖBB,ÖBB Personenverkehrs AG,,,Am Hauptbahnhof 2,Wien,,1100,Wien,AUSTRIA,,,firmen_privat_32_24-08-2020,,,impressum@pv.oebb.at,"Phone: +431930000, Fax: ",,,,,,,,,,,,
,,H&M,H & M Hennes & Mauritz GesmbH,,,Kirchengasse 6/6,Wien,,1070,Wien,AUSTRIA,,,firmen_privat_33_24-08-2020,,,dataprotection.at@hm.com,"Phone: +438006655900, Fax: ",,,,,,,,,,,,
,,McDonalds,McDonald's Franchise GmbH,,,"Campus 21, Liebermannstraße, A01601",Brunn am Gebirge,,2345,Niederösterreich,AUSTRIA,,,firmen_privat_34_24-08-2020,,,kundenservice@mcdonalds.at,"Phone: +43223630700, Fax: +43223630700487",,,,,,,,,,,,
,,A1,A1 Telekom Austria AG,,,Lassallestraße 9,Wien,,1020,Wien,AUSTRIA,,,firmen_privat_35_24-08-2020,,,impressum@a1.at,"Phone: +43506640, Fax: +43800664101",,,,,,,,,,,,
,,bob,A1 Telekom Austria AG,,,"bob service, Postfach 0680",Wien,,1010,Wien,AUSTRIA,,,firmen_privat_36_24-08-2020,,,impressum@bob.at,"Phone: +43680600680, Fax: ",,,,,,,,,,,,
,,Drei,Hutchison Drei Austria GmbH,,,Brünner Straße 52,Wien,,1210,Wien,AUSTRIA,,,firmen_privat_37_24-08-2020,,,serviceteam@drei.at,"Phone: +43660303030, Fax: +43660303031",,,,,,,,,,,,
,,educom,edustore GmbH,,,Universitätsstraße 4/5,Wien,,1090,Wien,AUSTRIA,,,firmen_privat_38_24-08-2020,,,customerservice@educom.at,"Phone: +431961074850, Fax: +431961074833",,,,,,,,,,,,
,,eety,Hutchison Drei Austria GmbH,,,Brünner Straße 52,Wien,,1210,Wien,AUSTRIA,,,firmen_privat_39_24-08-2020,,,info@eety.at,"Phone: , Fax: ",,,,,,,,,,,,
,,Georg,A1 Telekom Austria AG,,,"Georg, Postfach 0621",Wien,,1010,Wien,AUSTRIA,,,firmen_privat_40_24-08-2020,,,service@georg.at,"Phone: +43681840610, Fax: +43681840640",,,,,,,,,,,,
,,HoT,HoT Telekom und Service GmbH,,,Baumgasse 60B,Wien,,1030,Wien,AUSTRIA,,,firmen_privat_41_24-08-2020,,,info@hot.at,"Phone: +4367760016770, Fax: +4367760016773",,,,,,,,,,,,
,,Red Bull Mobile,Red Bull Media House GmbH,,,Oberst-Lepperdinger-Str. 11-15,Wals,,5071,Salzburg,AUSTRIA,,,firmen_privat_42_24-08-2020,,,info@redbullmobile.com,"Phone: +4366222400, Fax: ",,,,,,,,,,,,
,,spusu,MASS Response Service GmbH,,,"DC Tower 1, 38. Stock, Donau-City-Straße 7",Wien,,1220,Wien,AUSTRIA,,,firmen_privat_43_24-08-2020,,,office@spusu.at,"Phone: +436706701000, Fax: ",,,,,,,,,,,,
,,Magenta,T-Mobile Austria GmbH,,,"Rennweg 97-99, Postfach 676",Wien Postfach,,1031,Wien,AUSTRIA,,,firmen_privat_44_24-08-2020,,,impressum@magenta.at,"Phone: +436762000, Fax: ",,,,,,,,,,,,
,,Yesss,A1 Telekom Austria AG,,,Lassallestraße 9,Wien,,1020,Wien,AUSTRIA,,,firmen_privat_45_24-08-2020,,,info@yesss.at,"Phone: +43820810810, Fax: ",,,,,,,,,,,,
,,share now,car2go Österreich GmbH,,,Hintere Zollamtsstraße 9,Wien,,1030,Wien,AUSTRIA,,,firmen_privat_46_24-08-2020,,,servus@share-now.com,"Phone: +4312677111, Fax: ",,,,,,,,,,,,
,,Jö,Unser Ö-Bonus Club GmbH,,,"IZ NÖ-Süd, Straße 3, Objekt 16",Wiener Neudorf,,2355,Niederösterreich,AUSTRIA,,,firmen_privat_47_24-08-2020,,,service@joe-club.at,"Phone: +4313865000, Fax: ",,,,,,,,,,,,
,,Alevitische Glaubensgemeinschaft,Alevitische Glaubensgemeinschaft in Österreich,,,Schererstraße 4,Wien,,1210,Wien,AUSTRIA,,,kirchen_privat_1_18-08-2020,,,info@evang.at,"Phone: +436602852624, Fax: ",,,,,,,,,,,,
,,Altkatholische Kirche,Altkatholische Kirche Österreich,,,Schottenring 17,Wien,,1010,Wien,AUSTRIA,,,kirchen_privat_2_18-08-2020,,,kirchenleitung@altkatholiken.at,"Phone: +4313178394, Fax: ",,,,,,,,,,,,
,,Armenisch-apostolische Kirche,Armenisch-apostolische Kirche in Österreich ,,,Kolonitzgasse 11,Wien,,1030,Wien,AUSTRIA,,,kirchen_privat_3_18-08-2020,,,office@aakg.at,"Phone: +4317180965, Fax: +4318906886",,,,,,,,,,,,
,,Evangelische Kirche A.B. und H.B.,Evangelische Kirche A.B. und H.B.,,,Severin-Schreiber-Gasse 1+3,Wien,,1180,Wien,AUSTRIA,,,kirchen_privat_4_18-08-2020,,,info@evang.at,"Phone: +4359151700, Fax: ",,,,,,,,,,,,
,,Evangelisch-methodistische Kirche,Evangelisch-methodistische Kirche in Österreich,,,Sechshauser Straße 56/1/9,Wien,,1150,Wien,AUSTRIA,,,kirchen_privat_5_18-08-2020,,,superintendent@emk.at,"Phone: +4316045347, Fax: ",,,,,,,,,,,,
,,Freikirchen in Österreich,Freikirchen in Österreich,,,Karl-Popper-Straße 16,Wien,,1100,Wien,AUSTRIA,,,kirchen_privat_6_18-08-2020,,,datenschutz@freikirchen.at,"Phone: +4319436714, Fax: ",,,,,,,,,,,,
,,Griechisch-orientalische Kirche,Griechisch-orientalische Kirche,,,Fleischmarkt 13,Wien,,1010,Wien,AUSTRIA,,,kirchen_privat_7_18-08-2020,,,office@orthodoxe-kirche.at,"Phone: +4315333889, Fax: +4315333889",,,,,,,,,,,,
,,Islamische Glaubensgemeinschaft,Islamische Glaubensgemeinschaft in Österreich,,,Bernardgasse 5,Wien,,1070,Wien,AUSTRIA,,,kirchen_privat_8_18-08-2020,,,office@derislam.at,"Phone: +4315263122, Fax: +43152631222",,,,,,,,,,,,
,,Israelitische Religionsgesellschaft,Israelitische Religionsgesellschaft,,,Seitenstettengasse 4,Wien,,1010,Wien,AUSTRIA,,,kirchen_privat_9_18-08-2020,,,office@ikg-wien.at,"Phone: +431531040, Fax: +43153104108",,,,,,,,,,,,
,,Jehovas Zeugen,Jehovas Zeugen in Österreich,,,Kaiserstrasse 36/25,Wien,,1070,Wien,AUSTRIA,,,kirchen_privat_10_18-08-2020,,,Pid-at.de@jw.org,"Phone: +4318045345, Fax: ",,,,,,,,,,,,
,,Katholische Kirche,Katholische Kirche,,,Rotenturmstraße 2,Wien,,1010,Wien,AUSTRIA,,,kirchen_privat_11_18-08-2020,,,sekretariat@bischofskonferenz.at,"Phone: +431516111010, Fax: +431516111037",,,,,,,,,,,,
,,Kirche Jesu Christi der Heiligen der letzten Tage,Kirche Jesu Christi der Heiligen der letzten Tage (Mormonen) in Österreich,,,Böcklinstraße 55,Wien,,1020,Wien,AUSTRIA,,,kirchen_privat_12_18-08-2020,,,info@hlt.at,"Phone: +436641351715, Fax: +431890629315",,,,,,,,,,,,
,,Koptisch-orthodoxe Kirche,Koptisch-orthodoxe Kirche in Österreich,,,Quadenstrasse 4-6,Wien,,1220,Wien,AUSTRIA,,,kirchen_privat_13_18-08-2020,,,info@kopten.at,"Phone: +4312827443, Fax: +4312827443",,,,,,,,,,,,
,,Neuapostolische Kirche,Neuapostolische Kirche in Österreich,,,"Mittersteig 10, Postfach 49",Wien,,1050,Wien,AUSTRIA,,,kirchen_privat_14_18-08-2020,,,info@nak.at,"Phone: +4315860521, Fax: +431586052130",,,,,,,,,,,,
,,Buddhistische Religionsgesellschaft,Österreichische Buddhistische Religionsgesellschaft ,,,Fleischmarkt 16,Wien,,1010,Wien,AUSTRIA,,,kirchen_privat_15_18-08-2020,,,office@buddhismus-austria.at,"Phone: +4315123719, Fax: +431512371913",,,,,,,,,,,,
,,Alt-Alevitische Glaubensgemeinschaft,Alt-Alevitische Glaubensgemeinschaft in Österreich,,,Kennergasse 10/R1,Wien,,1100,Wien,AUSTRIA,,,kirchen_privat_17_18-08-2020,,,info@alt-aleviten.at,"Phone: , Fax: ",,,,,,,,,,,,
,,Bahá´í-Religionsgemeinschaft,Bahá´í-Religionsgemeinschaft in Österreich ,,,Maroltingergasse 2,Wien,,1140,Wien,AUSTRIA,,,kirchen_privat_18_18-08-2020,,,ngr@at.bahai.org,"Phone: +4314791153, Fax: +431479115319",,,,,,,,,,,,
,,Die Christengemeinschaft-Bewegung für Religiöse Erneuerungen,Die Christengemeinschaft-Bewegung für Religiöse Erneuerungen in Österreich ,,,Mariahilferstraße 49/2/30,Wien,,1060,Wien,AUSTRIA,,,kirchen_privat_19_18-08-2020,,,wien@christengemeinschaft.at,"Phone: +4315871287, Fax: ",,,,,,,,,,,,
,,Hinduistische Religionsgesellschaft,Hinduistische Religionsgesellschaft in Österreich ,,,Lammgasse 1,Wien,,1080,Wien,AUSTRIA,,,kirchen_privat_20_18-08-2020,,,info@hroe.at,"Phone: , Fax: ",,,,,,,,,,,,
,,Islamisch-Schiitische Glaubensgemeinschaft,Islamisch-Schiitische Glaubensgemeinschaft in Österreich,,,Pezzlgasse 58,Wien,,1170,Wien,AUSTRIA,,,kirchen_privat_21_18-08-2020,,,office@schia.at,"Phone: +43699111979350, Fax: ",,,,,,,,,,,,
,,Kirche der Siebenten-Tags-Adventisten,Kirche der Siebenten-Tags-Adventisten in Österreich ,,,Prager Straße 287,Wien,,1210,Wien,AUSTRIA,,,kirchen_privat_22_18-08-2020,,,office@adventisten.at,"Phone: +4313199301, Fax: +4313199301199",,,,,,,,,,,,
,,Pfingstkirche Gemeinde Gottes,Pfingstkirche Gemeinde Gottes in Österreich,,,Maculangasse 9,Wien,,1220,Wien,AUSTRIA,,,kirchen_privat_23_18-08-2020,,,office@gemeindegottes.at,"Phone: , Fax: ",,,,,,,,,,,,
,,Vereinigungskirche,Vereinigungskirche in Österreich,,,Seidengasse 28/4,Wien,,1070,Wien,AUSTRIA,,,kirchen_privat_24_18-08-2020,,,office@vereinigungskirche.at,"Phone: +436645238794, Fax: ",,,,,,,,,,,,
,,Vereinigte Pfingstkirche,Vereinigte Pfingstkirche Österreichs (VPKÖ),,,Simmeringer Hauptstraße 2,Wien,,1110,Wien,AUSTRIA,,,kirchen_privat_25_18-08-2020,,,office@vpkoe.at,"Phone: , Fax: ",,,,,,,,,,,,
,,UniCredit Bank Austria,UniCredit Bank Austria AG,,,Rothschildplatz 1,Wien,,1020,Wien,AUSTRIA,,,banken_privat_1_18-08-2020,,,info@unicreditgroup.at,"Phone: +435050525, Fax: +435050556155",,,,,,,,,,,,
,,BAWAG PSK,BAWAG P.S.K. Bank für Arbeit und Wirtschaft und Österreichische Postsparkasse Aktiengesellschaft,,,Wiedner Gürtel 11,Wien,,1100,Wien,AUSTRIA,,,banken_privat_2_18-08-2020,,,kundenservice@bawagpsk.com,"Phone: +4359905, Fax: ",,,,,,,,,,,,
,,Erste Bank und Sparkasse,Erste Bank der oesterreichischen Sparkassen AG,,,Am Belvedere 1,Wien,,1100,Wien,AUSTRIA,,,banken_privat_3_18-08-2020,,,service@s-servicecenter.at,"Phone: +435010020111, Fax: +4350100910100",,,,,,,,,,,,
,,Raiffeisenlandesbank Niederösterreich-Wien,Raiffeisenlandesbank Niederösterreich-Wien AG,,,F.-W.-Raiffeisen-Platz 1,Wien,,1020,Wien,AUSTRIA,,,banken_privat_4_18-08-2020,,,info@raiffeisenbank.at,"Phone: +4351700900, Fax: ",,,,,,,,,,,,
,,Raiffeisen Landesbank Burgenland,Raiffeisenlandesbank Burgenland und Revisionsverband eGen,,,Friedrich Wilhelm Raiffeisen-Straße 1,Eisenstadt,,7000,Burgenland,AUSTRIA,,,banken_privat_5_18-08-2020,,,info.rlbb@raiffeisen-burgenland.at,"Phone: +4326826910, Fax: +432682691109",,,,,,,,,,,,
,,Raiffeisen-Landesbank Steiermark,Raiffeisen-Landesbank Steiermark AG,,,Kaiserfeldgasse 5,Graz,,8010,Steiermark,AUSTRIA,,,banken_privat_6_18-08-2020,,,info@rlbstmk.at,"Phone: +4331680360, Fax: +4331680363089",,,,,,,,,,,,
,,Raiffeisenlandesbank Kärnten,"Raiffeisenlandesbank Kärnten – Rechenzentrum und Revisionsverband, Registrierte Genossenschaft mit beschränkter Haftung",,,Raiffeisenplatz 1,Klagenfurt am Wörthersee,,9020,Kärnten,AUSTRIA,,,banken_privat_7_18-08-2020,,,maria.wohlgemuth@rbgk.raiffeisen.at,"Phone: +434639930012812, Fax: ",,,,,,,,,,,,
,,Raiffeisenverband Salzburg,Raiffeisenverband Salzburg eGen,,,Schwarzstraße 13-15,Salzburg,,5020,Salzburg,AUSTRIA,,,banken_privat_8_18-08-2020,,,info@rvs.at,"Phone: +436628886, Fax: ",,,,,,,,,,,,
,,Raiffeisenlandesbank Oberösterreich,Raiffeisenlandesbank Oberösterreich Aktiengesellschaft,,,Europaplatz 1a,Linz,,4020,Oberösterreich,AUSTRIA,,,banken_privat_9_18-08-2020,,,internet@rlbooe.at,"Phone: +4373265960, Fax: +43732659622739",,,,,,,,,,,,
,,Raiffeisen-Landesbank Tirol,Raiffeisen-Landesbank Tirol AG,,,Adamgasse 1-7,Innsbruck,,6020,Tirol,AUSTRIA,,,banken_privat_10_18-08-2020,,,info@rlb-tirol.at,"Phone: +4351253050, Fax: +43512530511938",,,,,,,,,,,,
,,Raiffeisenlandesbank Vorarlberg,Raiffeisenlandesbank Vorarlberg Waren- und Revisionsverband registrierte Genossenschaft mit beschränkter Haftung,,,Rheinstraße 11,Bregenz,,6900,Vorarlberg,AUSTRIA,,,banken_privat_11_18-08-2020,,,info@raiba.at,"Phone: +4355744050, Fax: +435574405331",,,,,,,,,,,,
,,Volksbank Kärnten,Volksbank Kärnten eG,,,Pernhartgasse 7,Klagenfurt am Wörthersee,,9020,Kärnten,AUSTRIA,,,banken_privat_12_18-08-2020,,,info@vbktn.at,"Phone: +4350909, Fax: +43509099001",,,,,,,,,,,,
,,Volksbank Niederösterreich,Volksbank Niederösterreich AG,,,Brunngasse 10,St. Pölten,,3100,Niederösterreich,AUSTRIA,,,banken_privat_13_18-08-2020,,,kundenservice@vbnoe.at,"Phone: +4327423910, Fax: +4327423918001",,,,,,,,,,,,
,,Volksbank Oberösterreich,Volksbank Oberösterreich AG,,,Pfarrgasse 5,Wels,,4600,Oberösterreich,AUSTRIA,,,banken_privat_14_18-08-2020,,,office@vb-ooe.at,"Phone: +4372424950, Fax: +43724249597",,,,,,,,,,,,
,,Volksbank Salzburg,Volksbank Salzburg eG,,,St.-Julien-Straße 12,Salzburg,,5020,Salzburg,AUSTRIA,,,banken_privat_15_18-08-2020,,,kundenservice@volksbanksalzburg.at,"Phone: +4366286960, Fax: +43662869621",,,,,,,,,,,,
,,Volksbank Steiermark,Volksbank Steiermark AG,,,Schmiedgasse 31,Graz,,8010,Steiermark,AUSTRIA,,,banken_privat_16_18-08-2020,,,vertrieb@volksbank-stmk.at,"Phone: +4350901, Fax: +43509018169",,,,,,,,,,,,
,,Volksbank Tirol,Volksbank Tirol AG,,,Meinhardstraße 1,Innsbruck,,6020,Tirol,AUSTRIA,,,banken_privat_17_18-08-2020,,,kundenservice@volksbank.tirol,"Phone: +4350566, Fax: ",,,,,,,,,,,,
,,Volksbank Vorarlberg,Volksbank Vorarlberg e. Gen.,,,Ringstraße 27,Rankweil,,6830,Vorarlberg,AUSTRIA,,,banken_privat_18_18-08-2020,,,volksbank@vvb.at,"Phone: +43508828000, Fax: ",,,,,,,,,,,,
,,Volksbank Horn,Volksbank Wien AG,,,Hauptplatz 10,Horn,,3580,Niederösterreich,AUSTRIA,,,banken_privat_19_18-08-2020,,,kundenservice@volksbankwien.at,"Phone: +4329822204, Fax: ",,,,,,,,,,,,
,,Volksbank Wien,Volksbank Wien AG,,,Dietrichgasse 25,Wien,,1030,Wien,AUSTRIA,,,banken_privat_20_18-08-2020,,,kundenservice@volksbankwien.at,"Phone: +431401370, Fax: +431401377600",,,,,,,,,,,,
,,Oberbank,Oberbank AG,,,Untere Donaulände 28,Linz,,4020,Oberösterreich,AUSTRIA,,,banken_privat_21_18-08-2020,,,office@oberbank.at,"Phone: +4373278020, Fax: +43732780232140",,,,,,,,,,,,
,,BTV,Bank für Tirol und Vorarlberg Aktiengesellschaft,,,Stadtforum 1,Innsbruck,,6020,Tirol,AUSTRIA,,,banken_privat_22_18-08-2020,,,info@btv.at,"Phone: +435053330, Fax: ",,,,,,,,,,,,
,,BKS,BKS Bank AG,,,St. Veiter Ring 43,Klagenfurt am Wörthersee,,9020,Kärnten,AUSTRIA,,,banken_privat_23_18-08-2020,,,bks@bks.at,"Phone: +434635858, Fax: ",,,,,,,,,,,,
,,Hypo NOE und Wien,HYPO NOE Landesbank für Niederösterreich und Wien AG,,,Hypogasse 1,St. Pölten,,3100,Niederösterreich,AUSTRIA,,,banken_privat_24_18-08-2020,,,landesbank@hyponoe.at,"Phone: +435909100, Fax: ",,,,,,,,,,,,
,,Hypo Tirol,Hypo Tirol Bank AG,,,Meraner Straße 8,Innsbruck,,6020,Tirol,AUSTRIA,,,banken_privat_25_18-08-2020,,,service@hypotirol.com,"Phone: +43507000, Fax: +435070041000",,,,,,,,,,,,
,,Hypo Vorarlberg,Hypo Vorarlberg Bank AG,,,Hypo-Passage 1,Bregenz,,6900,Vorarlberg,AUSTRIA,,,banken_privat_26_18-08-2020,,,info@hypovbg.at,"Phone: +43504141000, Fax: +43504141050",,,,,,,,,,,,
,,Hypo Burgenland,HYPO-BANK BURGENLAND Aktiengesellschaft,,,Neusiedlerstraße 33,Eisenstadt,,7000,Burgenland,AUSTRIA,,,banken_privat_27_18-08-2020,,,info@bank-bgld.at,"Phone: +4326826050, Fax: +4326826057209",,,,,,,,,,,,
,,Hypo Oberösterreich,Oberösterreichische Landesbank Aktiengesellschaft,,,Landstraße 38,"Linz, Donau",,4010,Oberösterreich,AUSTRIA,,,banken_privat_28_18-08-2020,,,office@hypo-ooe.at,"Phone: +4373276390, Fax: +437327639954954",,,,,,,,,,,,
,,Hypo Salzburg,Salzburger Landes‑Hypothekenbank Aktiengesellschaft,,,Residenzplatz 7,Salzburg,,5020,Salzburg,AUSTRIA,,,banken_privat_29_18-08-2020,,,office@hyposalzburg.at,"Phone: +436628046, Fax: +43662804664646",,,,,,,,,,,,
,,Hypo Steiermark,Landes-Hypothekenbank Steiermark AG,,,Radetzkystraße 15-17,Graz,,8010,Steiermark,AUSTRIA,,,banken_privat_30_18-08-2020,,,hypo@landes.hypobank.at,"Phone: +4331680510, Fax: +4331680515354",,,,,,,,,,,,
,,Ärzte- und Apothekerbank,Österreichische Ärzte- und Apothekerbank AG,,,Schottengasse 10,Wien,,1010,Wien,AUSTRIA,,,banken_privat_31_18-08-2020,,,kundenservice@apobank.at,"Phone: +431400800, Fax: ",,,,,,,,,,,,
,,Austrian Anadi Bank,Austrian Anadi Bank AG,,,Domgasse 5,Klagenfurt am Wörthersee,,9020,Kärnten,AUSTRIA,,,banken_privat_32_18-08-2020,,,austrian@anadibank.com,"Phone: +43502020, Fax: +43502023000",,,,,,,,,,,,
,,Bankhaus Carl Spängler,Bankhaus Carl Spängler & Co. AG,,,Schwarzstraße 1,Salzburg,,5020,Salzburg,AUSTRIA,,,banken_privat_33_18-08-2020,,,bankhaus@spaengler.at,"Phone: +4366286860, Fax: +436628686158",,,,,,,,,,,,
,,Bankhaus Schelhammer & Schattera,Bankhaus Schelhammer and Schattera AG,,,Goldschmiedgasse 3,Wien,,1010,Wien,AUSTRIA,,,banken_privat_34_18-08-2020,,,bank.office@schelhammer.at,"Phone: +431534340, Fax: +431534348065",,,,,,,,,,,,
,,bank99,bank99 AG,,,Rochusplatz 1,Wien,,1030,Wien,AUSTRIA,,,banken_privat_35_18-08-2020,,,info@bank99.at,"Phone: +43800099099, Fax: ",,,,,,,,,,,,
,,Capital Bank,CAPITAL BANK – GRAWE Gruppe AG,,,Burgring 16,Graz,,8010,Steiermark,AUSTRIA,,,banken_privat_36_18-08-2020,,,office@capitalbank.at,"Phone: +433168072, Fax: +4331680722291",,,,,,,,,,,,
,,DolomitenBank,DolomitenBank Osttirol-Westkärnten eG,,,Südtiroler Platz 9,Lienz,,9900,Tirol,AUSTRIA,,,banken_privat_37_18-08-2020,,,info@dolomitenbank.at,"Phone: +43485266650, Fax: +434852666535",,,,,,,,,,,,
,,easybank,easybank AG,,,Wiedner Gürtel 11,Wien,,1100,Wien,AUSTRIA,,,banken_privat_38_18-08-2020,,,easy@easybank.at,"Phone: +4357005535, Fax: +4357005590",,,,,,,,,,,,
,,Schoellerbank,Schoellerbank AG,,,Renngasse 3,Wien,,1010,Wien,AUSTRIA,,,banken_privat_39_18-08-2020,,,info@schoellerbank.at,"Phone: +431534710, Fax: +431534711655",,,,,,,,,,,,
,,SPARDA-BANK,Volksbank Wien AG,,,Bahnhofplatz 7,Villach,,9500,Kärnten,AUSTRIA,,,banken_privat_40_18-08-2020,,,mail@sparda.at,"Phone: +43424228156, Fax: +434242281569485",,,,,,,,,,,,
,,VKB,Volkskreditbank AG,,,"Rudigierstraße 5-7, Postfach 116","Linz, Donau",,4010,Oberösterreich,AUSTRIA,,,banken_privat_41_18-08-2020,,,service@vkb-bank.at,"Phone: +4373276370, Fax: +4373276371484",,,,,,,,,,,,
,,Marchfelder Bank,Marchfelder Bank eG,,,Marchfelder-Platz 1-2,Gänserndorf,,2230,Niederösterreich,AUSTRIA,,,banken_privat_42_18-08-2020,,,mail@marchfelderbank.at,"Phone: +43228289250, Fax: +432282892510",,,,,,,,,,,,
,,Sparkasse Feldkirchen,"Sparkasse Feldkirchen, Vereinssparkasse",,,Sparkassenstraße 1a,Feldkirchen in Kärnten,,9560,Kärnten,AUSTRIA,,,banken_privat_43_18-08-2020,,,Info@Feldkirchen.Sparkasse.at,"Phone: +435010033400, Fax: +4350100933400",,,,,,,,,,,,
,,Kärntner Sparkasse,Kärntner Sparkasse AG,,,Neuer Platz 14,Klagenfurt am Wörthersee,,9020,Kärnten,AUSTRIA,,,banken_privat_44_18-08-2020,,,info@kspk.at,"Phone: +435010020706, Fax: +4350100930800",,,,,,,,,,,,
,,Sparkasse der Stadt Amstetten,Sparkasse der Stadt Amstetten AG,,,Hauptplatz 31,Amstetten,,3300,Niederösterreich,AUSTRIA,,,banken_privat_45_18-08-2020,,,info@amstetten.sparkasse.at,"Phone: +435010025400, Fax: +4350100925400",,,,,,,,,,,,
,,Sparkasse Baden,"Sparkasse Baden, Vereinssparkasse",,,Hauptplatz 15,Baden,,2500,Niederösterreich,AUSTRIA,,,banken_privat_46_18-08-2020,,,info@sparkassebaden.at,"Phone: +435010020205, Fax: +435010020205",,,,,,,,,,,,
,,Sparkasse Hainburg-Bruck-Neusiedl,Sparkasse Hainburg-Bruck-Neusiedl AG,,,Hauptplatz 1,Hainburg an der Donau,,2410,Niederösterreich,AUSTRIA,,,banken_privat_47_18-08-2020,,,info@sparkasse.hbn.at,"Phone: +435010020216, Fax: +435010020216",,,,,,,,,,,,
,,Sparkasse Haugsdorf,Sparkasse Haugsdorf Vereinssparkasse,,,Hauptplatz 1,Haugsdorf,,2054,Niederösterreich,AUSTRIA,,,banken_privat_48_18-08-2020,,,info@haugsdorf.sparkasse.at,"Phone: +435010079800, Fax: +435010020218",,,,,,,,,,,,
,,Sparkasse Herzogenburg-Neulengbach,Sparkasse Herzogenburg-Neulengbach Bank AG,,,Rathausplatz 9-10,Herzogenburg,,3130,Niederösterreich,AUSTRIA,,,banken_privat_49_18-08-2020,,,spk@herzogenburg.sparkasse.at,"Phone: +435010010100, Fax: +435010025100",,,,,,,,,,,,
,,Sparkasse Horn-Ravelsbach-Kirchberg,Sparkasse Horn-Ravelsbach-Kirchberg AG,,,Kirchenplatz 12,Horn,,3580,Niederösterreich,AUSTRIA,,,banken_privat_50_18-08-2020,,,office@horn.sparkasse.at,"Phone: +435010026000, Fax: +435010020221",,,,,,,,,,,,
,,Sparkasse Korneuburg,Sparkasse Korneuburg AG,,,Sparkassenplatz 1,Korneuburg,,2100,Niederösterreich,AUSTRIA,,,banken_privat_51_18-08-2020,,,information@korneuburg.sparkasse.at,"Phone: +435010043200, Fax: +435010020227",,,,,,,,,,,,
,,Kremser Bank und Sparkasse,Kremser Bank und Sparkassen AG,,,Ringstraße 5-7,Krems an der Donau,,3500,Niederösterreich,AUSTRIA,,,banken_privat_52_18-08-2020,,,info@kremserbank.at,"Phone: +435010025500, Fax: +435010020228",,,,,,,,,,,,
,,Sparkasse Langenlois,Sparkasse Langenlois Vereinssparkasse,,,Kornplatz 2a,Langenlois,,3550,Niederösterreich,AUSTRIA,,,banken_privat_53_18-08-2020,,,info@langenlois.sparkasse.at,"Phone: +435010079700, Fax: +4350100979700",,,,,,,,,,,,
,,Sparkasse Neunkirchen,Sparkasse Neunkirchen,,,Hauptplatz 2,Neunkirchen,,2620,Niederösterreich,AUSTRIA,,,banken_privat_54_18-08-2020,,,service@neunkirchen.sparkasse.at,"Phone: +435010020241, Fax: +4350100972600",,,,,,,,,,,,
,,Sparkasse Pottenstein N.Ö.,Sparkasse Pottenstein N.Ö. Vereinssparkasse,,,Hauptplatz 5,Pottenstein,,2563,Niederösterreich,AUSTRIA,,,banken_privat_55_18-08-2020,,,office@pottenstein.sparkasse.at,"Phone: +435010020245, Fax: +4350100925950",,,,,,,,,,,,
,,Sparkasse Poysdorf,Sparkasse Poysdorf AG,,,Dreifaltigkeitsplatz 2,Poysdorf,,2170,Niederösterreich,AUSTRIA,,,banken_privat_56_18-08-2020,,,office@poysdorf.sparkasse.at,"Phone: +4350100–25200, Fax: +435010020246",,,,,,,,,,,,
,,Sparkasse Niederösterreich Mitte West,Sparkasse Niederösterreich Mitte West AG,,,Domgasse 5,St. Pölten,,3100,Niederösterreich,AUSTRIA,,,banken_privat_57_18-08-2020,,,office@spknoe.at,"Phone: +435010073200, Fax: +4350100973131",,,,,,,,,,,,
,,Sparkasse Scheibbs,Sparkasse Scheibbs AG,,,Hauptstraße 9,Scheibbs,,3270,Niederösterreich,AUSTRIA,,,banken_privat_58_18-08-2020,,,info@scheibbs.sparkasse.at,"Phone: +435010079900, Fax: +4350100979900",,,,,,,,,,,,
,,Wiener Neustädter Sparkasse,Wiener Neustädter Sparkasse Vereinssparkasse,,,Neunkirchner Straße 4,Wiener Neustadt,,2700,Niederösterreich,AUSTRIA,,,banken_privat_59_18-08-2020,,,info@wrneustadt.sparkasse.at,"Phone: +435010038200, Fax: +4.50100938200",,,,,,,,,,,,
,,Waldviertler Sparkasse,Waldviertler Sparkasse Bank AG,,,Sparkassenplatz 3,Zwettl,,3910,Niederösterreich,AUSTRIA,,,banken_privat_60_18-08-2020,,,office@wspk.at,"Phone: +435010079300, Fax: +435010020272",,,,,,,,,,,,
,,Sparkasse Salzkammergut,Sparkasse Salzkammergut AG,,,Sparkassenplatz 1,Bad Ischl,,4820,Oberösterreich,AUSTRIA,,,banken_privat_61_18-08-2020,,,office@salzkammergut.sparkasse.at,"Phone: +435010049600, Fax: +4350100949600",,,,,,,,,,,,
,,Sparkasse Eferding-Peuerbach-Waizenkirchen,Sparkasse Eferding-Peuerbach-Waizenkirchen Vereinssparkasse,,,Stadtplatz 1,Eferding,,4070,Oberösterreich,AUSTRIA,,,banken_privat_62_18-08-2020,,,info@epw.sparkasse.at,"Phone: +435010042000, Fax: +4350100942000",,,,,,,,,,,,
,,Sparkasse Frankenmarkt,Sparkasse Frankenmarkt AG,,,Hauptstraße 94,Frankenmarkt,,4890,Oberösterreich,AUSTRIA,,,banken_privat_63_18-08-2020,,,Info@frankenmarkt.sparkasse.at,"Phone: +435010049000, Fax: +4350100949000",,,,,,,,,,,,
,,Sparkasse Lambach,Sparkasse Lambach Bank AG,,,Klosterplatz 3,Lambach,,4650,Oberösterreich,AUSTRIA,,,banken_privat_64_18-08-2020,,,info@lambach.sparkasse.at,"Phone: +435010043000, Fax: +4350100943000",,,,,,,,,,,,
,,Allgemeine Sparkasse Oberösterreich,Allgemeine Sparkasse Oberösterreich Bankaktiengesellschaft,,,Promenade 11 – 13,Linz,,4020,Oberösterreich,AUSTRIA,,,banken_privat_65_18-08-2020,,,ebusiness@sparkasse-ooe.at,"Phone: +435010040000, Fax: +4350100940000",,,,,,,,,,,,
,,Sparkasse Neuhofen,Sparkasse Neuhofen Bank AG,,,Marktplatz 18,Neuhofen an der Krems,,4501,Oberösterreich,AUSTRIA,,,banken_privat_66_18-08-2020,,,info@neuhofen.sparkasse.at,"Phone: +435010042300, Fax: +4350100942300",,,,,,,,,,,,
,,Sparkasse Pregarten-Unterweißenbach,Sparkasse Pregarten-Unterweißenbach AG,,,Stadtplatz 19,Pregarten,,4230,Oberösterreich,AUSTRIA,,,banken_privat_67_18-08-2020,,,office@pregarten.sparkasse.at,"Phone: +435010042700, Fax: +435010042741",,,,,,,,,,,,
,,Sparkasse Ried im Innkreis-Haag am Hausruck,Sparkasse Ried im Innkreis-Haag am Hausruck Gemeindesparkasse,,,Marktplatz 2,Ried im Innkreis,,4910,Oberösterreich,AUSTRIA,,,banken_privat_68_18-08-2020,,,mail@sparkasse-ried.at,"Phone: +435010049400, Fax: +435010052222",,,,,,,,,,,,
,,Sparkasse Mühlviertel-West Bank,Sparkasse Mühlviertel-West Bank AG,,,Stadtplatz 24,Rohrbach in Oberösterreich,,4150,Oberösterreich,AUSTRIA,,,banken_privat_69_18-08-2020,,,smw@smw.at,"Phone: +435010042800, Fax: +4350100942800",,,,,,,,,,,,
,,Sparkasse Mittersill,Sparkasse Mittersill AG,,,Stadtplatz 4,Mittersill,,5730,Salzburg,AUSTRIA,,,banken_privat_70_18-08-2020,,,info@mittersill.sparkasse.at,"Phone: +435010048700, Fax: +4350100948700",,,,,,,,,,,,
,,Salzburger Sparkasse,Salzburger Sparkasse Bank AG,,,Alter Markt 3. Postfach 180,Salzburg Postfach,,5021,Salzburg,AUSTRIA,,,banken_privat_71_18-08-2020,,,info@salzburg.sparkasse.at,"Phone: +435010041000, Fax: +4350100941000",,,,,,,,,,,,
,,Steiermärkische Bank und Sparkasse,Steiermärkische Bank und Sparkassen AG,,,Sparkassenplatz 4,Graz,,8010,Steiermark,AUSTRIA,,,banken_privat_72_18-08-2020,,,info@steiermaerkische.at,"Phone: +435010036000, Fax: +4350100936000",,,,,,,,,,,,
,,Sparkasse Mürzzuschlag,Sparkasse Mürzzuschlag AG,,,Wiener Straße 78,Mürzzuschlag,,8680,Steiermark,AUSTRIA,,,banken_privat_73_18-08-2020,,,info@muerzzuschlag.sparkasse.at,"Phone: +435010037300, Fax: +4350100937300",,,,,,,,,,,,
,,Sparkasse Pöllau,Sparkasse Pöllau AG,,,Hauptplatz 2,Pöllau bei Hartberg,,8225,Steiermark,AUSTRIA,,,banken_privat_74_18-08-2020,,,info@poellau.sparkasse.at,"Phone: +435010037400, Fax: +4350100937400",,,,,,,,,,,,
,,Sparkasse Voitsberg-Köflach Bank,Sparkasse Voitsberg-Köflach Bank AG,,,Bahnhofstraße 2,Voitsberg,,8570,Steiermark,AUSTRIA,,,banken_privat_75_18-08-2020,,,info@vk.sparkasse.at,"Phone: +435010037500, Fax: +4350100937500",,,,,,,,,,,,
,,Sparkasse Imst,Sparkasse Imst AG,,,Sparkassenplatz 1,Imst,,6460,Tirol,AUSTRIA,,,banken_privat_76_18-08-2020,,,service@imst.sparkasse.at,"Phone: +435010077000, Fax: +4350100977000",,,,,,,,,,,,
,,Tiroler Sparkasse,Tiroler Sparkasse Bankaktiengesellschaft Innsbruck,,,"Sparkassenplatz 1, Postfach 245",Innsbruck,,6010,Tirol,AUSTRIA,,,banken_privat_77_18-08-2020,,,sparkasse@tirolersparkasse.at,"Phone: +435010070000, Fax: +4350100970000",,,,,,,,,,,,
,,Sparkasse der Stadt Kitzbühel,Sparkasse der Stadt Kitzbühel Gemeindesparkasse,,,Bahnhofstraße 6,Kitzbühel,,6370,Tirol,AUSTRIA,,,banken_privat_78_18-08-2020,,,info@sparkasse-kitzbuehel.at,"Phone: +435010078600, Fax: ",,,,,,,,,,,,
,,Sparkasse Kufstein,Sparkasse Kufstein Vereinssparkasse,,,Oberer Stadtplatz 1,Kufstein,,6330,Tirol,AUSTRIA,,,banken_privat_79_18-08-2020,,,service@sparkasse-kufstein.at,"Phone: +435010076000, Fax: +4350100976000",,,,,,,,,,,,
,,Lienzer Sparkasse,Lienzer Sparkasse AG,,,Johannesplatz 6,Lienz,,9900,Tirol,AUSTRIA,,,banken_privat_80_18-08-2020,,,info@lienzer.sparkasse.at,"Phone: +435010033500, Fax: +4350100933500",,,,,,,,,,,,
,,Sparkasse Rattenberg,Sparkasse Rattenberg Bank AG,,,Sparkassenplatz 69,Rattenberg,,6240,Tirol,AUSTRIA,,,banken_privat_81_18-08-2020,,,info@rattenberg.sparkasse.at,"Phone: +435010076400, Fax: +4350100976400",,,,,,,,,,,,
,,Sparkasse Reutte,Sparkasse Reutte AG,,,Obermarkt 51,Reutte,,6600,Tirol,AUSTRIA,,,banken_privat_82_18-08-2020,,,office@sparkasse-reutte.at,"Phone: +435010076800, Fax: +4350100976800",,,,,,,,,,,,
,,Sparkasse Schwaz,Sparkasse Schwaz AG,,,Franz-Josef-Straße 8 – 10,Schwaz,,6130,Tirol,AUSTRIA,,,banken_privat_83_18-08-2020,,,info@sparkasse-schwaz.at,"Phone: +435010077300, Fax: +4350100977300",,,,,,,,,,,,
,,Sparkasse Bludenz,Sparkasse Bludenz Bank AG,,,Sparkassenplatz 1,Bludenz,,6700,Vorarlberg,AUSTRIA,,,banken_privat_84_18-08-2020,,,info@bludenz.sparkasse.at,"Phone: +435010077800, Fax: +4350100977800",,,,,,,,,,,,
,,Sparkasse Bregenz,Sparkasse Bregenz Bank AG,,,"Sparkassenplatz 1, Postfach 331",Bregenz Postfach,,6901,Vorarlberg,AUSTRIA,,,banken_privat_85_18-08-2020,,,mail@bregenz.sparkasse.at,"Phone: +435010075000, Fax: +4350100975000",,,,,,,,,,,,
,,Dornbirner Sparkasse,Dornbirner Sparkasse Bank AG,,,"Sparkassenplatz 1, Postfach 18",Dornbirn,,6850,Vorarlberg,AUSTRIA,,,banken_privat_86_18-08-2020,,,service@dornbirn.sparkasse.at,"Phone: +435010074000, Fax: +4350100974000",,,,,,,,,,,,
,,Sparkasse der Gemeinde Egg,Sparkasse der Gemeinde Egg Gemeindesparkasse,,,Loco 873,Egg,,6863,Vorarlberg,AUSTRIA,,,banken_privat_87_18-08-2020,,,info@egg.sparkasse.at,"Phone: +435010075500, Fax: +4350100975500",,,,,,,,,,,,
,,Sparkasse der Stadt Feldkirch,Sparkasse der Stadt Feldkirch Vereinssparkasse,,,"Sparkassenplatz 1, Postfach 50",Feldkirch,,6800,Vorarlberg,AUSTRIA,,,banken_privat_88_18-08-2020,,,info@feldkirch.sparkasse.at,"Phone: +435010043600, Fax: +4350100943600",,,,,,,,,,,,
,,Die Zweite Sparkasse,Die Zweite Wiener Vereins-Sparcasse,,,"Am Schweizer Garten 1, Objekt 2",Wien,,1030,Wien,AUSTRIA,,,banken_privat_89_18-08-2020,,,wien7@diezweitesparkasse.at,"Phone: +435010023092, Fax: ",,,,,,,,,,,,
,,BH Hallein,Bezirkshauptmannschaft Hallein,,,Schwarzstraße 14,Hallein,,5400,Salzburg,AUSTRIA,,,bezirkshauptmannschaften_salzburg_1_25-08-2020,,,bh-hallein@salzburg.gv.at,"Phone: +4362457960, Fax: +4362457966019",,,,,,,,,,,,
,,BH Salzburg-Umgebung,Bezirkshauptmannschaft Salzburg-Umgebung,,,Postfach 533 ,Salzburg Postfach,,5021,Salzburg,AUSTRIA,,,bezirkshauptmannschaften_salzburg_2_25-08-2020,,,bh-sl@salzburg.gv.at,"Phone: +4366281800, Fax: +4366281805719",,,,,,,,,,,,
,,BH St. Johann,Bezirkshauptmannschaft St. Johann,,,Hauptstraße 1,St. Johann im Pongau,,5600,Salzburg,AUSTRIA,,,bezirkshauptmannschaften_salzburg_3_25-08-2020,,,bh-st-johann@salzburg.gv.at,"Phone: +4364126101, Fax: +43641261016219",,,,,,,,,,,,
,,BH Tamsweg,Bezirkshauptmannschaft Tamsweg,,,Kapuzinerplatz 1,Tamsweg,,5580,Salzburg,AUSTRIA,,,bezirkshauptmannschaften_salzburg_4_25-08-2020,,,bh-tamsweg@salzburg.gv.at,"Phone: +43647465410, Fax: +43647465416519",,,,,,,,,,,,
,,BH Zell am See,Bezirkshauptmannschaft Zell am See,,,Postfach 130 ,Zell am See,,5700,Salzburg,AUSTRIA,,,bezirkshauptmannschaften_salzburg_5_25-08-2020,,,bh-zell@salzburg.gv.at,"Phone: +4365427600, Fax: +4365427606719",,,,,,,,,,,,
,,Bildungsdirektion Salzburg,Bildungsdirektion Salzburg,,,Mozartplatz 8-10,Salzburg,,5010,Salzburg,AUSTRIA,,,salzburg_salzburg_1_19-08-2020,,,homepage@bildung-sbg.gv.at,"Phone: +436628083, Fax: +4366280831099",,,,,,,,,,,,
,,Landespolizeidirektion Salzburg,Landespolizeidirektion Salzburg,,,Alpenstraße 90,Salzburg,,5020,Salzburg,AUSTRIA,,,salzburg_salzburg_2_19-08-2020,,,LPD-S@polizei.gv.at,"Phone: +4359133500, Fax: +4359133507800",,,,,,,,,,,,
,,Wirtschaftskammer Salzburg,Wirtschaftskammer Salzburg,,,Julius-Raab-Platz 1,Salzburg,,5027,Salzburg,AUSTRIA,,,salzburg_salzburg_3_18-08-2020,,,info@wks.at,"Phone: +4366288880, Fax: +436628888188",,,,,,,,,,,,
,,Rechtanswaltskammer Salzburg,Rechtanswaltskammer Salzburg,,,Imbergstraße 31C,Salzburg,,5020,Salzburg,AUSTRIA,,,salzburg_salzburg_4_18-08-2020,,,info@srak.at,"Phone: +43662640042, Fax: +43662640428",,,,,,,,,,,,
,,Landeszahnärztekammer Salzburg,Landeszahnärztekammer Salzburg,,,Rochusgasse 4,Salzburg,,5020,Salzburg,AUSTRIA,,,salzburg_salzburg_5_18-08-2020,,,office@sbg.zahnaerztekammer.at,"Phone: +43505115020, Fax: +43505115025",,,,,,,,,,,,
,,Notariatskammer für Salzburg,Notariatskammer für Salzburg,,,Ignaz-Harrer-Straße 7,Salzburg,,5020,Salzburg,AUSTRIA,,,salzburg_salzburg_6_18-08-2020,,,salzburg@notariatskammer.at,"Phone: +43662845359, Fax: +436628453594",,,,,,,,,,,,
,,Ärztekammer Salzburg,Ärztekammer Salzburg,,,Faberstraße 10,Salzburg,,5020,Salzburg,AUSTRIA,,,salzburg_salzburg_7_18-08-2020,,,aeksbg@aeksbg.at,"Phone: +436628713270, Fax: +4366287132710",,,,,,,,,,,,
,,Apothekerkammer Salzburg,Apothekerkammer Salzburg,,,Alpenstraße 112/2,Salzburg,,5020,Salzburg,AUSTRIA,,,salzburg_salzburg_8_18-08-2020,,,salzburg@apothekerkammer.at,"Phone: +43662627496, Fax: +4366262751314",,,,,,,,,,,,
,,Arbeiterkammer Salzburg,Kammer für Arbeiter und Angestellte für Salzburg,,,Markus-Sittikus-Straße 10,Salzburg,,5020,Salzburg,AUSTRIA,,,salzburg_salzburg_9_18-08-2020,,,kontakt@ak-salzburg.at,"Phone: +436628687, Fax: +43662876258",,,,,,,,,,,,
,,Kammer der Steuerberater und Wirtschaftsprüfer Salzburg,Kammer der Steuerberater und Wirtschaftsprüfer Salzburg,,,Rainerstraße 5/3,Salzburg,,5020,Salzburg,AUSTRIA,,,salzburg_salzburg_10_18-08-2020,,,salzburg@ksw.or.at,"Phone: +436628711680, Fax: +436628711683",,,,,,,,,,,,
,,Kammer der ZiviltechnikerInnen für Oberösterreich und Salzburg,Kammer der ZiviltechnikerInnen für Oberösterreich und Salzburg,,,Kaarstraße 2/II,Linz,,4040,Oberösterreich,AUSTRIA,,,salzburg_salzburg_11_18-08-2020,,,linz@arching-zt.at,"Phone: +43732738394, Fax: +437327383944",,,,,,,,,,,,
,,Salzburger Landarbeiterkammer,Salzburger Kammer für Arbeiter und Angestellte in der Land- und Forstwirtschaft,,,"Schrannengasse 2/3/1, Postfach 11",Salzburg,,5027,Salzburg,AUSTRIA,,,salzburg_salzburg_12_18-08-2020,,,landarbeiterkammer@lak-sbg.at,"Phone: +436628712320, Fax: +436628712324",,,,,,,,,,,,
,,KFA der Magistratsbeamten der Landeshauptstadt Salzburg,Krankenfürsorgeanstalt der Magistratsbeamten der Landeshauptstadt Salzburg,,,Mirabellplatz 4,Salzburg,,5024,Salzburg,AUSTRIA,,,salzburg_salzburg_13_20-08-2020,,,kfa@stadt-salzburg.at,"Phone: +4366280722530, Fax: ",,,,,,,,,,,,
,,KFA der Beamten der Stadtgemeinde Hallein,Krankenfürsorgeeinrichtung der Beamten der Stadtgemeinde Hallein,,,Schöndorferplatz 14,Hallein,,5400,Salzburg,AUSTRIA,,,salzburg_salzburg_14_20-08-2020,,,stadtamt@hallein.gv.at,"Phone: +4362458988168, Fax: ",,,,,,,,,,,,
,,MOZ,Universität Mozarteum Salzburg,,,Mirabellplatz 1,Salzburg,,5020,Salzburg,AUSTRIA,,,salzburg_salzburg_16_23-08-2020,,,info@moz.ac.at,"Phone: +4366261980, Fax: +4366261983033",,,,,,,,,,,,
,,Uni Salzburg,Paris-Lodron-Universität Salzburg,,,Kapitelgasse 4,Salzburg,,5020,Salzburg,AUSTRIA,,,salzburg_salzburg_17_24-08-2020,,,datenschutz@sbg.ac.at,"Phone: +4366280440, Fax: +436628044145",,,,,,,,,,,,
,,PMU,Paracelsus Medizinische Privatuniversität Salzburg – Privatstiftung,,,Strubergasse 21,Salzburg,,5020,Salzburg,AUSTRIA,,,salzburg_salzburg_18_24-08-2020,,,datenschutz@pmu.ac.at,"Phone: +4366224200, Fax: +43662242080009",,,,,,,,,,,,
,,Uni Seeburg,Privatuniversität Schloss Seeburg GmbH,,,Seeburgstraße 8,Seekirchen,,5201,Salzburg,AUSTRIA,,,salzburg_salzburg_19_24-08-2020,,,info@uni-seeburg.at,"Phone: +43621226260, Fax: ",,,,,,,,,,,,
,,FH Salzburg,Fachhochschule Salzburg GmbH,,,Urstein Süd 1,Puch bei Hallein,,5412,Salzburg,AUSTRIA,,,salzburg_salzburg_20_24-08-2020,,,medien@fh-salzburg.ac.at,"Phone: +435022110, Fax: +435022111099",,,,,,,,,,,,
,,PH Salzburg,Pädagogische Hochschule Salzburg Stefan Zweig,,,Akademiestraße 23-25,Salzburg,,5020,Salzburg,AUSTRIA,,,salzburg_salzburg_21_24-08-2020,,,office@phsalzburg.at,"Phone: +4366263880, Fax: +4366263881010",,,,,,,,,,,,
,,Magistrat Graz,Magistrat Graz,,,Hauptplatz 1,Graz,,8010,Steiermark,AUSTRIA,,,bezirkshauptmannschaften_steiermark_1_19-08-2020,,,stadtverwaltung@graz.at,"Phone: +433168720, Fax: +433168722369",,,,,,,,,,,,
,,BH Bruck-Mürzzuschlag,Bezirkshauptmannschaft Bruck-Mürzzuschlag,,,Dr.-Theodor-Körner-Straße 34,Bruck an der Mur,,8600,Steiermark,AUSTRIA,,,bezirkshauptmannschaften_steiermark_2_19-08-2020,,,bhbm@stmk.gv.at,"Phone: +4338628990, Fax: +433862899550",,,,,,,,,,,,
,,BH Deutschlandsberg,Bezirkshauptmannschaft Deutschlandsberg,,,Kirchengasse 12,Deutschlandsberg,,8530,Steiermark,AUSTRIA,,,bezirkshauptmannschaften_steiermark_3_19-08-2020,,,bhdl@stmk.gv.at,"Phone: +43346226060, Fax: +4334622606550",,,,,,,,,,,,
,,BH Graz-Umgebung,Bezirkshauptmannschaft Graz-Umgebung,,,Bahnhofgürtel 85,Graz,,8020,Steiermark,AUSTRIA,,,bezirkshauptmannschaften_steiermark_4_19-08-2020,,,bhgu@stmk.gv.at,"Phone: +4331670750, Fax: +433167075333",,,,,,,,,,,,
,,BH Hartberg-Fürstenfeld,Bezirkshauptmannschaft Hartberg-Fürstenfeld,,,Rochusplatz 2,Hartberg,,8230,Steiermark,AUSTRIA,,,bezirkshauptmannschaften_steiermark_5_19-08-2020,,,bhhf@stmk.gv.at,"Phone: +4333326060, Fax: +433332606550",,,,,,,,,,,,
,,BH Leibnitz,Bezirkshauptmannschaft Leibnitz,,,Kada-Gasse 12,Leibnitz,,8430,Steiermark,AUSTRIA,,,bezirkshauptmannschaften_steiermark_6_19-08-2020,,,bhlb@stmk.gv.at,"Phone: +433452829110, Fax: +43345282911550",,,,,,,,,,,,
,,BH Liezen,Bezirkshauptmannschaft Liezen,,,Hauptplatz 12,Liezen,,8940,Steiermark,AUSTRIA,,,bezirkshauptmannschaften_steiermark_7_19-08-2020,,,bhli@stmk.gv.at,"Phone: +43361228010, Fax: +4336122801550",,,,,,,,,,,,
,,BH Leoben,Bezirkshauptmannschaft Leoben,,,Peter Tunner-Straße 6,Leoben,,8700,Steiermark,AUSTRIA,,,bezirkshauptmannschaften_steiermark_8_19-08-2020,,,bhln@stmk.gv.at,"Phone: +433842455710, Fax: +43384245571550",,,,,,,,,,,,
,,BH Murtal,Bezirkshauptmannschaft Murtal,,,Kapellenweg 11,Judenburg,,8750,Steiermark,AUSTRIA,,,bezirkshauptmannschaften_steiermark_9_19-08-2020,,,bhmt@stmk.gv.at,"Phone: +433572832010, Fax: +43357283201550",,,,,,,,,,,,
,,BH Murau,Bezirkshauptmannschaft Murau,,,Bahnhofviertel 7,Murau,,8850,Steiermark,AUSTRIA,,,bezirkshauptmannschaften_steiermark_10_19-08-2020,,,bhmu@stmk.gv.at,"Phone: +43353221010, Fax: +4335322101550",,,,,,,,,,,,
,,BH Südoststeiermark,Bezirkshauptmannschaft Südoststeiermark,,,Bismarckstraße 11-13,Feldbach,,8330,Steiermark,AUSTRIA,,,bezirkshauptmannschaften_steiermark_11_19-08-2020,,,bhso@stmk.gv.at,"Phone: +43315225110, Fax: +4331522511550",,,,,,,,,,,,
,,BH Voitsberg,Bezirkshauptmannschaft Voitsberg,,,Schillerstraße 10,Voitsberg,,8570,Steiermark,AUSTRIA,,,bezirkshauptmannschaften_steiermark_12_19-08-2020,,,bhvo@stmk.gv.at,"Phone: +433142215200, Fax: +43314221520550",,,,,,,,,,,,
,,BH Weiz,Bezirkshauptmannschaft Weiz,,,Birkfelder Straße 28,Weiz,,8160,Steiermark,AUSTRIA,,,bezirkshauptmannschaften_steiermark_13_19-08-2020,,,bhwz@stmk.gv.at,"Phone: +4331726000, Fax: +433172600550",,,,,,,,,,,,
,,LBS Eibiswald,Landesberufsschule Eibiswald,,,Eibiswald 229,Eibiswald,,8552,Steiermark,AUSTRIA,,,berufsschulen_steiermark_1_25-08-2020,,,lbseibis@stmk.gv.at,"Phone: +433466423350, Fax: +4334664233520",,,,,,,,,,,,
,,LBS Mitterdorf im Mürztal,Landesberufsschule Mitterdorf im Mürztal,,,Untere Berggasse 37,Mitterdorf im Mürztal,,8662,Steiermark,AUSTRIA,,,berufsschulen_steiermark_2_25-08-2020,,,lbsmitter@stmk.gv.at,"Phone: +43385822530, Fax: +43385822534",,,,,,,,,,,,
,,LBS Bad Gleichenberg,Landesberufsschule Bad Gleichenberg,,,Mailandbergstraße 16,Bad Gleichenberg,,8344,Steiermark,AUSTRIA,,,berufsschulen_steiermark_3_25-08-2020,,,lbsgleichenb@stmk.gv.at,"Phone: +43315922110, Fax: +433159221140",,,,,,,,,,,,
,,LBS Feldbach,Landesberufsschule Feldbach,,,Feldgasse 3,Feldbach,,8330,Steiermark,AUSTRIA,,,berufsschulen_steiermark_4_25-08-2020,,,lbsfb@stmk.gv.at,"Phone: +43315240070, Fax: +43315240076",,,,,,,,,,,,
,,LBS Mureck,Landesberufsschule Mureck,,,Hauptplatz 6,Mureck,,8480,Steiermark,AUSTRIA,,,berufsschulen_steiermark_5_25-08-2020,,,lbsmureck@stmk.gv.at,"Phone: +43347223140, Fax: +43347223144",,,,,,,,,,,,
,,LBS Graz 4,Landesberufsschule Graz 4,,,Hans-Brandstetter-Gasse 2,Graz,,8010,Steiermark,AUSTRIA,,,berufsschulen_steiermark_6_25-08-2020,,,lbsgraz4@stmk.gv.at,"Phone: +433164722350, Fax: +433164722357",,,,,,,,,,,,
,,LBS Fürstenfeld,Landesberufsschule Fürstenfeld,,,Gürtelgasse 8,Fürstenfeld,,8280,Steiermark,AUSTRIA,,,berufsschulen_steiermark_7_25-08-2020,,,lbsff@stmk.gv.at,"Phone: +433382522050, Fax: +4333825220522",,,,,,,,,,,,
,,LBS Graz 3,Landesberufsschule Graz 3,,,Hans-Brandstetter-Gasse 8,Graz,,8010,Steiermark,AUSTRIA,,,berufsschulen_steiermark_8_25-08-2020,,,lbsgraz3@stmk.gv.at,"Phone: +433164712440, Fax: +43316471244613",,,,,,,,,,,,
,,LBS Murau,Landesberufsschule Murau,,,Heiligenstatt 10,Murau,,8850,Steiermark,AUSTRIA,,,berufsschulen_steiermark_9_25-08-2020,,,lbsmu@stmk.gv.at,"Phone: +43353223290, Fax: +43353223294",,,,,,,,,,,,
,,LBS Graz 2,Landesberufsschule Graz 2,,,Hans-Brandstetter-Gasse 12,Graz,,8010,Steiermark,AUSTRIA,,,berufsschulen_steiermark_10_25-08-2020,,,lbsgraz2@stmk.gv.at,"Phone: +433164714680, Fax: +43316471468704",,,,,,,,,,,,
,,LBS Graz 1,Landesberufsschule Graz 1,,,Hans-Brandstetter-Gasse 12,Graz,,8010,Steiermark,AUSTRIA,,,berufsschulen_steiermark_11_25-08-2020,,,lbsgraz1@stmk.gv.at,"Phone: +43316471044, Fax: +43316471044804",,,,,,,,,,,,
,,LBS Hartberg,Landesberufsschule Hartberg,,,Franz-Schmidt-Gasse 5,Hartberg,,8230,Steiermark,AUSTRIA,,,berufsschulen_steiermark_12_25-08-2020,,,lbshb1@stmk.gv.at,"Phone: +433332629390, Fax: +433332629394",,,,,,,,,,,,
,,LBS Bad Radkersburg,Landesberufsschule Bad Radkersburg,,,Barthold-Stürgkh-Straße 7,Bad Radkersburg,,8490,Steiermark,AUSTRIA,,,berufsschulen_steiermark_13_25-08-2020,,,lbsra@stmk.gv.at,"Phone: +43347625410, Fax: +433476254178",,,,,,,,,,,,
,,LBS Voitsberg,Landesberufsschule Voitsberg,,,Mozartgasse 14,Voitsberg,,8570,Steiermark,AUSTRIA,,,berufsschulen_steiermark_14_25-08-2020,,,lbsvo@stmk.gv.at,"Phone: +433142223940, Fax: +4331422239418",,,,,,,,,,,,
,,LBS Arnfels,Landesberufsschule Arnfels,,,Hardegger Straße 160,Arnfels,,8454,Steiermark,AUSTRIA,,,berufsschulen_steiermark_15_25-08-2020,,,lbsarnfels@stmk.gv.at,"Phone: +4334552540, Fax: +4334552546",,,,,,,,,,,,
,,LBS Knittelfeld,Landesberufsschule Knittelfeld,,,Portniggstraße 21,Knittelfeld,,8720,Steiermark,AUSTRIA,,,berufsschulen_steiermark_16_25-08-2020,,,lbskf@stmk.gv.at,"Phone: +433512828100, Fax: +433512828103",,,,,,,,,,,,
,,Bildungsdirektion für Steiermark,Bildungsdirektion für Steiermark,,,Körblergasse 23,Graz Postfach,,8011,Steiermark,AUSTRIA,,,steiermark_steiermark_1_19-08-2020,,,bildungsdirektion@bildung-stmk.gv.at,"Phone: +4350248345, Fax: ",,,,,,,,,,,,
,,Landespolizeidirektion Steiermark,Landespolizeidirektion Steiermark,,,Straßganger Straße 280,Graz-Wetzelsdorf,,8052,Steiermark,AUSTRIA,,,steiermark_steiermark_2_19-08-2020,,,LPD-ST@polizei.gv.at,"Phone: +4359133600, Fax: +4359133601009",,,,,,,,,,,,
,,Wirtschaftskammer Steiermark,Wirtschaftskammer Steiermark,,,Körblergasse 111-113,Graz,,8010,Steiermark,AUSTRIA,,,steiermark_steiermark_3_18-08-2020,,,office@wkstmk.at,"Phone: +43316601, Fax: +43316601361",,,,,,,,,,,,
,,Rechtanswaltskammer Steiermark,Rechtanswaltskammer Steiermark,,,Salzamtsgasse 3/IV,Graz,,8010,Steiermark,AUSTRIA,,,steiermark_steiermark_4_18-08-2020,,,office@rakstmk.at,"Phone: +433168302900, Fax: +43316829730",,,,,,,,,,,,
,,Landeszahnärztekammer Steiermark,Landeszahnärztekammer Steiermark,,,Marburger Kai 51/2,Graz,,8010,Steiermark,AUSTRIA,,,steiermark_steiermark_5_18-08-2020,,,office@stmk.zahnaerztekammer.at,"Phone: +43505118060, Fax: +43505118080",,,,,,,,,,,,
,,Notariatskammer für Steiermark,Notariatskammer für Steiermark,,,Wielandgasse 36/III,Graz,,8010,Steiermark,AUSTRIA,,,steiermark_steiermark_6_18-08-2020,,,steiermark@notariatskammer.at,"Phone: +43316825286, Fax: +433168252864",,,,,,,,,,,,
,,Ärztekammer Steiermark,Ärztekammer Steiermark,,,Kaiserfeldgasse 29,Graz,,8010,Steiermark,AUSTRIA,,,steiermark_steiermark_7_18-08-2020,,,aek@aekstmk.or.at,"Phone: +4331680440, Fax: +43316815671",,,,,,,,,,,,
,,Apothekerkammer Steiermark,Apothekerkammer Steiermark,,,Stadionplatz 2,Graz-Liebenau,,8041,Steiermark,AUSTRIA,,,steiermark_steiermark_8_18-08-2020,,,steiermark@apothekerkammer.at,"Phone: +43316475374, Fax: +4331647537422",,,,,,,,,,,,
,,Arbeiterkammer Steiermark,Kammer für Arbeiter und Angestellte für Steiermark,,,Hans-Resel-Gasse 8-14,Graz,,8020,Steiermark,AUSTRIA,,,steiermark_steiermark_9_18-08-2020,,,redaktion@akstmk.at,"Phone: +4357799, Fax: ",,,,,,,,,,,,
,,Kammer der Steuerberater und Wirtschaftsprüfer Steiermark,Kammer der Steuerberater und Wirtschaftsprüfer Steiermark,,,Leechgasse 25,Graz,,8010,Steiermark,AUSTRIA,,,steiermark_steiermark_10_18-08-2020,,,stmk@ksw.or.at,"Phone: +43316830830, Fax: +4331683083040",,,,,,,,,,,,
,,Kammer der ZiviltechnikerInnen für Steiermark und Kärnten,Kammer der ZiviltechnikerInnen für Steiermark und Kärnten,,,Schönaugasse 7/1,Graz,,8010,Steiermark,AUSTRIA,,,steiermark_steiermark_11_18-08-2020,,,office@ztkammer.at,"Phone: +43316826344, Fax: +4331682634425",,,,,,,,,,,,
,,Steiermärkische Landarbeiterkammer,Steiermärkische Landarbeiterkammer,,,Raubergasse 20,Graz,,8010,Steiermark,AUSTRIA,,,steiermark_steiermark_12_20-08-2020,,,office@lak-stmk.at,"Phone: +433168325070, Fax: +4331683250720",,,,,,,,,,,,
,,KFA für die Beamten der Landeshauptstadt Graz,Krankenfürsorgeanstalt für die Beamten der Landeshauptstadt Graz,,,Hauptplatz 1,Graz Postfach,,8011,Steiermark,AUSTRIA,,,steiermark_steiermark_13_20-08-2020,,,kfa@stadt.graz.at,"Phone: +433168725900, Fax: ",,,,,,,,,,,,
,,KUG,Universität für Musik und darstellende Kunst Graz,,,Leonhardstraße 15,Graz,,8010,Steiermark,AUSTRIA,,,steiermark_steiermark_14_23-08-2020,,,info@kug.ac.at,"Phone: +433163890, Fax: +433163891101",,,,,,,,,,,,
,,MedUni Graz,Medizinische Universität Graz,,,Auenbruggerplatz 2,Graz,,8036,Steiermark,AUSTRIA,,,steiermark_steiermark_15_23-08-2020,,,office.datenschutz@medunigraz.at,"Phone: +433163850, Fax: ",,,,,,,,,,,,
,,TU Graz,Technische Universität Graz,,,Rechbauerstraße 12,Graz,,8010,Steiermark,AUSTRIA,,,steiermark_steiermark_16_23-08-2020,,,info@tugraz.at,"Phone: +433168730, Fax: +433168736009",,,,,,,,,,,,
,,KFU,Karl-Franzens-Universität Graz,,,Universitätsplatz 3,Graz,,8010,Steiermark,AUSTRIA,,,steiermark_steiermark_17_23-08-2020,,,info@uni-graz.at,"Phone: +433163800, Fax: +433163809030",,,,,,,,,,,,
,,Uni Leoben,Montanuniversität Leoben,,,Franz-Josef-Straße 18,Leoben,,8700,Steiermark,AUSTRIA,,,steiermark_steiermark_18_23-08-2020,,,office@unileoben.ac.at,"Phone: +4338424027001, Fax: +4338424027012",,,,,,,,,,,,
,,KPH Graz,Kirchliche Pädagogische Hochschule Graz,,,Bischofsplatz 4,Graz,,8010,Steiermark,AUSTRIA,,,steiermark_steiermark_19_24-08-2020,,,schulamt@graz-seckau.at,"Phone: +43316581670, Fax: +4331658167011",,,,,,,,,,,,
,,PH Steiermark,Pädagogische Hochschule Steiermark,,,Hasnerplatz 12,Graz,,8010,Steiermark,AUSTRIA,,,steiermark_steiermark_20_24-08-2020,,,oeffentlichkeit@phst.at,"Phone: +4331680670, Fax: +4331680673199",,,,,,,,,,,,
,,FH Joanneum,FH Joanneum Gesellschaft mbH,,,Alte Poststraße 149,Graz,,8020,Steiermark,AUSTRIA,,,steiermark_steiermark_21_24-08-2020,,,info@fh-joanneum.at,"Phone: +4331654530, Fax: ",,,,,,,,,,,,
,,Magistrat Innsbruck,Stadtmagistrat Innsbruck,,,Maria-Theresien-Straße 18,Innsbruck,,6020,Tirol,AUSTRIA,,,bezirkshauptmannschaften_tirol_1_19-08-2020,,,kontakt@magibk.at,"Phone: +435125360, Fax: +43051253601767",,,,,,,,,,,,
,,BH Imst,Bezirkshauptmannschaft Imst,,,Stadtplatz 1,Imst,,6460,Tirol,AUSTRIA,,,bezirkshauptmannschaften_tirol_2_19-08-2020,,,bh.imst@tirol.gv.at,"Phone: +4354126996, Fax: +43541269965215",,,,,,,,,,,,
,,BH Innsbruck,Bezirkshauptmannschaft Innsbruck,,,Gilmstraße 2,Innsbruck,,6020,Tirol,AUSTRIA,,,bezirkshauptmannschaften_tirol_3_18-08-2020,,,bh.innsbruck@tirol.gv.at,"Phone: +43512508, Fax: +435125085005",,,,,,,,,,,,
,,BH Kitzbühel,Bezirkshauptmannschaft Kitzbühel,,,Hinterstadt 28,Kitzbühel,,6370,Tirol,AUSTRIA,,,bezirkshauptmannschaften_tirol_4_18-08-2020,,,bh.kitzbuehel@tirol.gv.at,"Phone: +435356621310, Fax: +435356621316305",,,,,,,,,,,,
,,BH Kufstein,Bezirkshauptmannschaft Kufstein,,,Bozner Platz 1 – 2,Kufstein,,6332,Tirol,AUSTRIA,,,bezirkshauptmannschaften_tirol_5_18-08-2020,,,bh.kufstein@tirol.gv.at,"Phone: +4353726060, Fax: +4353726066005",,,,,,,,,,,,
,,BH Landeck,Bezirkshauptmannschaft Landeck,,,Innstraße 5,Landeck,,6500,Tirol,AUSTRIA,,,bezirkshauptmannschaften_tirol_6_18-08-2020,,,bh.landeck@tirol.gv.at,"Phone: +43544269960, Fax: +43544269965415",,,,,,,,,,,,
,,BH Reutte,Bezirkshauptmannschaft Reutte,,,Obermarkt 5 - 7,Reutte,,6600,Tirol,AUSTRIA,,,bezirkshauptmannschaften_tirol_7_18-08-2020,,,bh.reutte@tirol.gv.at,"Phone: +43567269960, Fax: +43567269965605",,,,,,,,,,,,
,,BH Schwaz,Bezirkshauptmannschaft Schwaz,,,Franz-Josef-Straße 25,Schwaz,,6130,Tirol,AUSTRIA,,,bezirkshauptmannschaften_tirol_8_18-08-2020,,,bh.schwaz@tirol.gv.at,"Phone: +43524269310, Fax: +43524269315805",,,,,,,,,,,,
,,Bildungsdirektion für Tirol,Bildungsdirektion für Tirol,,,Heiliggeiststraße 7,Innsbruck,,6020,Tirol,AUSTRIA,,,tirol_tirol_1_19-08-2020,,,office@bildung-tirol.gv.at,"Phone: +435129012, Fax: ",,,,,,,,,,,,
,,Landespolizeidirektion Tirol,Landespolizeidirektion Tirol,,,Kaiserjägerstraße 8,Innsbruck,,6020,Tirol,AUSTRIA,,,tirol_tirol_2_19-08-2020,,,LPD-T@polizei.gv.at,"Phone: +4359133700, Fax: ",,,,,,,,,,,,
,,Wirtschaftskammer Tirol,Wirtschaftskammer Tirol,,,Wilhelm-Greil-Straße 7,Innsbruck,,6020,Tirol,AUSTRIA,,,tirol_tirol_3_18-08-2020,,,office@wktirol.at,"Phone: +435909050, Fax: +435909051467",,,,,,,,,,,,
,,Rechtanswaltskammer Tirol,Rechtanswaltskammer Tirol,,,Meraner Straße 3/III,Innsbruck,,6020,Tirol,AUSTRIA,,,tirol_tirol_4_18-08-2020,,,office@tiroler-rak.at,"Phone: +43512587067, Fax: +43512571384",,,,,,,,,,,,
,,Landeszahnärztekammer Tirol,Landeszahnärztekammer Tirol,,,Anichstraße 7/3,Innsbruck,,6020,Tirol,AUSTRIA,,,tirol_tirol_5_18-08-2020,,,office@tiroler.zahnaerztekammer.at,"Phone: +43505116020, Fax: +43505116026",,,,,,,,,,,,
,,Notariatskammer für Tirol und Vorarlberg,Notariatskammer für Tirol und Vorarlberg,,,Maximilianstraße 3,Innsbruck,,6010,Tirol,AUSTRIA,,,tirol_tirol_6_18-08-2020,,,Notariatskammer@nktv.at,"Phone: +43512564141, Fax: +4351256414150",,,,,,,,,,,,
,,Ärztekammer Tirol,Ärztekammer Tirol,,,Anichstraße 7/IV,Innsbruck,,6020,Tirol,AUSTRIA,,,tirol_tirol_7_18-08-2020,,,kammer@aektirol.at,"Phone: +43512520580, Fax: +4351252058130",,,,,,,,,,,,
,,Apothekerkammer Tirol,Apothekerkammer Tirol,,,Sparkassenplatz 3,Innsbruck,,6020,Tirol,AUSTRIA,,,tirol_tirol_8_18-08-2020,,,tirol@apothekerkammer.at,"Phone: +435125870730, Fax: +435125870733",,,,,,,,,,,,
,,Arbeiterkammer Tirol,Kammer für Arbeiter und Angestellte für Tirol,,,Maximilianstraße 7,Innsbruck,,6020,Tirol,AUSTRIA,,,tirol_tirol_9_18-08-2020,,,innsbruck@ak-tirol.com,"Phone: +435125340, Fax: +4351253401208",,,,,,,,,,,,
,,Kammer der Steuerberater und Wirtschaftsprüfer Tirol,Kammer der Steuerberater und Wirtschaftsprüfer Tirol,,,Museumstraße 34/6. Stock,Innsbruck,,6020,Tirol,AUSTRIA,,,tirol_tirol_10_18-08-2020,,,tirol@ksw.or.at,"Phone: +43512589012, Fax: +4351258901210",,,,,,,,,,,,
,,Kammer der ZiviltechnikerInnen für Tirol und Vorarlberg,Kammer der ZiviltechnikerInnen für Tirol und Vorarlberg,,,Rennweg 1,Innsbruck,,6020,Tirol,AUSTRIA,,,tirol_tirol_11_18-08-2020,,,arch.ing.office@kammerwest.at,"Phone: +43512588335, Fax: +435125883356",,,,,,,,,,,,
,,Landarbeiterkammer Tirol,Landarbeiterkammer Tirol,,,Neugasteig 18,Neustift im Stubaital,,6167,Tirol,AUSTRIA,,,tirol_tirol_12_18-08-2020,,,andreas.gleirscher@lkv-tirol.at,"Phone: +436648398910, Fax: +43592923099",,,,,,,,,,,,
,,KFA der Tiroler Landesbeamten einschließlich der LandeslehrerInnen,Kranken- und Unfallfürsorge der Tiroler Landesbeamten einschließlich der LandeslehrerInnen,,,Wilhelm-Greil-Straße 17/II,Innsbruck,,6020,Tirol,AUSTRIA,,,tirol_tirol_14_20-08-2020,,,kuf@tirol.gv.at,"Phone: +435125082152, Fax: +43512508742155",,,,,,,,,,,,
,,Medizinische Universität Innsbruck,Medizinische Universität Innsbruck,,,"Christoph Probst Platz 1, Innrain 52",Innsbruck,,6020,Tirol,AUSTRIA,,,tirol_tirol_16_23-08-2020,,,i-master@i-med.ac.at,"Phone: +4351290030, Fax: ",,,,,,,,,,,,
,,UIBK,Leopold-Franzens-Universität Innsbruck,,,Innrain 52,Innsbruck,,6020,Tirol,AUSTRIA,,,tirol_tirol_17_23-08-2020,,,datenschutzbeauftragter@uibk.ac.at,"Phone: +435125070, Fax: ",,,,,,,,,,,,
,,UMIT Tirol,"UMIT Private Universität für Gesundheitswissenschaften, Medizinische Informatik und Technik GmbH",,,Eduard-Wallnöfer-Zentrum 1,Hall in Tirol,,6060,Tirol,AUSTRIA,,,tirol_tirol_18_24-08-2020,,,rektorat@umit.at,"Phone: +435086483000, Fax: +43508648673001",,,,,,,,,,,,
,,FH Gesundheit Tirol,fhg - Zentrum für Gesundheitsberufe Tirol GmbH,,,Innrain 98,Innsbruck,,6020,Tirol,AUSTRIA,,,tirol_tirol_19_24-08-2020,,,info@fhg-tirol.ac.at,"Phone: +4351253220, Fax: +43512532275200",,,,,,,,,,,,
,,MCI,MCI Management Center Innsbruck Internationale Hochschule GmbH,,,Universitätsstraße 15,Innsbruck,,6020,Tirol,AUSTRIA,,,tirol_tirol_20_24-08-2020,,,office@mci.edu,"Phone: +4351220700, Fax: +4351220701099",,,,,,,,,,,,
,,PH Tirol,Pädagogische Hochschule Tirol,,,Eduard-Bodem-Gasse 1 / 3. OG,Innsbruck,,6020,Tirol,AUSTRIA,,,tirol_tirol_21_24-08-2020,,,office@ph-tirol.ac.at,"Phone: +4351259923, Fax: ",,,,,,,,,,,,
,,KPH Edith Stein,Kirchliche Pädagogische Hochschule Edith Stein,,,Riedgasse 11,Innsbruck,,6020,Tirol,AUSTRIA,,,tirol_tirol_22_24-08-2020,,,info@kph-es.at,"Phone: +4351222305601, Fax: ",,,,,,,,,,,,
,,FH Kufstein,Fachhochschule Kufstein Tirol Bildungs GmbH,,,Andreas Hofer-Straße 7,Kufstein,,6330,Tirol,AUSTRIA,,,tirol_tirol_23_24-08-2020,,,info@fh-kufstein.ac.at,"Phone: +43537271819, Fax: ‘+43537271819104",,,,,,,,,,,,
,,BH Bludenz,Bezirkshauptmannschaft Bludenz,,,Schloss-Gayenhofplatz 2,Bludenz,,6700,Vorarlberg,AUSTRIA,,,bezirkshauptmannschaften_vorarlberg_1_25-08-2020,,,bhbludenz@vorarlberg.at,"Phone: +43555261360, Fax: +435574511951095",,,,,,,,,,,,
,,BH Bregenz,Bezirkshauptmannschaft Bregenz,,,Bahnhofstraße 41,Bregenz Postfach,,6901,Vorarlberg,AUSTRIA,,,bezirkshauptmannschaften_vorarlberg_2_25-08-2020,,,bhbregenz@vorarlberg.at,"Phone: +43557449510, Fax: +435574511952095",,,,,,,,,,,,
,,BH Dornbirn,Bezirkshauptmannschaft Dornbirn,,,Klaudiastraße 2,Dornbirn,,6850,Vorarlberg,AUSTRIA,,,bezirkshauptmannschaften_vorarlberg_3_25-08-2020,,,bhdornbirn@vorarlberg.at,"Phone: +4355723080, Fax: +435574511953095",,,,,,,,,,,,
,,BH Feldkirch,Bezirkshauptmannschaft Feldkirch,,,Schloßgraben 1,Feldkirch,,6800,Vorarlberg,AUSTRIA,,,bezirkshauptmannschaften_vorarlberg_4_25-08-2020,,,bhfeldkirch@vorarlberg.at,"Phone: +43552235910, Fax: +435574511954095",,,,,,,,,,,,
,,Bildungsdirektion für Vorarlberg,Bildungsdirektion für Vorarlberg,,,Bahnhofstraße 12,Bregenz,,6900,Vorarlberg,AUSTRIA,,,vorarlberg_vorarlberg_1_19-08-2020,,,office@bildung-vbg.gv.at,"Phone: +43557449600, Fax: +4355744960408",,,,,,,,,,,,
,,Amt der Vorarlberger Landesregierung,Amt der Vorarlberger Landesregierung,,,Römerstraße 15,Bregenz Postfach,,6901,Vorarlberg,AUSTRIA,,,vorarlberg_vorarlberg_2_19-08-2020,,,land@vorarlberg.at,"Phone: +4355745110, Fax: +435574511920095",,,,,,,,,,,,
,,Landespolizeidirektion Vorarlberg,Amt der Vorarlberger Landesregierung,,,Bahnhofstraße 45,Bregenz,,6900,Vorarlberg,AUSTRIA,,,vorarlberg_vorarlberg_3_19-08-2020,,,LPD-V@polizei.gv.at,"Phone: +4359133800, Fax: +4359133801009",,,,,,,,,,,,
,,Wirtschaftskammer Vorarlberg,Wirtschaftskammer Vorarlberg,,,Wichnergasse 9,Feldkirch,,6800,Vorarlberg,AUSTRIA,,,vorarlberg_vorarlberg_4_18-08-2020,,,info@wkv.at,"Phone: +435522305, Fax: +435522305100",,,,,,,,,,,,
,,Rechtanswaltskammer Vorarlberg,Rechtanswaltskammer Vorarlberg,,,Marktplatz 11,Feldkirch,,6800,Vorarlberg,AUSTRIA,,,vorarlberg_vorarlberg_5_18-08-2020,,,kammer@rechtsanwaelte-vorarlberg.at,"Phone: +43552271122, Fax: +4355227112211",,,,,,,,,,,,
,,Landeszahnärztekammer Vorarlberg,Landeszahnärztekammer Vorarlberg,,,Rösslepark 1,Feldkirch,,6800,Vorarlberg,AUSTRIA,,,vorarlberg_vorarlberg_6_18-08-2020,,,office@vlbg.zahnaerztekammer.at,"Phone: +43505116800, Fax: +43505116804",,,,,,,,,,,,
,,Notariatskammer für Tirol und Vorarlberg,Notariatskammer für Tirol und Vorarlberg,,,Maximilianstraße 3,Innsbruck,,6010,Tirol,AUSTRIA,,,vorarlberg_vorarlberg_7_18-08-2020,,,Notariatskammer@nktv.at,"Phone: +43512564141, Fax: +4351256414150",,,,,,,,,,,,
,,Ärztekammer Vorarlberg,Ärztekammer Vorarlberg,,,Schulgasse 17,Dornbirn,,6850,Vorarlberg,AUSTRIA,,,vorarlberg_vorarlberg_8_18-08-2020,,,aek@aekvbg.at,"Phone: +43557221900, Fax: +4355722190043",,,,,,,,,,,,
,,Apothekerkammer Vorarlberg,Apothekerkammer Vorarlberg,,,Bergstraße 8,Bregenz,,6900,Vorarlberg,AUSTRIA,,,vorarlberg_vorarlberg_9_18-08-2020,,,vorarlberg@apothekerkammer.at,"Phone: +43557443038, Fax: +4314028602956",,,,,,,,,,,,
,,Arbeiterkammer Vorarlberg,Kammer für Arbeiter und Angestellte für Vorarlberg,,,Widnau 2-4,Feldkirch,,6800,Vorarlberg,AUSTRIA,,,vorarlberg_vorarlberg_10_18-08-2020,,,mailbox@ak-vorarlberg.at,"Phone: +43502580, Fax: ",,,,,,,,,,,,
,,Kammer der Steuerberater und Wirtschaftsprüfer Vorarlberg,Kammer der Steuerberater und Wirtschaftsprüfer Vorarlberg,,,Schillerstraße 22,Lustenau,,6890,Vorarlberg,AUSTRIA,,,vorarlberg_vorarlberg_11_18-08-2020,,,vorarlberg@ksw.or.at,"Phone: +4355778262810, Fax: +4355778262813",,,,,,,,,,,,
,,Kammer der ZiviltechnikerInnen für Tirol und Vorarlberg,Kammer der ZiviltechnikerInnen für Tirol und Vorarlberg,,,Rennweg 1,Innsbruck,,6020,Tirol,AUSTRIA,,,vorarlberg_vorarlberg_12_18-08-2020,,,arch.ing.office@kammerwest.at,"Phone: +43512588335, Fax: +435125883356",,,,,,,,,,,,
,,Landarbeiterkammer Vorarlberg,Landarbeiterkammer Vorarlberg,,,Montfortstraße 9,Bregenz,,6900,Vorarlberg,AUSTRIA,,,vorarlberg_vorarlberg_13_18-08-2020,,,dienstnehmer@lk-vbg.at,"Phone: +435574400770, Fax: +435574400600",,,,,,,,,,,,
,,FH Vorarlberg,Fachhochschule Vorarlberg GmbH,,,Hochschulstraße 1,Dornbirn,,6850,Vorarlberg,AUSTRIA,,,vorarlberg_vorarlberg_14_24-08-2020,,,info@fhv.at,"Phone: +435572792, Fax: +4355727929500",,,,,,,,,,,,
,,PH Vorarlberg,Pädagogische Hochschule Vorarlberg,,,Liechtensteinerstraße 33-37,Feldkirch,,6800,Vorarlberg,AUSTRIA,,,vorarlberg_vorarlberg_15_24-08-2020,,,office@ph-vorarlberg.ac.at,"Phone: +43552231199500, Fax: +43552231199550",,,,,,,,,,,,
,,Berufsschule der SPAR AG,Berufsschule der SPAR österreichische Warenhandels-AG - Private Spar Akademie Wien,,,Hietzinger Hauptstraße 17,Wien,,1130,Wien,AUSTRIA,,,berufsschulen_wien_1_25-08-2020,,,spar.akademie@spar.at,"Phone: +43187712565, Fax: ",,,,,,,,,,,,
,,Berufsschule für Baugewerbe,Berufsschule für Baugewerbe,,,Wagramer Straße 65,Wien,,1220,Wien,AUSTRIA,,,berufsschulen_wien_2_25-08-2020,,,office.922015@schule.wien.gv.at,"Phone: +4315991696070, Fax: +4315991696080",,,,,,,,,,,,
,,Berufsschule für Bürokaufleute,Berufsschule für Bürokaufleute,,,Meiselstraße 19,Wien,,1150,Wien,AUSTRIA,,,berufsschulen_wien_3_25-08-2020,,,office@bsbk.at,"Phone: +4315991696011, Fax: +431599169996010",,,,,,,,,,,,
,,"Berufsschule für Chemie, Grafik und gestaltende Berufe","Berufsschule für Chemie, Grafik und gestaltende Berufe",,,Hütteldorfer Straße 7-17,Wien,,1150,Wien,AUSTRIA,,,berufsschulen_wien_4_25-08-2020,,,kontakt@cgg.at,"Phone: +4315991695212, Fax: +431599169995211",,,,,,,,,,,,
,,Berufsschule für Einzelhandel,Berufsschule für Einzelhandel,,,Amalienstraße 31-33,Wien,,1130,Wien,AUSTRIA,,,berufsschulen_wien_5_25-08-2020,,,office.913025@schule.wien.gv.at,"Phone: +4315991695041, Fax: +431599169995049",,,,,,,,,,,,
,,"Berufsschule für Elektro-, Veranstaltungs- und Informationstechnik Austria","Berufsschule für Elektro-, Veranstaltungs- und Informationstechnik Austria",,,Mollardgasse 87,Wien,,1060,Wien,AUSTRIA,,,berufsschulen_wien_6_25-08-2020,,,office@bsevita.at,"Phone: +4315991695630, Fax: +431599167256",,,,,,,,,,,,
,,Berufsschule für Elektrotechnik und Mechatronik,Berufsschule für Elektrotechnik und Mechatronik,,,Mollardgasse 87,Wien,,1060,Wien,AUSTRIA,,,berufsschulen_wien_7_25-08-2020,,,office.906065@schule.wien.gv.at,"Phone: +4315991695660, Fax: +431599169995660",,,,,,,,,,,,
,,Berufsschule für Fahrzeugtechnik,Berufsschule für Fahrzeugtechnik,,,Scheydgasse 40,Wien,,1210,Wien,AUSTRIA,,,berufsschulen_wien_8_25-08-2020,,,office.921015@schule.wien.gv.at,"Phone: +4315991695735, Fax: +431599169995735",,,,,,,,,,,,
,,Berufsschule für Gartenbau und Floristik,Berufsschule für Gartenbau und Floristik,,,Donizettiweg 31,Wien,,1220,Wien,AUSTRIA,,,berufsschulen_wien_9_25-08-2020,,,office.922025@schule.wien.gv.at,"Phone: +4315991695860, Fax: +431599169995860",,,,,,,,,,,,
,,Berufsschule für Gastgewerbe,Berufsschule für Gastgewerbe,,,Längenfeldgasse 13-15,Wien,,1120,Wien,AUSTRIA,,,berufsschulen_wien_10_25-08-2020,,,office.912045@schule.wien.gv.at,"Phone: +4315991695353, Fax: +431599167956",,,,,,,,,,,,
,,Berufsschule für Handel und Reisen,Berufsschule für Handel und Reisen,,,Hütteldorfer Straße 7-17,Wien,,1150,Wien,AUSTRIA,,,berufsschulen_wien_11_25-08-2020,,,office.915075@schule.wien.gv.at,"Phone: +4315991695222, Fax: +431599169995222",,,,,,,,,,,,
,,"Berufsschule für Holz, Klang, Farbe und Lack","Berufsschule für Holz, Klang, Farbe und Lack",,,Hütteldorfer Straße 7-17,Wien,,1150,Wien,AUSTRIA,,,berufsschulen_wien_12_25-08-2020,,,office.915045@schule.wien.gv.at,"Phone: +4315991695262, Fax: +431599169995261",,,,,,,,,,,,
,,"Berufsschule für Industrie, Finanzen und Transport","Berufsschule für Industrie, Finanzen und Transport",,,Längenfeldgasse 13-15,Wien,,1120,Wien,AUSTRIA,,,berufsschulen_wien_13_25-08-2020,,,office.912065@schule.wien.gv.at,"Phone: +4315991695360, Fax: +431599169995360",,,,,,,,,,,,
,,"Berufsschule für Lebensmittel, Touristik und Zahntechnik","Berufsschule für Lebensmittel, Touristik und Zahntechnik",,,Längenfeldgasse 13-15,Wien,,1120,Wien,AUSTRIA,,,berufsschulen_wien_14_25-08-2020,,,direktion@bsltz.at,"Phone: +4315991695341, Fax: +431599169995340",,,,,,,,,,,,
,,"Berufsschule für Maschinen-, Fertigungstechnik und Elektronik","Berufsschule für Maschinen-, Fertigungstechnik und Elektronik",,,Apollogasse 1,Wien,,1070,Wien,AUSTRIA,,,berufsschulen_wien_15_25-08-2020,,,office@bs-mfe.at,"Phone: +4315991695561, Fax: +431599169995561",,,,,,,,,,,,
,,"Berufsschule für Metalltechnik, Glasbautechnik und Technische Zeichner","Berufsschule für Metalltechnik, Glasbautechnik und Technische Zeichner",,,Mollardgasse 87,Wien,,1060,Wien,AUSTRIA,,,berufsschulen_wien_16_25-08-2020,,,office.906125@schule.wien.gv.at,"Phone: +4315991695620, Fax: +431599169995620",,,,,,,,,,,,
,,Berufsschule für Reinigungstechnik,Berufsschule für Reinigungstechnik der Gebäudereinigungsakademie der Wiener Gebäudereiniger SchulungsGmbH,,,"Eduard-Kittenberger-Gasse 56, Objekt 8/1+1A",Wien,,1230,Wien,AUSTRIA,,,berufsschulen_wien_17_25-08-2020,,,office@grag.at,"Phone: +4318655505, Fax: ",,,,,,,,,,,,
,,"Berufsschule für Sanitär-, Heizungs- und Klimatechnik","Berufsschule für Sanitär-, Heizungs- und Klimatechnik",,,Mollardgasse 87,Wien,,1060,Wien,AUSTRIA,,,berufsschulen_wien_18_25-08-2020,,,direktion@sht-wien.com,"Phone: +4315991695670, Fax: +431599169995670",,,,,,,,,,,,
,,Berufsschule für Schönheitsberufe,Berufsschule für Schönheitsberufe,,,Goldschlagstraße 137,Wien,,1140,Wien,AUSTRIA,,,berufsschulen_wien_19_25-08-2020,,,office.914015@schule.wien.gv.at,"Phone: +4315991695805, Fax: +431599169995800",,,,,,,,,,,,
,,Berufsschule für Verwaltungsberufe,Berufsschule für Verwaltungsberufe,,,Embelgasse 46,Wien,,1050,Wien,AUSTRIA,,,berufsschulen_wien_20_25-08-2020,,,christian.sevcik@bildung-wien.gv.at,"Phone: +4315991695931, Fax: +431599169995935",,,,,,,,,,,,
,,Obdach Wien,Obdach Wien gemeinnützige GmbH,,,Guglgasse 7-9,Wien,,1030,Wien,AUSTRIA,,,wien_wien_1_19-08-2020,,,obdach.wien@fsw.at,"Phone: +4350537940010, Fax: ",,,,,,,,,,,,
,,AWZ Soziales Wien,AWZ Soziales Wien GmbH,,,Schlachthausgasse 37,Wien,,1030,Wien,AUSTRIA,,,wien_wien_2_19-08-2020,,,office@awz-wien.at,"Phone: +4350537970140, Fax: ",,,,,,,,,,,,
,,Fonds Soziales Wien,Fonds Soziales Wien,,,Guglgasse 7-9,Wien,,1030,Wien,AUSTRIA,,,wien_wien_3_19-08-2020,,,post@fsw.at,"Phone: +43505379, Fax: +435053798910099",,,,,,,,,,,,
,,FSW - Wiener Pflege- und Betreuungsdienste,FSW - Wiener Pflege- und Betreuungsdienste GmbH - Mobile Hauskrankenpflege - Fonds Soziales Wien (FSW),,,Guglgasse 7-9 / Stiege A / 2. Stock,Wien,,1030,Wien,AUSTRIA,,,wien_wien_4_19-08-2020,,,mob.hkp.ak@fsw.at,"Phone: +4312452430300, Fax: ",,,,,,,,,,,,
,,Sucht- und Drogenkoordination Wien,Sucht- und Drogenkoordination Wien gemeinnützige GmbH,,,Modecenterstraße 14/A/2,Wien,,1030,Wien,AUSTRIA,,,wien_wien_5_19-08-2020,,,office@sd-wien.at,"Phone: +431400087375, Fax: +431400087340",,,,,,,,,,,,
,,Suchthilfe Wien,Suchthilfe Wien gemeinnützige GmbH,,,Gumpendorfer Gürtel 8,Wien,,1080,Wien,AUSTRIA,,,wien_wien_6_19-08-2020,,,office@suchthilfe.at,"Phone: +431400053600, Fax: +431400053699",,,,,,,,,,,,
,,Vereinigte Bühnen Wien,Vereinigte Bühnen Wien Ges.m.b.H.,,,Linke Wienzeile 6,Wien,,1060,Wien,AUSTRIA,,,wien_wien_7_19-08-2020,,,info@vbw.at,"Phone: +431588301010, Fax: +43158830991010",,,,,,,,,,,,
,,Wiener Gesundheitsfonds,Wiener Gesundheitsfonds,,,Brigittenauer Lände 50-54,Wien,,1200,Wien,AUSTRIA,,,wien_wien_8_19-08-2020,,,wiener.gesundheitsfonds@wien.gv.at,"Phone: +431400084200, Fax: +43140009984200",,,,,,,,,,,,
,,Wiener Gesundheitsförderung,Wiener Gesundheitsförderung gemeinnützige GmbH,,,Treustraße 35 – 43,Wien,,1200,Wien,AUSTRIA,,,wien_wien_9_19-08-2020,,,office@wig.or.at,"Phone: +431400076905, Fax: +4340009976905",,,,,,,,,,,,
,,Wiener Gesundheitsverbund,Stadt Wien – Wiener Gesundheitsverbund,,,Thomas-Klestil-Platz 7/1,Wien,,1030,Wien,AUSTRIA,,,wien_wien_10_19-08-2020,,,journaldienst@gesundheitsverbund.at,"Phone: +431404090, Fax: +431404099967480",,,,,,,,,,,,
,,Wirtschaftsagentur Wien,Wirtschaftsagentur Wien. Ein Fonds der Stadt Wien.,,,Mariahilfer Straße 20,Wien,,1070,Wien,AUSTRIA,,,wien_wien_11_19-08-2020,,,info@wirtschaftsagentur.at,"Phone: +43125200, Fax: +43125200153",,,,,,,,,,,,
,,Bestattung Wien,Bestattung Wien GmbH,,,Simmeringer Hauptstrasse 339,Wien,,1110,Wien,AUSTRIA,,,wien_wien_12_19-08-2020,,,office@bestattungwien.at,"Phone: +431501950, Fax: +4315019528509",,,,,,,,,,,,
,,Friedhöfe Wien,Friedhöfe Wien GmbH,,,Simmeringer Hauptstrasse 339,Wien,,1110,Wien,AUSTRIA,,,wien_wien_13_19-08-2020,,,post@friedhoefewien.at,"Phone: +431534690, Fax: ",,,,,,,,,,,,
,,Wiener Wohnen,Stadt Wien - Wiener Wohnen,,,Rosa-Fischer-Gasse 2,Wien,,1030,Wien,AUSTRIA,,,wien_wien_14_19-08-2020,,,post@wrw.wien.gv.at,"Phone: +435757575, Fax: ",,,,,,,,,,,,
,,Wien Kanal,Wien Kanal (WKN),,,"Modecenterstraße 14, Block C",Wien,,1030,Wien,AUSTRIA,,,wien_wien_15_19-08-2020,,,post@wkn.wien.gv.at,"Phone: +43140008030, Fax: ",,,,,,,,,,,,
,,W24,WH Media GmbH,,,Renngasse 5 / Top 4,Wien,,1010,Wien,AUSTRIA,,,wien_wien_16_19-08-2020,,,office@w24.at,"Phone: +4313683424, Fax: ",,,,,,,,,,,,
,,Wien Energie,Wien Energie GmbH,,,Thomas-Klestil-Platz 14,Wien,,1030,Wien,AUSTRIA,,,wien_wien_17_19-08-2020,,,office@wienenergie.at,"Phone: +43140040, Fax: ",,,,,,,,,,,,
,,Wien Holding,Wien Holding GmbH,,,Universitätsstraße 11,Wien,,1010,Wien,AUSTRIA,,,wien_wien_18_19-08-2020,,,office@wienholding.at,"Phone: +43140825690, Fax: +431408256937",,,,,,,,,,,,
,,Wiener Stadtwerke,WIENER STADTWERKE GMBH,,,Thomas-Klestil-Platz 13,Wien,,1030,Wien,AUSTRIA,,,wien_wien_19_19-08-2020,,,contact@wienerstadtwerke.at,"Phone: +431531230, Fax: ",,,,,,,,,,,,
,,WienIT,WienIT EDV Dienstleistungsgesellschaft mbH & Co KG,,,Thomas-Klestil-Platz 13,Wien,,1030,Wien,AUSTRIA,,,wien_wien_20_19-08-2020,,,office@wienit.at,"Phone: +435904050, Fax: ",,,,,,,,,,,,
,,WIPARK,WIPARK Garagen GmbH,,,Thomas-Klestil-Platz 13,Wien,,1030,Wien,AUSTRIA,,,wien_wien_21_19-08-2020,,,office@wipark.at,"Phone: +4316003022, Fax: +431600302248199",,,,,,,,,,,,
,,Bildungsdirektion für Wien,Bildungsdirektion für Wien,,,Wipplingerstraße 28,Wien,,1010,Wien,AUSTRIA,,,wien_wien_22_19-08-2020,,,office@ssr-wien.gv.at,"Phone: +431525250, Fax: ",,,,,,,,,,,,
,,Landespolizeidirektion Wien,Landespolizeidirektion Wien,,,Schottenring 7-9,Wien,,1010,Wien,AUSTRIA,,,wien_wien_23_19-08-2020,,,LPD-W@polizei.gv.at,"Phone: +431313100, Fax: +4313131072119",,,,,,,,,,,,
,,AKH Wien,Allgemeines Krankenhaus der Stadt Wien,,,Währinger Gürtel 18-20,Wien,,1090,Wien,AUSTRIA,,,wien_wien_24_19-08-2020,,,postakhint@akhwien.at,"Phone: +431404000, Fax: +4314040912120",,,,,,,,,,,,
,,Klinik Landstraße,Klinik Landstraße,,,Juchgasse 25,Wien,,1030,Wien,AUSTRIA,,,wien_wien_25_19-08-2020,,,kla.post@gesundheitsverbund.at,"Phone: +43171165, Fax: +431711651009",,,,,,,,,,,,
,,Klinik Hietzing,Klinik Hietzing,,,Wolkersbergenstraße 1,Wien,,1130,Wien,AUSTRIA,,,wien_wien_26_19-08-2020,,,journaldienst@gesundheitsverbund.at,"Phone: +431801100, Fax: ",,,,,,,,,,,,
,,Klinik Penzing,Klinik Penzing,,,Baumgartner Höhe 1,Wien,,1140,Wien,AUSTRIA,,,wien_wien_27_19-08-2020,,,kpe@gesundheitsverbund.at,"Phone: +431910600, Fax: +4319106011309",,,,,,,,,,,,
,,SMZ Floridsdorf,Sozialmedizinisches Zentrum Floridsdorf,,,Bentheimstraße 5,Wien,,1210,Wien,AUSTRIA,,,wien_wien_28_19-08-2020,,,post.gzf@wienkav.at,"Phone: +43127522, Fax: +431275228009",,,,,,,,,,,,
,,Klinik Donaustadt,Klinik Donaustadt,,,Langobardenstraße 122,Wien,,1220,Wien,AUSTRIA,,,wien_wien_29_19-08-2020,,,journaldienst@gesundheitsverbund.at,"Phone: +431288020, Fax: +431288022050",,,,,,,,,,,,
,,Klinik Favoriten,Klinik Favoriten,,,Kundratstraße 3,Wien,,1100,Wien,AUSTRIA,,,wien_wien_30_19-08-2020,,,journaldienst@gesundheitsverbund.at,"Phone: +431601910, Fax: ",,,,,,,,,,,,
,,Therapiezentrum Ybbs,Therapiezentrum Ybbs,,,Persenbeugerstraße 1-3,Ybbs an der Donau,,3370,Niederösterreich,AUSTRIA,,,wien_wien_31_19-08-2020,,,journaldienst@gesundheitsverbund.at,"Phone: +437412551000, Fax: ",,,,,,,,,,,,
,,Wilhelminenspital,Wilhelminenspital,,,Montleartstraße 37,Wien,,1160,Wien,AUSTRIA,,,wien_wien_32_19-08-2020,,,journaldienst@gesundheitsverbund.at,"Phone: +431491500, Fax: ",,,,,,,,,,,,
,,Wirtschaftskammer Wien,Wirtschaftskammer Wien,,,Straße der Wiener Wirtschaft 1,Wien,,1020,Wien,AUSTRIA,,,wien_wien_33_19-08-2020,,,info@wkw.at,"Phone: +431514500, Fax: ",,,,,,,,,,,,
,,Rechtanswaltskammer Wien,Rechtanswaltskammer Wien,,,Ertlgasse 2,Wien,,1010,Wien,AUSTRIA,,,wien_wien_34_18-08-2020,,,kanzlei@rakwien.at,"Phone: +43153327180, Fax: +431533271844",,,,,,,,,,,,
,,Landeszahnärztekammer Wien,Landeszahnärztekammer Wien,,,Kohlmarkt 11/6,Wien,,1010,Wien,AUSTRIA,,,wien_wien_35_18-08-2020,,,office@wr.zahnaerztekammer.at,"Phone: +43505111000, Fax: +43505111014",,,,,,,,,,,,
,,"Notariatskammer für Wien, Niederösterreich und Burgenland","Notariatskammer für Wien, Niederösterreich und Burgenland ",,,Landesgerichtsstraße 20,Wien,,1010,Wien,AUSTRIA,,,wien_wien_36_18-08-2020,,,kammer-wnb@notar.or.at,"Phone: +43140245090, Fax: +4314063475",,,,,,,,,,,,
,,Ärztekammer Wien,Ärztekammer Wien,,,Weihburggasse 10-12,Wien,,1010,Wien,AUSTRIA,,,wien_wien_37_18-08-2020,,,aekwien@aekwien.at,"Phone: +431515010, Fax: +431515011209",,,,,,,,,,,,
,,Apothekerkammer Wien,Apothekerkammer Wien,,,Spitalgasse 31,Wien Postfach,,1091,Wien,AUSTRIA,,,wien_wien_38_18-08-2020,,,wien@apothekerkammer.at,"Phone: +43140414152, Fax: +4314088283",,,,,,,,,,,,
,,Arbeiterkammer Wien,Kammer für Arbeiter und Angestellte für Wien,,,Prinz-Eugen-Straße 20-22,Wien,,1040,Wien,AUSTRIA,,,wien_wien_39_18-08-2020,,,akmailbox@akwien.at,"Phone: +431501650, Fax: ",,,,,,,,,,,,
,,Kammer der Steuerberater und Wirtschaftsprüfer Wien,Kammer der Steuerberater und Wirtschaftsprüfer Wien,,,Schönbrunnerstraße 222-228/1/6/2,Wien,,1120,Wien,AUSTRIA,,,wien_wien_40_18-08-2020,,,office@ksw.or.at,"Phone: +431811730, Fax: +43181173100",,,,,,,,,,,,
,,"Kammer der ZiviltechnikerInnen für Wien, Niederösterreich und Burgenland","Kammer der ZiviltechnikerInnen für Wien, Niederösterreich und Burgenland",,,Karlsgasse 9/1,Wien,,1040,Wien,AUSTRIA,,,wien_wien_41_18-08-2020,,,kammer@arching.at,"Phone: +4315051781, Fax: +4315051005",,,,,,,,,,,,
,,Klinik Floridsdorf,Klinik Floridsdorf,,,Brünner Straße 68,Wien,,1210,Wien,AUSTRIA,,,wien_wien_42_20-08-2020,,,journaldienst@gesundheitsverbund.at,"Phone: +431277000, Fax: ",,,,,,,,,,,,
,,KFA der Bediensteten der Stadt Wien,Krankenfürsorgeanstalt der Bediensteten der Stadt Wien,,,Schlesingerplatz 5,Wien Postfach,,1081,Wien,AUSTRIA,,,wien_wien_43_20-08-2020,,,generaldirektion@kfa.co.at,"Phone: +431404360, Fax: +43140436099",,,,,,,,,,,,
,,VHS Großfeldsiedlung,Volkshochschule Großfeldsiedlung,,,Kürschnergasse 9,Wien,,1210,Wien,AUSTRIA,,,volkshochschulen_wien_1_25-08-2020,,,grossfeldsiedlung@vhs.at,"Phone: +43189174121005, Fax: ",,,,,,,,,,,,
,,VHS Floridsdorf Pitkagasse,Volkshochschule Floridsdorf Pitkagasse,,,Pitkagasse 3,Wien,,1210,Wien,AUSTRIA,,,volkshochschulen_wien_2_25-08-2020,,,pitkagasse@vhs.at,"Phone: +43189174121001, Fax: ",,,,,,,,,,,,
,,VHS Donaustadt,Volkshochschule Donaustadt,,,Bernoullistraße 1,Wien,,1220,Wien,AUSTRIA,,,volkshochschulen_wien_3_25-08-2020,,,donaustadt@vhs.at,"Phone: +43189174122000, Fax: ",,,,,,,,,,,,
,,VHS Eibengasse,Volkshochschule Eibengasse,,,Eibengasse 57,Wien,,1220,Wien,AUSTRIA,,,volkshochschulen_wien_4_25-08-2020,,,eibengasse@vhs.at,"Phone: +43189174122001, Fax: ",,,,,,,,,,,,
,,VHS Liesing,Volkshochschule Liesing,,,Liesinger Platz 2,Wien,,1230,Wien,AUSTRIA,,,volkshochschulen_wien_5_25-08-2020,,,liesing@vhs.at,"Phone: +43189174123000, Fax: ",,,,,,,,,,,,
,,VHS Erlaa,Volkshochschule Erlaa,,,Putzendoplergasse 4,Wien,,1230,Wien,AUSTRIA,,,volkshochschulen_wien_6_25-08-2020,,,erlaa@vhs.at,"Phone: +43189174123002, Fax: ",,,,,,,,,,,,
,,VHS BG Alt-Erlaa,Volkshochschule BG Alt-Erlaa,,,Anton-Baumgartner-Straße 123,Wien,,1230,Wien,AUSTRIA,,,volkshochschulen_wien_7_25-08-2020,,,markus.rauscher@vhs.at,"Phone: +43189174123003, Fax: ",,,,,,,,,,,,
,,VHS Mauer,Volkshochschule Mauer,,,Speisingerstraße 256,Wien,,1230,Wien,AUSTRIA,,,volkshochschulen_wien_8_25-08-2020,,,mauer@vhs.at,"Phone: +43189174123001, Fax: ",,,,,,,,,,,,
,,Urania Sternwarte,Urania Sternwarte,,,Uraniastraße 1,Wien,,1010,Wien,AUSTRIA,,,volkshochschulen_wien_9_25-08-2020,,,sternwarten@vhs.at,"Phone: +43189174150000, Fax: ",,,,,,,,,,,,
,,Planetarium Wien,Planetarium Wien,,,Oswald-Thomas-Platz 1,Wien,,1020,Wien,AUSTRIA,,,volkshochschulen_wien_10_25-08-2020,,,sternwarten@vhs.at,"Phone: +43189174150000, Fax: ",,,,,,,,,,,,
,,Kuffner Sternwarte,Kuffner Sternwarte,,,Johann-Staud-Straße 10,Wien,,1160,Wien,AUSTRIA,,,volkshochschulen_wien_11_25-08-2020,,,sternwarten@vhs.at,"Phone: +43189174150000, Fax: ",,,,,,,,,,,,
,,"""die umweltberatung"" Wien","""die umweltberatung"" Wien",,,Buchengasse 77/4. Stock,Wien,,1100,Wien,AUSTRIA,,,volkshochschulen_wien_12_25-08-2020,,,service@umweltberatung.at,"Phone: +43180332320, Fax: ",,,,,,,,,,,,
,,D.R.Z  Demontage- und Recycling-Zentrum,D.R.Z  Demontage- und Recycling-Zentrum,,,Vogtgasse 29,Wien,,1140,Wien,AUSTRIA,,,volkshochschulen_wien_13_25-08-2020,,,drz@vhs.at,"Phone: +43189174155000, Fax: ",,,,,,,,,,,,
,,Jüdisches Institut für Erwachsenenbildung,Jüdisches Institut für Erwachsenenbildung,,,Praterstern 1,Wien,,1020,Wien,AUSTRIA,,,volkshochschulen_wien_14_25-08-2020,,,jife@vhs.at,"Phone: +43189174153000, Fax: ",,,,,,,,,,,,
,,Österreichisches Volkshochschularchiv,Österreichisches Volkshochschularchiv,,,Kürschnergasse 9,Wien,,1210,Wien,AUSTRIA,,,volkshochschulen_wien_15_25-08-2020,,,archiv@vhs.at,"Phone: +43189174156000, Fax: ",,,,,,,,,,,,
,,VHS Heiligenstadt,Volkshochschule Heiligenstadt,,,Heiligenstädter Straße 155,Wien,,1190,Wien,AUSTRIA,,,volkshochschulen_wien_16_25-08-2020,,,heiligenstadt@vhs.at,"Phone: +43189174109100, Fax: ",,,,,,,,,,,,
,,VHS Favoriten,Volkshochschule Favoriten,,,Arthaberplatz 18,Wien,,1100,Wien,AUSTRIA,,,volkshochschulen_wien_17_25-08-2020,,,favoriten@vhs.at,"Phone: +43189174110000, Fax: ",,,,,,,,,,,,
,,VHS PAHO,Volkshochschule PAHO,,,Ada-Christen-Gasse 2/B,Wien,,1100,Wien,AUSTRIA,,,volkshochschulen_wien_18_25-08-2020,,,paho@vhs.at,"Phone: +43189174110001, Fax: ",,,,,,,,,,,,
,,VHS Leberberg,Volkshochschule Leberberg,,,Rosa-Jochmann-Ring 5/2,Wien,,1110,Wien,AUSTRIA,,,volkshochschulen_wien_19_25-08-2020,,,simmering@vhs.at,"Phone: +43189174111001, Fax: ",,,,,,,,,,,,
,,VHS Meidling,Volkshochschule Meidling,,,Längenfeldgasse 13-15,Wien,,1120,Wien,AUSTRIA,,,volkshochschulen_wien_20_25-08-2020,,,meidling@vhs.at,"Phone: +43189174112000, Fax: ",,,,,,,,,,,,
,,VHS Schönbrunner Straße,Volkshochschule Schönbrunner Straße,,,Schönbrunner Straße 213-215/1,Wien,,1120,Wien,AUSTRIA,,,volkshochschulen_wien_21_25-08-2020,,,schoenbrunnerstrasse@vhs.at,"Phone: +43189174112001, Fax: ",,,,,,,,,,,,
,,VHS Hietzing,Volkshochschule Hietzing,,,Hofwiesengasse 48,Wien,,1130,Wien,AUSTRIA,,,volkshochschulen_wien_22_25-08-2020,,,hietzing@vhs.at,"Phone: +43189174113000, Fax: ",,,,,,,,,,,,
,,VHS Penzing,Volkshochschule Penzing,,,Hütteldorfer Straße 112,Wien,,1140,Wien,AUSTRIA,,,volkshochschulen_wien_23_25-08-2020,,,penzing@vhs.at,"Phone: +43189174114000, Fax: ",,,,,,,,,,,,
,,VHS Rudolfsheim-Fünfhaus,Volkshochschule Rudolfsheim-Fünfhaus,,,Schwendergasse 41,Wien,,1150,Wien,AUSTRIA,,,volkshochschulen_wien_24_25-08-2020,,,office.rudolfsheim@vhs.at,"Phone: +43189174115000, Fax: ",,,,,,,,,,,,
,,VHS Ottakring,Volkshochschule Ottakring,,,Ludo-Hartmann-Platz 7,Wien,,1160,Wien,AUSTRIA,,,volkshochschulen_wien_25_25-08-2020,,,ottakring@vhs.at,"Phone: +43189174116000, Fax: ",,,,,,,,,,,,
,,VHS Hernals,Volkshochschule Hernals,,,Rötzergasse 15,Wien,,1170,Wien,AUSTRIA,,,volkshochschulen_wien_26_25-08-2020,,,hernals@vhs.at,"Phone: +43189174117000, Fax: ",,,,,,,,,,,,
,,VHS Brigittenau,Volkshochschule Brigittenau,,,Raffaelgasse 11-13,Wien,,1200,Wien,AUSTRIA,,,volkshochschulen_wien_27_25-08-2020,,,brigittenau@vhs.at,"Phone: +43189174120000, Fax: ",,,,,,,,,,,,
,,VHS Floridsdorf,Volkshochschule Floridsdorf,,,Angerer Straße 14,Wien,,1210,Wien,AUSTRIA,,,volkshochschulen_wien_28_25-08-2020,,,floridsdorf@vhs.at,"Phone: +43189174121000, Fax: ",,,,,,,,,,,,
,,VHS Neu-Stammersdorf,Volkshochschule Neu-Stammersdorf,,,Brünner Straße 219,Wien,,1210,Wien,AUSTRIA,,,volkshochschulen_wien_29_25-08-2020,,,neustammersdorf@vhs.at,"Phone: +43189174121004, Fax: ",,,,,,,,,,,,
,,VHS Großjedlersdorf,Volkshochschule Großjedlersdorf,,,Siemensstraße 17,Wien,,1210,Wien,AUSTRIA,,,volkshochschulen_wien_30_25-08-2020,,,grossjedlersdorf@vhs.at,"Phone: +43189174121006, Fax: ",,,,,,,,,,,,
,,IKH Institut für Kindergarten- und Hortpädagogik,IKH Institut für Kindergarten- und Hortpädagogik,,,Raffaelgasse 11-13,Wien,,1220,Wien,AUSTRIA,,,volkshochschulen_wien_31_25-08-2020,,,brigittenau@vhs.at,"Phone: +43189174120000, Fax: ",,,,,,,,,,,,
,,VHS KunstHandWerk,Volkshochschule KunstHandWerk,,,Schlossgasse 23,Wien,,1050,Wien,AUSTRIA,,,volkshochschulen_wien_32_25-08-2020,,,polycollege@vhs.at,"Phone: +43189174105000, Fax: ",,,,,,,,,,,,
,,Film und Medien Zentrum Margareten,Film und Medien Zentrum Margareten,,,Johannagasse 2,Wien,,1050,Wien,AUSTRIA,,,volkshochschulen_wien_33_25-08-2020,,,medienzentrum@vhs.at,"Phone: +43189174105002, Fax: ",,,,,,,,,,,,
,,VHS Simmering,Volkshochschule Simmering,,,Gottschalkgasse 10,Wien,,1110,Wien,AUSTRIA,,,volkshochschulen_wien_34_25-08-2020,,,simmering@vhs.at,"Phone: +43189174111000, Fax: ",,,,,,,,,,,,
,,VHS Urania,Volkshochschule Urania,,,Uraniastraße 1,Wien,,1010,Wien,AUSTRIA,,,volkshochschulen_wien_35_25-08-2020,,,urania@vhs.at,"Phone: +43189174101000, Fax: ",,,,,,,,,,,,
,,VHS Landstraße,Volkshochschule Landstraße,,,Hainburgerstraße 29,Wien,,1030,Wien,AUSTRIA,,,volkshochschulen_wien_36_25-08-2020,,,landstrasse@vhs.at,"Phone: +43189174103000, Fax: ",,,,,,,,,,,,
,,VHS polycollege Margareten - Wieden,Volkshochschule polycollege Margareten - Wieden,,,Stöbergasse 11-15,Wien,,1050,Wien,AUSTRIA,,,volkshochschulen_wien_37_25-08-2020,,,polycollege@vhs.at,"Phone: +43189174105000, Fax: ",,,,,,,,,,,,
,,VHS polycollege Siebenbrunnengasse,Volkshochschule polycollege Siebenbrunnengasse,,,Siebenbrunnengasse 37,Wien,,1050,Wien,AUSTRIA,,,volkshochschulen_wien_38_25-08-2020,,,siebenbrunnengasse@vhs.at,"Phone: +43189174105001, Fax: ",,,,,,,,,,,,
,,VHS polycollege Johannagasse,Volkshochschule polycollege Johannagasse,,,Johannagasse 2,Wien,,1050,Wien,AUSTRIA,,,volkshochschulen_wien_39_25-08-2020,,,johannagasse@vhs.at,"Phone: +43189174105002, Fax: ",,,,,,,,,,,,
,,VHS polycollege Wieden,Volkshochschule polycollege Wieden,,,Danhausergasse 1,Wien,,1040,Wien,AUSTRIA,,,volkshochschulen_wien_40_25-08-2020,,,wieden@vhs.at,"Phone: +43189174105003, Fax: ",,,,,,,,,,,,
,,VHS polycollege Schlossgasse,Volkshochschule polycollege Schlossgasse,,,Schlossgasse 23,Wien,,1050,Wien,AUSTRIA,,,volkshochschulen_wien_41_25-08-2020,,,schlossgasse@vhs.at,"Phone: +43189174105004, Fax: ",,,,,,,,,,,,
,,VHS Mariahilf,Volkshochschule Mariahilf,,,Damböckgasse 4,Wien,,1060,Wien,AUSTRIA,,,volkshochschulen_wien_42_25-08-2020,,,mariahilf@vhs.at,"Phone: +43189174106000, Fax: ",,,,,,,,,,,,
,,VHS Josefstadt,Volkshochschule Josefstadt,,,Schmidgasse 18,Wien,,1080,Wien,AUSTRIA,,,volkshochschulen_wien_43_25-08-2020,,,josefstadt@vhs.at,"Phone: +43189174106001, Fax: ",,,,,,,,,,,,
,,Die Kunst VHS,Die Kunst Volkshochschule,,,Lazarettgasse 27,Wien,,1090,Wien,AUSTRIA,,,volkshochschulen_wien_44_25-08-2020,,,kvh@vhs.at,"Phone: +43189174154000, Fax: ",,,,,,,,,,,,
,,VHS Alsergrund,Volkshochschule Alsergrund,,,Galileigasse 8,Wien,,1090,Wien,AUSTRIA,,,volkshochschulen_wien_45_25-08-2020,,,alsergrund@vhs.at,"Phone: +43189174109000, Fax: ",,,,,,,,,,,,
,,VHS Döbling,Volkshochschule Döbling,,,Gatterburggasse 2a,Wien,,1190,Wien,AUSTRIA,,,volkshochschulen_wien_46_25-08-2020,,,doebling@vhs.at,"Phone: +43189174109002, Fax: ",,,,,,,,,,,,
,,MA 01 - Wien Digital,Magistratsabteilung 01 - Wien Digital,,,Stadlauer Straße 54-56,Wien,,1220,Wien,AUSTRIA,,,magistratsabteilungen_wien_1_19-08-2020,,,post@ma01.wien.gv.at,"Phone: , Fax: +43140009971019",,,,,,,,,,,,
,,MA 10 - Kindergärten,Magistratsabteilung 10 - Kindergärten,,,Thomas-Klestil-Platz 11,Wien,,1030,Wien,AUSTRIA,,,magistratsabteilungen_wien_2_19-08-2020,,,post@ma10.wien.gv.at,"Phone: +431400090309, Fax: +43140009990248",,,,,,,,,,,,
,,MA 11 - Kinder- und Jugendhilfe,Magistratsabteilung 11 - Kinder- und Jugendhilfe,,,Rüdengasse 11,Wien,,1030,Wien,AUSTRIA,,,magistratsabteilungen_wien_3_19-08-2020,,,post@ma11.wien.gv.at,"Phone: +43140008011, Fax: +43140009990619",,,,,,,,,,,,
,,MA 13 - Bildung und Jugend,Magistratsabteilung 13 - Bildung und Jugend,,,Friedrich-Schmidt-Platz 5,Wien,,1080,Wien,AUSTRIA,,,magistratsabteilungen_wien_4_19-08-2020,,,post@ma13.wien.gv.at,"Phone: +431400084329, Fax: +43140009984328",,,,,,,,,,,,
,,MA 15 - Gesundheitsdienst,Magistratsabteilung 15 - Gesundheitsdienst,,,Thomas-Klestil-Platz 8,Wien,,1030,Wien,AUSTRIA,,,magistratsabteilungen_wien_5_19-08-2020,,,post@ma15.wien.gv.at,"Phone: +43140008015, Fax: +43140009987960",,,,,,,,,,,,
,,MA 17 - Integration und Diversität,Magistratsabteilung 17 - Integration und Diversität,,,Friedrich-Schmidt-Platz 3,Wien,,1080,Wien,AUSTRIA,,,magistratsabteilungen_wien_6_19-08-2020,,,post@ma17.wien.gv.at,"Phone: +431400081523, Fax: +43140009981523",,,,,,,,,,,,
,,MA 18 - Stadtentwicklung und Stadtplanung,Magistratsabteilung 18 - Stadtentwicklung und Stadtplanung,,,Rathausstraße 14-16,Wien,,1082,Wien,AUSTRIA,,,magistratsabteilungen_wien_7_19-08-2020,,,post@ma18.wien.gv.at,"Phone: +43140008018, Fax: +4314000998018",,,,,,,,,,,,
,,MA 19 - Architektur und Stadtgestaltung,Magistratsabteilung 19 - Architektur und Stadtgestaltung,,,Niederhofstraße 21-23,Wien,,1120,Wien,AUSTRIA,,,magistratsabteilungen_wien_8_19-08-2020,,,post@ma19.wien.gv.at,"Phone: +4318111488916, Fax: +43140009988910",,,,,,,,,,,,
,,MA 2 - Personalservice,Magistratsabteilung 2 - Personalservice,,,Rathausstraße 4,Wien,,1010,Wien,AUSTRIA,,,magistratsabteilungen_wien_9_19-08-2020,,,post@ma02.wien.gv.at,"Phone: +431400094020, Fax: +43140009994029",,,,,,,,,,,,
,,MA 20 - Energieplanung,Magistratsabteilung 20 - Energieplanung,,,Rathausstraße 14-16,Wien,,1010,Wien,AUSTRIA,,,magistratsabteilungen_wien_10_19-08-2020,,,post@ma20.wien.gv.at,"Phone: +431400088305, Fax: +431400088304",,,,,,,,,,,,
,,MA 21 A - Stadtteilplanung und Flächenwidmung Innen-Südwest,Magistratsabteilung 21 A - Stadtteilplanung und Flächenwidmung Innen-Südwest,,,Rathausstraße 14-16,Wien,,1010,Wien,AUSTRIA,,,magistratsabteilungen_wien_11_19-08-2020,,,post@ma21a.wien.gv.at,"Phone: +431400088116, Fax: +43140009988116",,,,,,,,,,,,
,,MA 21 B - Stadtteilplanung und Flächenwidmung Nordost,Magistratsabteilung 21 B - Stadtteilplanung und Flächenwidmung Nordost,,,Rathausstraße 14-16,Wien,,1010,Wien,AUSTRIA,,,magistratsabteilungen_wien_12_19-08-2020,,,post@ma21b.wien.gv.at,"Phone: +431400088116, Fax: +43140009988116",,,,,,,,,,,,
,,MA 22 - Umweltschutz,Magistratsabteilung 22 - Umweltschutz,,,Dresdner Straße 45,Wien,,1200,Wien,AUSTRIA,,,magistratsabteilungen_wien_13_19-08-2020,,,post@ma22.wien.gv.at,"Phone: , Fax: +43140009973415",,,,,,,,,,,,
,,"MA 23 - Wirtschaft, Arbeit und Statistik","Magistratsabteilung 23 - Wirtschaft, Arbeit und Statistik",,,Meiereistraße 7,Wien,,1020,Wien,AUSTRIA,,,magistratsabteilungen_wien_14_19-08-2020,,,post@ma23.wien.gv.at,"Phone: +431400083057, Fax: +431400083050",,,,,,,,,,,,
,,MA 24 - Strategische Gesundheitsversorgung,Magistratsabteilung 24 - Strategische Gesundheitsversorgung,,,Brigittenauer Lände 50-54,Wien,,1200,Wien,AUSTRIA,,,magistratsabteilungen_wien_15_19-08-2020,,,post@ma24.wien.gv.at,"Phone: +431400084200, Fax: +43140009984200",,,,,,,,,,,,
,,MA 25 - Technische Stadterneuerung,Magistratsabteilung 25 - Technische Stadterneuerung,,,Maria-Restituta-Platz 1,Wien,,1200,Wien,AUSTRIA,,,magistratsabteilungen_wien_16_19-08-2020,,,post@ma25.wien.gv.at,"Phone: +43140008025, Fax: +4314000998025",,,,,,,,,,,,
,,MA 27 - Europäische Angelegenheiten,Magistratsabteilung 27 - Europäische Angelegenheiten,,,Friedrich-Schmidt-Platz 3,Wien,,1080,Wien,AUSTRIA,,,magistratsabteilungen_wien_17_19-08-2020,,,post@ma27.wien.gv.at,"Phone: +4314000, Fax: +43140009927027",,,,,,,,,,,,
,,MA 28 - Straßenverwaltung und Straßenbau,Magistratsabteilung 28 - Straßenverwaltung und Straßenbau,,,Lienfeldergasse 96,Wien,,1170,Wien,AUSTRIA,,,magistratsabteilungen_wien_18_19-08-2020,,,post@ma28.wien.gv.at,"Phone: , Fax: +43140009949610",,,,,,,,,,,,
,,MA 29 - Brückenbau und Grundbau,Magistratsabteilung 29 - Brückenbau und Grundbau,,,Wilhelminenstraße 93,Wien,,1160,Wien,AUSTRIA,,,magistratsabteilungen_wien_19_19-08-2020,,,post@ma29.wien.gv.at,"Phone: +431400096915, Fax: +43140009996480",,,,,,,,,,,,
,,MA 3 - Bedienstetenschutz und berufliche Gesundheitsförde,Magistratsabteilung 3 - Bedienstetenschutz und berufliche Gesundheitsförde,,,Hermanngasse 24-26,Wien,,1070,Wien,AUSTRIA,,,magistratsabteilungen_wien_20_19-08-2020,,,post@ma03.wien.gv.at,"Phone: +431400075050, Fax: +43140009975050",,,,,,,,,,,,
,,MA 31 - Wiener Wasser,Magistratsabteilung 31 - Wiener Wasser,,,Grabnergasse 4-6,Wien,,1060,Wien,AUSTRIA,,,magistratsabteilungen_wien_21_19-08-2020,,,post@ma31.wien.gv.at,"Phone: +43159959, Fax: +431599599931326",,,,,,,,,,,,
,,MA 33 - Wien leuchtet,Magistratsabteilung 33 - Wien leuchtet,,,Senngasse 2,Wien,,1110,Wien,AUSTRIA,,,magistratsabteilungen_wien_22_19-08-2020,,,post@ma33.wien.gv.at,"Phone: +431400033011, Fax: +43140009933000",,,,,,,,,,,,
,,MA 34 - Bau- und Gebäudemanagement,Magistratsabteilung 34 - Bau- und Gebäudemanagement,,,Muthgasse 62,Wien,,1190,Wien,AUSTRIA,,,magistratsabteilungen_wien_23_19-08-2020,,,post@ma34.wien.gv.at,"Phone: +43140008034, Fax: +4314000998034",,,,,,,,,,,,
,,MA 35 - Einwanderung und Staatsbürgerschaft,Magistratsabteilung 35 - Einwanderung und Staatsbürgerschaft,,,Dresdner Straße 93,Wien,,1200,Wien,AUSTRIA,,,magistratsabteilungen_wien_24_19-08-2020,,,post@ma35.wien.gv.at,"Phone: , Fax: +43140009935010",,,,,,,,,,,,
,,"MA 36 - Gewerbetechnik, Feuerpolizei und Veranstaltungen","Magistratsabteilung 36 - Gewerbetechnik, Feuerpolizei und Veranstaltungen",,,Dresdner Straße 73-75,Wien,,1200,Wien,AUSTRIA,,,magistratsabteilungen_wien_25_19-08-2020,,,post@ma36.wien.gv.at,"Phone: +431400036110, Fax: +43140009936110",,,,,,,,,,,,
,,MA 37 - Baupolizei,Magistratsabteilung 37 - Baupolizei,,,Dresdner Straße 73-75,Wien,,1200,Wien,AUSTRIA,,,magistratsabteilungen_wien_26_19-08-2020,,,post@ma37.wien.gv.at,"Phone: , Fax: +43140009937010",,,,,,,,,,,,
,,"MA 39 - Prüf-, Inspektions- und Zertifizierungsstelle","Magistratsabteilung 39 - Prüf-, Inspektions- und Zertifizierungsstelle",,,Rinnböckstraße 15,Wien,,1110,Wien,AUSTRIA,,,magistratsabteilungen_wien_27_19-08-2020,,,post@ma39.wien.gv.at,"Phone: +43140008039, Fax: +4314000998039",,,,,,,,,,,,
,,"MA 40 - Soziales, Sozial- und Gesundheitsrecht","Magistratsabteilung 40 - Soziales, Sozial- und Gesundheitsrecht",,,Thomas-Klestil-Platz 8,Wien,,1030,Wien,AUSTRIA,,,magistratsabteilungen_wien_28_19-08-2020,,,post@ma40.wien.gv.at,"Phone: +431400040415, Fax: +43140009940419",,,,,,,,,,,,
,,MA 41 - Stadtvermessung,Magistratsabteilung 41 - Stadtvermessung,,,Muthgasse 62,Wien,,1190,Wien,AUSTRIA,,,magistratsabteilungen_wien_29_19-08-2020,,,post@ma41.wien.gv.at,"Phone: +431400089115, Fax: +4314000998041",,,,,,,,,,,,
,,MA 42 - Wiener Stadtgärten,Magistratsabteilung 42 - Wiener Stadtgärten,,,Johannesgasse 35,Wien,,1030,Wien,AUSTRIA,,,magistratsabteilungen_wien_30_19-08-2020,,,post@ma42.wien.gv.at,"Phone: +43140008042, Fax: +43140009942089",,,,,,,,,,,,
,,MA 44 - Bäder,Magistratsabteilung 44 - Bäder,,,Reumannplatz 23,Wien,,1100,Wien,AUSTRIA,,,magistratsabteilungen_wien_31_19-08-2020,,,post@ma44.wien.gv.at,"Phone: +4316011244115, Fax: +431601129944014",,,,,,,,,,,,
,,MA 45 - Wiener Gewässer,Magistratsabteilung 45 - Wiener Gewässer,,,Am Brigittenauer Sporn 7,Wien,,1200,Wien,AUSTRIA,,,magistratsabteilungen_wien_32_19-08-2020,,,post@ma45.wien.gv.at,"Phone: +431400096520, Fax: +431400096548",,,,,,,,,,,,
,,MA 46 - Verkehrsorganisation und technische Verkehrsangele,Magistratsabteilung 46 - Verkehrsorganisation und technische Verkehrsangele,,,Niederhofstraße 21-23,Wien,,1120,Wien,AUSTRIA,,,magistratsabteilungen_wien_33_19-08-2020,,,post@ma46.wien.gv.at,"Phone: +431400092615, Fax: +43140009992637",,,,,,,,,,,,
,,"MA 48 - Abfallwirtschaft, Straßenreinigung und Fuhrpark","Magistratsabteilung 48 - Abfallwirtschaft, Straßenreinigung und Fuhrpark",,,Einsiedlergasse 2,Wien,,1050,Wien,AUSTRIA,,,magistratsabteilungen_wien_34_19-08-2020,,,post@ma48.wien.gv.at,"Phone: +43140000, Fax: +431400099480037",,,,,,,,,,,,
,,MA 49 - Forst- und Landwirtschaftsbetrieb,Magistratsabteilung 49 - Forst- und Landwirtschaftsbetrieb,,,Triester Straße 114,Wien,,1100,Wien,AUSTRIA,,,magistratsabteilungen_wien_35_19-08-2020,,,post@ma49.wien.gv.at,"Phone: +431400049000, Fax: +43140009949099",,,,,,,,,,,,
,,MA 5 - Finanzwesen,Magistratsabteilung 5 - Finanzwesen,,,Ebendorferstraße 2,Wien,,1010,Wien,AUSTRIA,,,magistratsabteilungen_wien_36_19-08-2020,,,post@ma05.wien.gv.at,"Phone: +431400086515, Fax: +43140009986510",,,,,,,,,,,,
,,MA 50 - Wohnbauförderung und Schlichtungsstelle für wohnre,Magistratsabteilung 50 - Wohnbauförderung und Schlichtungsstelle für wohnre,,,Muthgasse 62,Wien,,1190,Wien,AUSTRIA,,,magistratsabteilungen_wien_37_19-08-2020,,,post@ma50.wien.gv.at,"Phone: +43140008050, Fax: +43140009974810",,,,,,,,,,,,
,,MA 51 - Sport Wien,Magistratsabteilung 51 - Sport Wien,,,Meiereistraße 7,Wien,,1020,Wien,AUSTRIA,,,magistratsabteilungen_wien_38_19-08-2020,,,post@ma51.wien.gv.at,"Phone: +431400051151, Fax: +43140009951151",,,,,,,,,,,,
,,MA 53 - Presse- und Informationsdienst,Magistratsabteilung 53 - Presse- und Informationsdienst,,,Lichtenfelsgasse 2,Wien,,1010,Wien,AUSTRIA,,,magistratsabteilungen_wien_39_19-08-2020,,,post@ma53.wien.gv.at,"Phone: +431400081015, Fax: +43140009981015",,,,,,,,,,,,
,,MA 54 - Zentraler Einkauf,Magistratsabteilung 54 - Zentraler Einkauf,,,Simone-de-Beauvoir-Platz 6,Wien,,1220,Wien,AUSTRIA,,,magistratsabteilungen_wien_40_19-08-2020,,,post@ma54.wien.gv.at,"Phone: , Fax: +43140009954100",,,,,,,,,,,,
,,MA 56 - Wiener Schulen,Magistratsabteilung 56 - Wiener Schulen,,,Mollardgasse 87,Wien,,1060,Wien,AUSTRIA,,,magistratsabteilungen_wien_41_19-08-2020,,,post@ma56.wien.gv.at,"Phone: +4315991695010, Fax: +431599169995010",,,,,,,,,,,,
,,MA 57 - Frauenservice Wien,Magistratsabteilung 57 - Frauenservice Wien,,,Friedrich-Schmidt-Platz 3,Wien,,1080,Wien,AUSTRIA,,,magistratsabteilungen_wien_42_19-08-2020,,,frauen@ma57.wien.gv.at,"Phone: +431400083515, Fax: +43140009983511",,,,,,,,,,,,
,,MA 58 - Wasserrecht,Magistratsabteilung 58 - Wasserrecht,,,Dresdner Straße 73-75,Wien,,1200,Wien,AUSTRIA,,,magistratsabteilungen_wien_43_19-08-2020,,,post@ma58.wien.gv.at,"Phone: +431400096815, Fax: +43140009996810",,,,,,,,,,,,
,,MA 59 - Marktamt,Magistratsabteilung 59 - Marktamt,,,Spittelauer Lände 45,Wien,,1090,Wien,AUSTRIA,,,magistratsabteilungen_wien_44_19-08-2020,,,post@ma59.wien.gv.at,"Phone: +431400059210, Fax: +43140009959210",,,,,,,,,,,,
,,MA 6 - Rechnungs- und Abgabenwesen,Magistratsabteilung 6 - Rechnungs- und Abgabenwesen,,,Ebendorferstraße 2,Wien,,1010,Wien,AUSTRIA,,,magistratsabteilungen_wien_45_19-08-2020,,,post@ma06.wien.gv.at,"Phone: +431400086019, Fax: +43140009986010",,,,,,,,,,,,
,,MA 60 - Veterinäramt und Tierschutz,Magistratsabteilung 60 - Veterinäramt und Tierschutz,,,Karl-Farkas-Gasse 16,Wien,,1030,Wien,AUSTRIA,,,magistratsabteilungen_wien_46_19-08-2020,,,post@ma60.wien.gv.at,"Phone: +43140008060, Fax: +43140009997619",,,,,,,,,,,,
,,MA 62 - Wahlen und verschiedene Rechtsangelegenheiten,Magistratsabteilung 62 - Wahlen und verschiedene Rechtsangelegenheiten,,,Lerchenfelder Straße 4,Wien,,1082,Wien,AUSTRIA,,,magistratsabteilungen_wien_47_19-08-2020,,,post@ma62.wien.gv.at,"Phone: +431400089424, Fax: +43140009989400",,,,,,,,,,,,
,,"MA 63 - Gewerberecht, Datenschutz und Personenstand","Magistratsabteilung 63 - Gewerberecht, Datenschutz und Personenstand",,,Wipplingerstraße 6-8,Wien,,1010,Wien,AUSTRIA,,,magistratsabteilungen_wien_48_19-08-2020,,,post@ma63.wien.gv.at,"Phone: +431400097097, Fax: +43140009997115",,,,,,,,,,,,
,,"MA 64 - Bau-, Energie-, Eisenbahn- und Luftfahrtrecht","Magistratsabteilung 64 - Bau-, Energie-, Eisenbahn- und Luftfahrtrecht",,,Lerchenfelder Straße 4,Wien,,1080,Wien,AUSTRIA,,,magistratsabteilungen_wien_49_19-08-2020,,,post@ma64.wien.gv.at,"Phone: +431400089919, Fax: +43140009989910",,,,,,,,,,,,
,,MA 65 - Rechtliche Verkehrsangelegenheiten,Magistratsabteilung 65 - Rechtliche Verkehrsangelegenheiten,,,Ungargasse 33,Wien,,1030,Wien,AUSTRIA,,,magistratsabteilungen_wien_50_19-08-2020,,,post@ma65.wien.gv.at,"Phone: +43140003830, Fax: +431795149938319",,,,,,,,,,,,
,,MA 67 - Parkraumüberwachung,Magistratsabteilung 67 - Parkraumüberwachung,,,Dresdner Straße 81-85,Wien,,1200,Wien,AUSTRIA,,,magistratsabteilungen_wien_51_19-08-2020,,,post@ma67.wien.gv.at,"Phone: +43140006700, Fax: +43140009967010",,,,,,,,,,,,
,,MA 68 - Feuerwehr und Katastrophenschutz,Magistratsabteilung 68 - Feuerwehr und Katastrophenschutz,,,Am Hof 9-10,Wien,,1010,Wien,AUSTRIA,,,magistratsabteilungen_wien_52_19-08-2020,,,post@ma68.wien.gv.at,"Phone: +431531990, Fax: +4315319951209",,,,,,,,,,,,
,,MA 69 - Immobilienmanagement,Magistratsabteilung 69 - Immobilienmanagement,,,Lerchenfelder Straße 4,Wien,,1080,Wien,AUSTRIA,,,magistratsabteilungen_wien_53_19-08-2020,,,post@ma69.wien.gv.at,"Phone: +43140008069, Fax: +43140009969600",,,,,,,,,,,,
,,MA 7 - Kultur,Magistratsabteilung 7 - Kultur,,,Friedrich-Schmidt-Platz 5,Wien,,1080,Wien,AUSTRIA,,,magistratsabteilungen_wien_54_19-08-2020,,,post@ma07.wien.gv.at,"Phone: +431400084719, Fax: +4314000998007",,,,,,,,,,,,
,,MA 70 - Berufsrettung Wien,Magistratsabteilung 70 - Berufsrettung Wien,,,Radetzkystraße 1,Wien,,1030,Wien,AUSTRIA,,,magistratsabteilungen_wien_55_19-08-2020,,,post@ma70.wien.gv.at,"Phone: +431711190, Fax: ",,,,,,,,,,,,
,,MA 8 - Wiener Stadt- und Landesarchiv,Magistratsabteilung 8 - Wiener Stadt- und Landesarchiv,,,Guglgasse 14,Wien,,1110,Wien,AUSTRIA,,,magistratsabteilungen_wien_56_19-08-2020,,,post@ma08.wien.gv.at,"Phone: +431400084808, Fax: +431400084809",,,,,,,,,,,,
,,"MBA für den 1., 8. Bezirk","Magistratisches Bezirksamt für den 1., 8. Bezirk",,,Wipplingerstraße 6-8,Wien,,1010,Wien,AUSTRIA,,,magistratische_bezirksaemter_wien_1_19-08-2020,,,post@mba01.wien.gv.at,"Phone: , Fax: +43140009901210",,,,,,,,,,,,
,,MBA für den 10. Bezirk,Magistratisches Bezirksamt für den 10. Bezirk,,,Laxenburger Straße 43-45,Wien,,1100,Wien,AUSTRIA,,,magistratische_bezirksaemter_wien_2_19-08-2020,,,post@mba10.wien.gv.at,"Phone: +431400010000, Fax: +43140009910220",,,,,,,,,,,,
,,MBA für den 11. Bezirk,Magistratisches Bezirksamt für den 11. Bezirk,,,Enkplatz 2,Wien,,1110,Wien,AUSTRIA,,,magistratische_bezirksaemter_wien_3_19-08-2020,,,post@mba11.wien.gv.at,"Phone: +431400011000, Fax: +43140009911220",,,,,,,,,,,,
,,MBA für den 12. Bezirk,Magistratisches Bezirksamt für den 12. Bezirk,,,Schönbrunner Straße 259,Wien,,1120,Wien,AUSTRIA,,,magistratische_bezirksaemter_wien_4_19-08-2020,,,post@mba12.wien.gv.at,"Phone: +431400012000, Fax: +43140009912220",,,,,,,,,,,,
,,"MBA für den 13., 14. Bezirk","Magistratisches Bezirksamt für den 13., 14. Bezirk",,,Hietzinger Kai 1,Wien,,1130,Wien,AUSTRIA,,,magistratische_bezirksaemter_wien_5_19-08-2020,,,post@mba13.wien.gv.at,"Phone: +431400013000, Fax: +43140009913220",,,,,,,,,,,,
,,MBA für den 15. Bezirk,Magistratisches Bezirksamt für den 15. Bezirk,,,Gasgasse 8-10,Wien,,1150,Wien,AUSTRIA,,,magistratische_bezirksaemter_wien_6_19-08-2020,,,post@mba15.wien.gv.at,"Phone: +431400015000, Fax: +43140009915220",,,,,,,,,,,,
,,MBA für den 16. Bezirk,Magistratisches Bezirksamt für den 16. Bezirk,,,Richard-Wagner-Platz 19,Wien,,1160,Wien,AUSTRIA,,,magistratische_bezirksaemter_wien_7_19-08-2020,,,post@mba16.wien.gv.at,"Phone: +431400016261, Fax: +43140009916220",,,,,,,,,,,,
,,"MBA für den 18., 19. Bezirk","Magistratisches Bezirksamt für den 18., 19. Bezirk",,,Martinstraße 100,Wien,,1180,Wien,AUSTRIA,,,magistratische_bezirksaemter_wien_8_19-08-2020,,,post@mba18.wien.gv.at,"Phone: +431400018000, Fax: +43140009918220",,,,,,,,,,,,
,,"MBA für den 2., 20. Bezirk","Magistratisches Bezirksamt für den 2., 20. Bezirk",,,Brigittaplatz 10,Wien,,1200,Wien,AUSTRIA,,,magistratische_bezirksaemter_wien_9_19-08-2020,,,post@mba20.wien.gv.at,"Phone: +431400002000, Fax: +43140009920220",,,,,,,,,,,,
,,MBA für den 21. Bezirk,Magistratisches Bezirksamt für den 21. Bezirk,,,Am Spitz 1,Wien,,1210,Wien,AUSTRIA,,,magistratische_bezirksaemter_wien_10_19-08-2020,,,post@mba21.wien.gv.at,"Phone: +431400021000, Fax: +43140009921220",,,,,,,,,,,,
,,MBA für den 22. Bezirk,Magistratisches Bezirksamt für den 22. Bezirk,,,Schrödingerplatz 1,Wien,,1220,Wien,AUSTRIA,,,magistratische_bezirksaemter_wien_11_19-08-2020,,,post@mba22.wien.gv.at,"Phone: +431400022000, Fax: +43140009922220",,,,,,,,,,,,
,,MBA für den 23. Bezirk,Magistratisches Bezirksamt für den 23. Bezirk,,,Perchtoldsdorfer Straße 2,Wien,,1230,Wien,AUSTRIA,,,magistratische_bezirksaemter_wien_12_19-08-2020,,,post@mba23.wien.gv.at,"Phone: +431400023000, Fax: +43140009923210",,,,,,,,,,,,
,,MBA für den 3. Bezirk,Magistratisches Bezirksamt für den 3. Bezirk,,,Karl-Borromäus-Platz 3,Wien,,1030,Wien,AUSTRIA,,,magistratische_bezirksaemter_wien_13_19-08-2020,,,post@mba03.wien.gv.at,"Phone: +431400003000, Fax: +43140009903210",,,,,,,,,,,,
,,"MBA für den 4., 5. Bezirk","Magistratisches Bezirksamt für den 4., 5. Bezirk",,,Rechte Wienzeile 105,Wien,,1050,Wien,AUSTRIA,,,magistratische_bezirksaemter_wien_14_19-08-2020,,,post@mba04.wien.gv.at,"Phone: +431400005000, Fax: +43140009905220",,,,,,,,,,,,
,,"MBA für den 6., 7. Bezirk","Magistratisches Bezirksamt für den 6., 7. Bezirk",,,Hermanngasse 24-26,Wien,,1070,Wien,AUSTRIA,,,magistratische_bezirksaemter_wien_15_19-08-2020,,,post@mba06.wien.gv.at,"Phone: +431400007000, Fax: +43140009907220",,,,,,,,,,,,
,,AK Bild,Akademie der bildenden Künste Wien,,,Schillerplatz 3,Wien,,1010,Wien,AUSTRIA,,,unis_wien_1_23-08-2020,,,datenschutz@akbild.ac.at,"Phone: +431588160, Fax: ",,,,,,,,,,,,
,,Die Angewandte,Universität für angewandte Kunst Wien,,,Oskar-Kokoschka-Platz 2,Wien,,1010,Wien,AUSTRIA,,,unis_wien_2_23-08-2020,,,info@uni-ak.ac.at,"Phone: +431711332160, Fax: ",,,,,,,,,,,,
,,MedUni Wien,Medizinische Universität Wien,,,Spitalgasse 23,Wien,,1090,Wien,AUSTRIA,,,unis_wien_3_23-08-2020,,,buero-universitaetsleitung@meduniwien.ac.at,"Phone: ‘+431401600, Fax: ‘+43140160910000",,,,,,,,,,,,
,,MDW,Universität für Musik und darstellende Kunst Wien,,,Anton-von-Webern-Platz 1,Wien,,1030,Wien,AUSTRIA,,,unis_wien_4_23-08-2020,,,datenschutz@mdw.ac.at,"Phone: +43171155, Fax: +43171155199",,,,,,,,,,,,
,,TU Wien,Technische Universität Wien,,,Karlsplatz 13,Wien,,1040,Wien,AUSTRIA,,,unis_wien_5_23-08-2020,,,datenschutz@tuwien.ac.at,"Phone: +431588010, Fax: +4315880141275",,,,,,,,,,,,
,,BOKU,Universität für Bodenkultur Wien,,,Gregor-Mendel-Straße 33,Wien,,1180,Wien,AUSTRIA,,,unis_wien_6_23-08-2020,,,datenschutz@boku.ac.at,"Phone: +431476540, Fax: ",,,,,,,,,,,,
,,Uni Wien,Universität Wien,,,Universitätsring 1,Wien,,1010,Wien,AUSTRIA,,,unis_wien_7_24-08-2020,,,dsba@univie.ac.at,"Phone: +43142770, Fax: ",,,,,,,,,,,,
,,Vetmeduni Vienna,Veterinärmedizinische Universität Wien,,,Veterinärplatz 1,Wien,,1210,Wien,AUSTRIA,,,unis_wien_8_24-08-2020,,,datenschutz@vetmeduni.ac.at,"Phone: +431250771097, Fax: +431250771090",,,,,,,,,,,,
,,WU Wien,Wirtschaftsuniversität Wien,,,"Welthandelsplatz 1, AD",Wien,,1020,Wien,AUSTRIA,,,unis_wien_9_24-08-2020,,,datenschutz@wu.ac.at,"Phone: +431313360, Fax: ",,,,,,,,,,,,
,,CEU,Central European University ,,,Quellenstraße 51-55,Wien,,1100,Wien,AUSTRIA,,,unis_wien_10_24-08-2020,,,communications_office@ceu.edu,"Phone: +3613273000, Fax: ",,,,,,,,,,,,
,,Jam Music Lab,JAM MUSIC LAB GmbH,,,"Guglgasse 12, Gasometer C 37-37",Wien,,1110,Wien,AUSTRIA,,,unis_wien_11_24-08-2020,,,office@jammusiclab.com,"Phone: +4319466846, Fax: ",,,,,,,,,,,,
,,SFU,Sigmund Freud Privatuniversität Wien,,,Freudplatz 1,Wien,,1020,Wien,AUSTRIA,,,unis_wien_12_24-08-2020,,,rektorat@sfu.ac.at,"Phone: +4317984098, Fax: ",,,,,,,,,,,,
,,Modul University Vienna,Modul University Vienna GmbH,,,Am Kahlenberg 1,Wien,,1190,Wien,AUSTRIA,,,unis_wien_13_24-08-2020,,,office@modul.ac.at,"Phone: +4313203555, Fax: +4313203555902",,,,,,,,,,,,
,,MUK,Musik und Kunst Privatuniversität der Stadt Wien GmbH,,,Johannesgasse 4a,Wien,,1010,Wien,AUSTRIA,,,unis_wien_14_24-08-2020,,,office@muk.ac.at,"Phone: +4315127747, Fax: +43151277477913",,,,,,,,,,,,
,,Webster Vienna Private University,Webster Vienna Private University,,,Praterstrasse 23,Wien,,1020,Wien,AUSTRIA,,,unis_wien_15_24-08-2020,,,info@webster.ac.at,"Phone: +43126992930, Fax: ",,,,,,,,,,,,
,,FH Campus 02,CAMPUS 02 Fachhochschule der Wirtschaft GmbH,,,Körblergasse 126,Graz,,8010,Steiermark,AUSTRIA,,,unis_wien_16_24-08-2020,,,info@campus02.at,"Phone: +433166002177, Fax: +4331660021207",,,,,,,,,,,,
,,FH des bfi Wien,Fachhochschule des BFI Wien Ges.m.b.H.,,,Wohlmutstraße 22,Wien,,1020,Wien,AUSTRIA,,,unis_wien_17_24-08-2020,,,info@fh-vie.ac.at,"Phone: +4317201286, Fax: +431720128619",,,,,,,,,,,,
,,Fachhochschule Technikum Wien,Fachhochschule Technikum Wien,,,Höchstädtplatz 6,Wien,,1200,Wien,AUSTRIA,,,unis_wien_18_24-08-2020,,,info@technikum-wien.at,"Phone: +43133340770, Fax: ",,,,,,,,,,,,
,,FH Campus Wien,FH Campus Wien,,,Favoritenstraße 226,Wien,,1100,Wien,AUSTRIA,,,unis_wien_19_24-08-2020,,,office@fh-campuswien.ac.at,"Phone: +43160668776600, Fax: +43160668776609",,,,,,,,,,,,
,,FHWien,FHWien der WKW,,,Währinger Gürtel 97,Wien,,1180,Wien,AUSTRIA,,,unis_wien_20_24-08-2020,,,servicepoint@fh-wien.ac.at,"Phone: +431476775744, Fax: +431476775745",,,,,,,,,,,,
,,LBS,Lauder Business School,,,Hofzeile 18-20,Wien,,1190,Wien,AUSTRIA,,,unis_wien_21_24-08-2020,,,office@lbs.ac.at,"Phone: +4313691818, Fax: ",,,,,,,,,,,,
,,PH Wien,Pädagogische Hochschule Wien,,,Grenzackerstraße 18,Wien,,1100,Wien,AUSTRIA,,,unis_wien_22_24-08-2020,,,office@phwien.ac.at,"Phone: +43160118, Fax: ",,,,,,,,,,,,
,,KPH Wien/Krems,Kirchliche Pädagogische Hochschule Wien/Krems,,,Mayerweckstraße 1,Wien,,1210,Wien,AUSTRIA,,,unis_wien_23_24-08-2020,,,datenschutz@kphvie.ac.at,"Phone: +431291080, Fax: +43129108402",,,,,,,,,,,,
,,HAUP,Hochschule für Agrar- und Umweltpädagogik,,,Angermayergasse 1,Wien,,1130,Wien,AUSTRIA,,,unis_wien_24_24-08-2020,,,info@haup.ac.at,"Phone: +43187722660, Fax: +4318772361",,,,,,,,,,,,
,,Jüdische Pädagogische Akademie,Jüdische Pädagogische Akademie,,,Rabbiner Schneerson Platz 1,Wien,,1020,Wien,AUSTRIA,,,unis_wien_25_24-08-2020,,,info@lauderchabad.at,"Phone: +4313341818, Fax: +431334181818",,,,,,,,,,,,
,,Agentur für Qualitätssicherung und Akkreditierung Austria,Agentur für Qualitätssicherung und Akkreditierung Austria,,,Franz-Klein-Gasse 5,Wien,,1190,Wien,AUSTRIA,,,unis_wien_26_24-08-2020,,,office@aq.ac.at,"Phone: +43153202200, Fax: +431532022099",,,,,,,,,,,,
