"Firmenname ","Branche","Adresse","PLZ","Stadt","Land","E-Mail","Tel","Fax","E-Mail2","Tel2","Fax2"
"ACE EUROPEAN GROUP LIMITED, Zweigniederlassung Österreich","Versicherung","Kärntner Ring 5-7",1010,"Wien","Österreich",,,,,,
"Acredia Versicherung AG","Versicherung","Himmelpfortgasse 29",1010,"Wien","Österreich",,"+431374514","+4313745142",,,
"AIG Europe Limited, Direktion für Österreich","Versicherung","Herrengasse 1-3",1010,"Wien","Österreich",,,,,,
"Allianz Elementar Lebensversicherungs-Aktiengesellschaft","Versicherung","Hietzinger Kai 101-105",1130,"Wien","Österreich",,"+43187807","+4318780727",,,
"Allianz Elementar Versicherungs-Aktiengesellschaft","Versicherung","Hietzinger Kai 101-105",1130,"Wien","Österreich",,"+43187807","+4318780753",,,
"APK Versicherung AG","Versicherung","Thomas-Klestil-Platz 1",1030,"Wien","Österreich",,"+4317129980","+4317129980",,,
"ARAG SE Direktion für Österreich","Versicherung","Favoritenstraße 36",1041,"Wien","Österreich",,,,,,
"Atradius Credit Insurance N.V., Zweigniederlassung Österreich","Versicherung","Donau-City-Straße 7 Vienna DC Tower 1",1220,"Wien","Österreich",,,,,,
"AWP P&C S.A. Niederlassung für Österreich","Versicherung","Pottendorfer Straße 23-25",1120,"Wien","Österreich",,"+43152503","+43152503999",,,
"BAWAG P.S.K. Versicherung AG","Versicherung","Kratochwjlestraße 4",1220,"Wien","Österreich",,"+4315334668","+4315345325",,,
"Compagnie francaise d'assurance pour le commerce exterieur SA Niederlassung Austria","Versicherung","Marxergasse 4c",1030,"Wien","Österreich",,,,,,
"Credendo - Single Risk Insurance AG","Versicherung","Wohllebeng. 4",1040,"Wien","Österreich",,"+4315052896","+4315052896",,,
"D.A.S. Rechtsschutz AG","Versicherung","Hernalser Gürtel 17",1170,"Wien","Österreich",,"+43140464","+4314082133",,,
"DONAU Versicherung AG Vienna Insurance Group","Versicherung","Schottenring 15",1010,"Wien","Österreich",,"+43131311","+4313107751",,,
"ERGO Versicherung Aktiengesellschaft","Versicherung","ERGO Center Business Park Marximum/ Objekt 3 Modecenterstraße 17",1110,"Wien","Österreich",,"+43131341","+4313134124",,,
"Europäische Reiseversicherung Aktiengesellschaft","Versicherung","Kratochwjlestraße 4",1220,"Wien","Österreich",,"+4313172500","+4313172500",,,
"FWU Life Insurance Austria AG","Versicherung","Rivergate, Handelskai 92, Gate 2, 4.OG",1200,"Wien","Österreich",,"+43153664",,,,
"GARANTA Versicherungs-AG Österreich","Versicherung","Moserstraße 33",5020,"Salzburg","Österreich",,"+436624487",,,,
"General Reinsurance AG Vienna Branch","Versicherung","Wächtergasse 1",1010,"Wien","Österreich",,"+43153686",,,,
"Generali Holding Vienna AG","Versicherung","Landskrong. 1-3",1010,"Wien","Österreich",,"+43153401","+4315340122",,,
"Generali Versicherung AG","Versicherung","Landskrongasse 1-3",1010,"Wien","Österreich",,"+43153401","+4315340122",,,
"Grazer Wechselseitige Versicherung Aktiengesellschaft","Versicherung","Herreng. 18-20",8010,"Graz","Österreich",,"+433168037","+433168037414",,,
"HDI Lebensversicherung AG Direktion für Österreich","Versicherung","Dresdner Straße 91, 3. OG",1200,"Wien","Österreich",,"+43159913",,,,
"HDI Versicherung AG","Versicherung","Edelsinnstraße 7-11",1120,"Wien","Österreich",,"+43181132","+4318113234",,,
"Helvetia Schweizerische Versicherungsgesellschaft AG Direktion für Österreich","Versicherung","Jasomirgottstr. 2",1010,"Wien","Österreich",,"+4315338155","+4315356391",,,
"Helvetia Versicherungen AG","Versicherung","Hoher Markt 10-11",1010,"Wien","Österreich",,"+43153474","+4315347434",,,
"HYPO-VERSICHERUNG AKTIENGESELLSCHAFT","Versicherung","Jungferngasse 10",8010,"Graz","Österreich",,"+4318124860","+4318124860",,,
"Kärntner Landesversicherung auf Gegenseitigkeit","Versicherung","Domgasse 21",9020,"Klagenfurt","Österreich",,"+434635818","+434635818200",,,
"Merkur Versicherung Aktiengesellschaft","Versicherung","Joanneumring 22",8010,"Graz","Österreich",,"+433168034","+433168034534",,,
"Niederösterreichische Versicherung AG","Versicherung","Neue Herrengasse 10",3100,"St. Pölten","Österreich",,"+43131370","+4313137039",,,
"NÜRNBERGER Versicherung Aktiengesellschaft Österreich","Versicherung","Moserstraße 33",5020,"Salzburg","Österreich",,"+436624487","+436624487350",,,
"Oberösterreichische Versicherung Aktiengesellschaft","Versicherung","Gruberstr. 32",4020,"Linz","Österreich",,"+437327891","+437327891566",,,
"Österreichische Beamtenversicherung, Versicherungsverein auf Gegenseitigkeit","Versicherung","Grillparzerstr. 11",1016,"Wien","Österreich",,"+43140120","+4314012010",,,
"Österreichische Hagelversicherung-Versicherungsverein auf Gegenseitigkeit","Versicherung","Lercheng. 3-5",1081,"Wien","Österreich",,"+4314031681","+4314031681",,,
"Porsche Versicherungs Aktiengesellschaft","Versicherung","Vogelweiderstraße 75",5020,"Salzburg","Österreich",,"+436624683","+436624683802",,,
"SK Versicherung Aktiengesellschaft","Versicherung","Bräuhausg. 7-9",1050,"Wien","Österreich",,"+4312161561","+4312163369",,,
"Sparkassen Versicherung AG Vienna Insurance Group","Versicherung","Wipplingerstr. 36-38",1010,"Wien","Österreich",,"+43131381","+4313138130",,,
"TIROLER VERSICHERUNG V.a.G.","Versicherung","Wilhelm-Greil-Straße 10",6020,"Innsbruck","Österreich",,"+435125313","+435125313299",,,
"UNIQA Insurance Group AG","Versicherung","Untere Donaustraße 21",1029,"Wien","Österreich",,"+43121111","+4312143336",,,
"UNIQA Österreich Versicherungen AG","Versicherung","Untere Donaustraße 21",1029,"Wien","Österreich",,"+43121175","+4312117519",,,
"VAV Versicherungs-Aktiengesellschaft","Versicherung","Münzgasse 6",1030,"Wien","Österreich",,"+43171607","+4317160710",,,
"VIENNA INSURANCE GROUP AG Wiener Versicherung Gruppe","Versicherung","Schottenring 30",1010,"Wien","Österreich",,"+43153139","+4315353437",,,
"VORARLBERGER LANDES-VERSICHERUNG V.a.G.","Versicherung","Bahnhofstr. 35",6901,"Bregenz","Österreich",,"+435574412","+43557441299",,,
"WIENER STÄDTISCHE VERSICHERUNG AG Vienna Insurance Group","Versicherung","Schottenring 30",1010,"Wien","Österreich",,,,,,
"Wüstenrot Versicherungs-Aktiengesellschaft","Versicherung","Alpenstraße 61",5020,"Salzburg","Österreich",,"+436626386","+436626386652",,,
"Zürich Versicherungs-Aktiengesellschaft","Versicherung","Schwarzenbergpl. 15",1010,"Wien","Österreich",,"+43150125","+4315050485",,,
"A. Stadlbauer (gegr. 1845) Tankstellen Bau- und Betriebsgesellschaft m.b.H.","Finanzinstitut","Rainerstraße 15",4600,"Wels","Österreich",,,,,,
"abcfinance GmbH","Finanzinstitut","Wagenseilgasse 3",1120,"Wien","Österreich",,,,,,
"ACP Financial Solutions GmbH","Finanzinstitut","Am Belvedere 1",1100,"Wien","Österreich",,,,,,
"ACP IT-Finanzierungs GmbH","Finanzinstitut","Quellenstraße 51-55",1100,"Wien","Österreich",,,,,,
"Adagio Leasing GmbH","Finanzinstitut","Hauptplatz 13",8280,"Fürstenfeld","Österreich",,,,,,
"Adoria Grundstückvermietungs Gesellschaft m.b.H.","Finanzinstitut","Hypogasse 1",3100,"St. Pölten","Österreich",,,,,,
"AE Immobilien GmbH","Finanzinstitut","Austriastraße 6",8720,"Knittelfeld","Österreich",,,,,,
"AELLO Raiffeisen-Immobilien-Leasing GmbH","Finanzinstitut","Mooslackengasse 12",1190,"Wien","Österreich",,,,,,
"AGIOS Raiffeisen-Immobilien-Leasing Gesellschaft m.b.H.","Finanzinstitut","Mooslackengasse 12",1190,"Wien","Österreich",,,,,,
"AGITO Immobilien-Leasing GesmbH","Finanzinstitut","Mooslackengasse 12",1190,"Wien","Österreich",,,,,,
"AKRISIOS Raiffeisen-Immobilien-Leasing GmbH","Finanzinstitut","Mooslackengasse 12",1190,"Wien","Österreich",,,,,,
"ALARIS Grundstückvermietungs Gesellschaft m.b.H.","Finanzinstitut","Hypogasse 1",3100,"St. Pölten","Österreich",,,,,,
"Alea-Grundstückverwaltung Gesellschaft m.b.H.","Finanzinstitut","Am Belvedere 1",1100,"Wien","Österreich",,,,,,
"Allegro Leasing Gesellschaft m.b.H.","Finanzinstitut","Operngasse 21",1040,"Wien","Österreich",,,,,,
"All-In-One Vermietung GmbH","Finanzinstitut","Vordere Zollamtsstraße 13",1030,"Wien","Österreich",,,,,,
"ALMS Leasing GmbH.","Finanzinstitut","Operngasse 21",1040,"Wien","Österreich",,,,,,
"Alphabet Austria Fuhrparkmanagement GmbH","Finanzinstitut","Siegfried Marcus-Str. 24",5020,"Salzburg","Österreich",,,,,,
"Altstadt Hotelbetriebs GmbH","Finanzinstitut","Am Belvedere 1",1100,"Wien","Österreich",,,,,,
"ALV Immobilien Leasing Gesellschaft m.b.H.","Finanzinstitut","Operngasse 21",1040,"Wien","Österreich",,,,,,
"""Am Hafen"" Sutterlüty GmbH & Co","Finanzinstitut","Mooslackengasse 12",1190,"Wien","Österreich",,,,,,
"Am Ölberg Liegenschaftsverwertungs GmbH","Finanzinstitut","Europaplatz 1a",4020,"Linz","Österreich",,,,,,
"AMICUS Immorent Kommunalleasing GmbH","Finanzinstitut","Andreas Hofer Platz 17",8010,"Graz","Österreich",,,,,,
"AMYKOS RBI Leasing-Immobilien GmbH","Finanzinstitut","Mooslackengasse 12",1190,"Wien","Österreich",,,,,,
"ANTARES Immobilien Leasing Gesellschaft m.b.H.","Finanzinstitut","Operngasse 21",1040,"Wien","Österreich",,,,,,
"APUS Raiffeisen-Immobilien-Leasing Gesellschaft m.b.H.","Finanzinstitut","Mooslackengasse 12",1190,"Wien","Österreich",,,,,,
"ARCANA Raiffeisen-Immobilien-Leasing Gesellschaft m.b.H.","Finanzinstitut","Mooslackengasse 12",1190,"Wien","Österreich",,,,,,
"Arno Grundstücksverwaltungs Gesellschaft m.b.H.","Finanzinstitut","Operngasse 21",1040,"Wien","Österreich",,,,,,
"ARTEMIA Raiffeisen-Immobilien-Leasing Gesellschaft m.b.H.","Finanzinstitut","Mooslackengasse 12",1190,"Wien","Österreich",,,,,,
"ARTES Grundstückvermietungs GmbH","Finanzinstitut","Hypogasse 1",3100,"St. Pölten","Österreich",,,,,,
"AS-Alpha Grundstücksverwaltung Gesellschaft m.b.H.","Finanzinstitut","Am Belvedere 1",1100,"Wien","Österreich",,,,,,
"AS-WECO Grundstückverwaltung Gesellschaft m.b.H.","Finanzinstitut","Promenade 11-13",4020,"Linz","Österreich",,,,,,
"AS-WECO 4 Grundstückverwaltung Gesellschaft m.b.H.","Finanzinstitut","Hummelstraße 1",5020,"Salzburg","Österreich",,,,,,
"Atria Pflegehilfe GmbH & Co KG","Finanzinstitut","Hauptplatz 13",8280,"Fürstenfeld","Österreich",,,,,,
"Augarten - Hotel - Errichtungsgesellschaft m.b.H.","Finanzinstitut","Ungargasse 60",1030,"Wien","Österreich",,,,,,
"AURIGA Raiffeisen-Immobilien-Leasing Gesellschaft m.b.H.","Finanzinstitut","Mooslackengasse 12",1190,"Wien","Österreich",,,,,,
"Austria Leasing GmbH","Finanzinstitut","Operngasse 21",1040,"Wien","Österreich",,,,,,
"Autohaus Beteiligungs GmbH","Finanzinstitut","Erdbergstraße 189-193",1030,"Wien","Österreich",,,,,,
"Autopark Grundverwertungs GmbH","Finanzinstitut","Hypo-Passage 2",6020,"Innsbruck","Österreich",,,,,,
"Aventin Grundstückverwaltungs Gesellschaft m.b.H.","Finanzinstitut","Hypogasse 1",3100,"St. Pölten","Österreich",,,,,,
"AVION-Grundverwertungsgesellschaft m.b.H.","Finanzinstitut","Am Belvedere 1",1100,"Wien","Österreich",,,,,,
"BA CA SECUND Leasing GmbH","Finanzinstitut","Operngasse 21",1040,"Wien","Österreich",,,,,,
"BA Eurolease Beteiligungsgesellschaft m.b.H.","Finanzinstitut","Operngasse 21",1040,"Wien","Österreich",,,,,,
"BA-CA Andante Leasing GmbH","Finanzinstitut","Operngasse 21",1040,"Wien","Österreich",,,,,,
"BACA CENA Immobilien Leasing GmbH","Finanzinstitut","Operngasse 21",1040,"Wien","Österreich",,,,,,
"BACA HYDRA Leasing GmbH","Finanzinstitut","Operngasse 21",1040,"Wien","Österreich",,,,,,
"BACA KommunalLeasing GmbH","Finanzinstitut","Operngasse 21",1040,"Wien","Österreich",,,,,,
"BACA Leasing Carmen GmbH","Finanzinstitut","Operngasse 21",1040,"Wien","Österreich",,,,,,
"BA-CA Leasing Drei Garagen GmbH","Finanzinstitut","Operngasse 21",1040,"Wien","Österreich",,,,,,
"BA-CA Leasing MAR Immobilien GmbH","Finanzinstitut","Operngasse 21",1040,"Wien","Österreich",,,,,,
"BACA Leasing und Beteiligungsmanagement GmbH","Finanzinstitut","Operngasse 21",1040,"Wien","Österreich",,,,,,
"BA-CA Presto Leasing GmbH","Finanzinstitut","Operngasse 21",1040,"Wien","Österreich",,,,,,
"BA/CA-Leasing Beteiligungen GmbH","Finanzinstitut","Operngasse 21",1040,"Wien","Österreich",,,,,,
"BAL CARINA Immobilien Leasing GmbH","Finanzinstitut","Operngasse 21",1040,"Wien","Österreich",,,,,,
"BAL DEMETER Immobilien Leasing GmbH","Finanzinstitut","Operngasse 21",1040,"Wien","Österreich",,,,,,
"BAL HESTIA Immobilien Leasing GmbH","Finanzinstitut","Operngasse 21",1040,"Wien","Österreich",,,,,,
"BAL HORUS Immobilien Leasing GmbH","Finanzinstitut","Operngasse 21",1040,"Wien","Österreich",,,,,,
"BAL HYPNOS Immobilien Leasing GmbH","Finanzinstitut","Operngasse 21",1040,"Wien","Österreich",,,,,,
"BAL LETO Immobilien Leasing GmbH","Finanzinstitut","Operngasse 21",1040,"Wien","Österreich",,,,,,
"BAL OSIRIS Immobilien Leasing Gesellschaft m.b.H.","Finanzinstitut","Operngasse 21",1040,"Wien","Österreich",,,,,,
"BAL SOBEK Immobilien Leasing GmbH","Finanzinstitut","Operngasse 21",1040,"Wien","Österreich",,,,,,
"Bank Austria Creditanstalt Leasing Immobilienanlagen GmbH","Finanzinstitut","Operngasse 21",1040,"Wien","Österreich",,,,,,
"Bank Austria Leasing ARGO Immobilien Leasing GmbH","Finanzinstitut","Operngasse 21",1040,"Wien","Österreich",,,,,,
"Bank Austria Leasing HERA Immobilien Leasing GmbH","Finanzinstitut","Operngasse 21",1040,"Wien","Österreich",,,,,,
"Bank Austria Leasing Ikarus Immobilien Leasing Gesellschaft m.b.H.","Finanzinstitut","Operngasse 21",1040,"Wien","Österreich",,,,,,
"Bank Austria Leasing MEDEA Immobilien Leasing GmbH","Finanzinstitut","Operngasse 21",1040,"Wien","Österreich",,,,,,
"Baulandentwicklung Gdst 1682/8 GmbH & Co OEG","Finanzinstitut","Operngasse 21",1040,"Wien","Österreich",,,,,,
"Baumgartner Höhe RBI Leasing-Immobilien GmbH","Finanzinstitut","Mooslackengasse 12",1190,"Wien","Österreich",,,,,,
"BAWAG P.S.K. IMMOBILIEN GmbH","Finanzinstitut","Georg Coch-Platz 2",1010,"Wien","Österreich",,,,,,
"BAWAG P.S.K. IMMOBILIENLEASING GmbH","Finanzinstitut","Quellenstraße 51-55",1100,"Wien","Österreich",,,,,,
"BAWAG P.S.K. Kommerzleasing GmbH","Finanzinstitut","Quellenstraße 51-55",1100,"Wien","Österreich",,,,,,
"BAWAG P.S.K. LEASING GmbH","Finanzinstitut","Quellenstraße 51-55",1100,"Wien","Österreich",,,,,,
"BAWAG P.S.K. LEASING GmbH & Co. MOBILIENLEASING KG.","Finanzinstitut","Quellenstraße 51-55",1100,"Wien","Österreich",,,,,,
"BAWAG P.S.K. LEASING Holding GmbH","Finanzinstitut","Quellenstraße 51-55",1100,"Wien","Österreich",,,,,,
"BAWAG P.S.K. MOBILIENLEASING GmbH","Finanzinstitut","Quellenstraße 51-55",1100,"Wien","Österreich",,,,,,
"BB Leasing GmbH","Finanzinstitut","Hauptstraße 33a/2. Stock",7000,"Eisenstadt","Österreich",,,,,,
"BB LEASING HOLDING GmbH","Finanzinstitut","Neusiedler Straße 33",7000,"Eisenstadt","Österreich",,,,,,
"BBG Beratungs- und Beteiligungsgesellschaft m.b.H.","Finanzinstitut","St. Julien Str. 12",5020,"Salzburg","Österreich",,,,,,
"Berger Truck Service Verwaltungs GmbH","Finanzinstitut","Hypo-Passage 2",6020,"Innsbruck","Österreich",,,,,,
"Beteiligungsverwaltungsgesellschaft der Bank Austria Creditanstalt Leasing GmbH","Finanzinstitut","Operngasse 21",1040,"Wien","Österreich",,,,,,
"Betriebsliegenschaft Eferding 4070 GmbH","Finanzinstitut","Landstraße 38",4020,"Linz","Österreich",,,,,,
"BGM - IMMORENT Aktiengesellschaft & Co KG","Finanzinstitut","Am Belvedere 1",1100,"Wien","Österreich",,,,,,
"BKS-Leasing Gesellschaft m.b.H.","Finanzinstitut","St. Veiter Ring 43",9020,"Klagenfurt","Österreich",,,,,,
"BMW Austria Leasing GmbH","Finanzinstitut","Siegfried Marcus-Str. 24",5020,"Salzburg","Österreich",,,,,,
"BNP PARIBAS Lease Group GmbH & Co KG","Finanzinstitut","Vordere Zollamtsstraße 13",1030,"Wien","Österreich",,,,,,
"Bonus Immobilientreuhand GmbH","Finanzinstitut","Adlerstraße 1",4600,"Wels","Österreich",,,,,,
"Border Leasing Grundstücksverwaltungs-Gesellschaft m.b.H.","Finanzinstitut","Anastasius Grün-Gasse 49",1180,"Wien","Österreich",,,,,,
"Brewo Grundstücksverwaltungs-Gesellschaft m.b.H.","Finanzinstitut","Operngasse 21",1040,"Wien","Österreich",,,,,,
"BRL Raiffeisen-Immobilien-Leasing Gesellschaft m.b.H.","Finanzinstitut","Mooslackengasse 12",1190,"Wien","Österreich",,,,,,
"BTV Leasing Gesellschaft m.b.H.","Finanzinstitut","Stadtforum 1",6020,"Innsbruck","Österreich",,,,,,
"BTV-Anlagenleasing 1 GmbH","Finanzinstitut","Stadtforum 1",6020,"Innsbruck","Österreich",,,,,,
"BTV-Anlagenleasing 2 GmbH","Finanzinstitut","Stadtforum 1",6020,"Innsbruck","Österreich",,,,,,
"BTV-Anlagenleasing 3 Gesellschaft m.b.H.","Finanzinstitut","Stadtforum 1",6020,"Innsbruck","Österreich",,,,,,
"BTV-Anlagenleasing 4 GmbH","Finanzinstitut","Stadtforum 1",6020,"Innsbruck","Österreich",,,,,,
"BTV-Real-Leasing Gesellschaft m.b.H.","Finanzinstitut","Tegetthoffstraße 7",1010,"Wien","Österreich",,,,,,
"BTV-Real-Leasing I Gesellschaft m.b.H.","Finanzinstitut","Stadtforum 1",6020,"Innsbruck","Österreich",,,,,,
"BTV-Real-Leasing II Gesellschaft m.b.H.","Finanzinstitut","Stadtforum 1",6020,"Innsbruck","Österreich",,,,,,
"BTV-Real-Leasing III Nachfolge GmbH & Co KG","Finanzinstitut","Stadtforum 1",6020,"Innsbruck","Österreich",,,,,,
"BTV-Real-Leasing IV Gesellschaft m.b.H.","Finanzinstitut","Stadtforum 1",6020,"Innsbruck","Österreich",,,,,,
"BTV-Real-Leasing V Gesellschaft mbH","Finanzinstitut","Stadtforum 1",6020,"Innsbruck","Österreich",,,,,,
"BTV-Real-Leasing VI Gesellschaft mbH","Finanzinstitut","Fiecht Au 30",6134,"Vomp","Österreich",,,,,,
"Burgenländische Kommunalgebäudeleasing Gesellschaft m.b.H.","Finanzinstitut","Mooslackengasse 12",1190,"Wien","Österreich",,,,,,
"bx ISAT GmbH in Liqu.","Finanzinstitut","c/o DORDA BRUGGER JORDIS Rechtsanwälte GmbH, Universitätsring 10",1010,"Wien","Österreich",,,,,,
"B52 RBI Leasing-Immobilien GmbH","Finanzinstitut","Mooslackengasse 12",1190,"Wien","Österreich",,,,,,
"C & I Leasing Gesellschaft m.b.H.","Finanzinstitut","Cottagegasse 1/4",1180,"Wien","Österreich",,,,,,
"CADO Raiffeisen-Immobilien-Leasing Gesellschaft m.b.H.","Finanzinstitut","Mooslackengasse 12",1190,"Wien","Österreich",,,,,,
"CAE Immobilien GmbH","Finanzinstitut","Laxenburgerstraße 244",1230,"Wien","Österreich",,,,,,
"""CALCULATOR Grundstückvermietungs Gesellschaft m.b.H.""","Finanzinstitut","Hypogasse 1",3100,"St. Pölten","Österreich",,,,,,
"CALDO Grundstücksverwertungsgesellschaft m.b.H.","Finanzinstitut","Am Belvedere 1",1100,"Wien","Österreich",,,,,,
"CA-Leasing Senioren Park GmbH","Finanzinstitut","Operngasse 21",1040,"Wien","Österreich",,,,,,
"CALG Alpha Grundstückverwaltung GmbH","Finanzinstitut","Operngasse 21",1040,"Wien","Österreich",,,,,,
"CALG Anlagen Leasing GmbH","Finanzinstitut","Operngasse 21",1040,"Wien","Österreich",,,,,,
"CALG Delta Grundstückverwaltung GmbH","Finanzinstitut","Operngasse 21",1040,"Wien","Österreich",,,,,,
"CALG Gamma Grundstückverwaltung GmbH","Finanzinstitut","Operngasse 21",1040,"Wien","Österreich",,,,,,
"CALG Grundstückverwaltung GmbH","Finanzinstitut","Operngasse 21",1040,"Wien","Österreich",,,,,,
"CALG Immobilien Leasing GmbH","Finanzinstitut","Operngasse 21",1040,"Wien","Österreich",,,,,,
"CALG Immobilien Leasing GmbH & Co. Projekt Vier OG","Finanzinstitut","Operngasse 21",1040,"Wien","Österreich",,,,,,
"CALG Immobilien Leasing GmbH & Co. 1120 Wien, Schönbrunner Schlossstraße 38-42 OG","Finanzinstitut","Operngasse 21",1040,"Wien","Österreich",,,,,,
"CALG Minal Grundstückverwaltung GmbH","Finanzinstitut","Operngasse 21",1040,"Wien","Österreich",,,,,,
"CALG 307 Mobilien Leasing GmbH","Finanzinstitut","Operngasse 21",1040,"Wien","Österreich",,,,,,
"CALG 443 Grundstückverwaltung GmbH","Finanzinstitut","Operngasse 21",1040,"Wien","Österreich",,,,,,
"CALG 445 Grundstückverwaltung GmbH","Finanzinstitut","Operngasse 21",1040,"Wien","Österreich",,,,,,
"CALG 451 Grundstückverwaltung GmbH","Finanzinstitut","Operngasse 21",1040,"Wien","Österreich",,,,,,
"CALLIDUS Grundstückvermietungs Gesellschaft m.b.H.","Finanzinstitut","Hypogasse 1",3100,"St. Pölten","Österreich",,,,,,
"CANOPA Raiffeisen-Immobilien-Leasing Gesellschaft m.b.H.","Finanzinstitut","Mooslackengasse 12",1190,"Wien","Österreich",,,,,,
"Cargobull Finance GmbH","Finanzinstitut","Bayernstraße 147",5071,"Wals bei Salzburg","Österreich",,,,,,
"CarPartner Leasing GmbH","Finanzinstitut","Bauernstr. 9",4600,"Wels","Österreich",,,,,,
"Casinos Austria AG Liegenschaftsverwaltungs- und Leasinggesellschaft m.b.H.","Finanzinstitut","Rennweg 44",1038,"Wien","Österreich",,,,,,
"Castellani Leasing GmbH","Finanzinstitut","Operngasse 21",1040,"Wien","Österreich",,,,,,
"CERES Raiffeisen-Immobilien-Leasing GmbH","Finanzinstitut","Mooslackengasse 12",1190,"Wien","Österreich",,,,,,
"Charade Leasing Gesellschaft m.b.H.","Finanzinstitut","Operngasse 21",1040,"Wien","Österreich",,,,,,
"Chefren Leasing GmbH","Finanzinstitut","Operngasse 21",1040,"Wien","Österreich",,,,,,
"Cheops Immobilien GmbH","Finanzinstitut","Kohlmarkt 6 / Wallnerstraße 2",1010,"Wien","Österreich",,,,,,
"Ciconia Immobilienleasing GmbH","Finanzinstitut","Kaiserfeldgasse 5",8010,"Graz","Österreich",,,,,,
"Cinci-Immorent Grundverwertungsgesellschaft m.b.H.","Finanzinstitut","Am Belvedere 1",1100,"Wien","Österreich",,,,,,
"CINOVA RBI Leasing-Immobilien GmbH","Finanzinstitut","Mooslackengasse 12",1190,"Wien","Österreich",,,,,,
"Civitas Immobilien Leasing Gesellschaft m.b.H.","Finanzinstitut","Operngasse 21",1040,"Wien","Österreich",,,,,,
"CLIVUS Grundstückvermietungs Gesellschaft m.b.H.","Finanzinstitut","Hypogasse 1",3100,"St. Pölten","Österreich",,,,,,
"CNH Industrial Capital Europe GmbH","Finanzinstitut","Vordere Zollamtsstraße 13",1030,"Wien","Österreich",,,,,,
"COL GmbH","Finanzinstitut","Perfektastraße 102",1230,"Wien","Österreich",,,,,,
"Columbia Beteiligungs GmbH","Finanzinstitut","Kaiserfeldgasse 5",8010,"Graz","Österreich",,,,,,
"COMITAS Grundstückvermietungs Gesellschaft m.b.H.","Finanzinstitut","Hypogasse 1",3100,"St. Pölten","Österreich",,,,,,
"Communa - Leasing Grundstücksverwaltungs-Gesellschaft m.b.H.","Finanzinstitut","Operngasse 21",1040,"Wien","Österreich",,,,,,
"CONATUS Grundstückvermietungs Gesellschaft m.b.H.","Finanzinstitut","Hypogasse 1",3100,"St. Pölten","Österreich",,,,,,
"""Concordia"" Liegenschaftsverwaltungs- und Vermietungsgesellschaft m.b.H.","Finanzinstitut","Schwindgasse 7/11",1040,"Wien","Österreich",,,"+43512577210",,,
"Contra Leasing-Gesellschaft m.b.H.","Finanzinstitut","Operngasse 21",1040,"Wien","Österreich",,,,,,
"CPB ALPHA Anlagen Leasing GmbH","Finanzinstitut","Wienerbergstraße 11",1100,"Wien","Österreich",,,,,,
"CPB BETA Anlagen Leasing GmbH","Finanzinstitut","Wienerbergstraße 11",1100,"Wien","Österreich",,,,,,
"CPB DELTA Anlagen Leasing GmbH","Finanzinstitut","Wienerbergstraße 11",1100,"Wien","Österreich",,,,,,
"CPB DREI Anlagen Leasing GmbH","Finanzinstitut","Wienerbergstraße 11",1100,"Wien","Österreich",,,,,,
"CPB EPSILON Anlagen Leasing GmbH","Finanzinstitut","Wienerbergstraße 11",1100,"Wien","Österreich",,,,,,
"CPB Grundstücks und Mobilien Vermietungs GmbH","Finanzinstitut","Wienerbergstraße 11",1100,"Wien","Österreich",,,,,,
"CPB JOTA Anlagen Leasing GmbH","Finanzinstitut","Wienerbergstraße 11",1100,"Wien","Österreich",,,,,,
"CPB OMIKRON Anlagen Leasing GmbH","Finanzinstitut","Wienerbergstraße 11",1100,"Wien","Österreich",,,,,,
"CPB Realitäten und Mobilien Vermietungs GmbH","Finanzinstitut","Wienerbergstraße 11",1100,"Wien","Österreich",,,,,,
"CULINA Grundstückvermietungs Gesellschaft m.b.H.","Finanzinstitut","Hypogasse 1",3100,"St. Pölten","Österreich",,,,,,
"CUPIDO Raiffeisen-Immobilien-Leasing GmbH","Finanzinstitut","Mooslackengasse 12",1190,"Wien","Österreich",,,,,,
"CURIA Grundstückvermietungs Gesellschaft m.b.H.","Finanzinstitut","Hypogasse 1",3100,"St. Pölten","Österreich",,,,,,
"CURO Raiffeisen-Immobilien-Leasing Gesellschaft m.b.H.","Finanzinstitut","Mooslackengasse 12",1190,"Wien","Österreich",,,,,,
"CVG Immobilien GmbH","Finanzinstitut","Quellenstraße 51-55",1100,"Wien","Österreich",,,,,,
"DAILY Tiefkühlhaus ErrichtungsgmbH","Finanzinstitut","Europaplatz 1a",4020,"Linz","Österreich",,,,,,
"DENAR-Immorent Grundverwertungsgesellschaft m.b.H.","Finanzinstitut","Am Belvedere 1",1100,"Wien","Österreich",,,,,,
"Denzel Leasing Gesellschaft mbH","Finanzinstitut","Erdbergstraße 189-193",1030,"Wien","Österreich",,,,,,
"Deutsche Leasing Austria GmbH","Finanzinstitut","Faulmanngasse 4/Top 2",1040,"Wien","Österreich",,,,,,
"DIE ERSTE Leasing Grundaufschließungs- und Immobilienvermietungsgesellschaft m.b.H.","Finanzinstitut","Am Belvedere 1",1100,"Wien","Österreich",,,,,,
"DIE ERSTE Leasing Grundbesitzgesellschaft m.b.H.","Finanzinstitut","Am Belvedere 1",1100,"Wien","Österreich",,,,,,
"DIE ERSTE Leasing Grundstückverwaltungsgesellschaft m.b.H.","Finanzinstitut","Am Belvedere 1",1100,"Wien","Österreich",,,,,,
"DIE ERSTE Leasing Immobilien Vermietungsgesellschaft m.b.H.","Finanzinstitut","Am Belvedere 1",1100,"Wien","Österreich",,,,,,
"DIE ERSTE Leasing Immobilienbesitzgesellschaft m.b.H.","Finanzinstitut","Am Belvedere 1",1100,"Wien","Österreich",,,,,,
"DIE ERSTE Leasing Immobilienverwaltungs- und -vermietungsgesellschaft m.b.H.","Finanzinstitut","Am Belvedere 1",1100,"Wien","Österreich",,,,,,
"DIE ERSTE Leasing Realitätenverwaltungsgesellschaft m.b.H.","Finanzinstitut","Am Belvedere 1",1100,"Wien","Österreich",,,,,,
"DIE EVA - Liegenschaftsverwaltungsgesellschaft m.b.H.","Finanzinstitut","Am Belvedere 1",1100,"Wien","Österreich",,,,,,
"""DIE EVA"" Grundstückverwaltungsgesellschaft m.b.H.","Finanzinstitut","Am Belvedere 1",1100,"Wien","Österreich",,,,,,
"DIE EVA-Gebäudeleasinggesellschaft m.b.H.","Finanzinstitut","Am Belvedere 1",1100,"Wien","Österreich",,,,,,
"DIE EVA-Immobilienleasing und -erwerb Gesellschaft m.b.H.","Finanzinstitut","Am Belvedere 1",1100,"Wien","Österreich",,,,,,
"Die Niederösterreichische Leasing Gesellschaft m.b.H. & Co. KG","Finanzinstitut","Mooslackengasse 12",1190,"Wien","Österreich",,,,,,
"Dienstleistungszentrum Leoben GmbH","Finanzinstitut","Andreas-Hofer-Platz 17",8010,"Graz","Österreich",,,,,,
"DLV Immobilien Leasing Gesellschaft m.b.H.","Finanzinstitut","Operngasse 21",1040,"Wien","Österreich",,,,,,
"""DÖHAU"" Liegenschaftsges.m.b.H.","Finanzinstitut","Kaiserfeldgasse 5",8010,"Graz","Österreich",,,,,,
"Domus IC Leasinggesellschaft m.b.H.","Finanzinstitut","St. Julien-Str. 12",5020,"Salzburg","Österreich",,,,,,
"Doro Dorotheergasse 17 Liegenschaftsverwaltung GmbH","Finanzinstitut","Dorotheergasse 17",1010,"Wien","Österreich",,,,,,
"DOROS Raiffeisen-Immobilien-Leasing GmbH","Finanzinstitut","Mooslackengasse 12",1190,"Wien","Österreich",,,,,,
"DUODEC Z Immobilien Leasing Gesellschaft m.b.H.","Finanzinstitut","Operngase 21",1040,"Wien","Österreich",,,,,,
"easyleasing GmbH","Finanzinstitut","Quellenstraße 51-55",1100,"Wien","Österreich",,,,,,
"EHRENHÖFLER Leasing Gesellschaft m.b.H.","Finanzinstitut","Römerstraße 39",4600,"Wels","Österreich",,,,,,
"EKZ-Immorent Vermietung GmbH","Finanzinstitut","Am Belvedere 1",1100,"Wien","Österreich",,,,,,
"Empusa Leasinggesellschaft m.b.H.","Finanzinstitut","Reisingergasse 9 Top 7",1100,"Wien","Österreich",,,,,,
"EPS Dike West-IBC GmbH","Finanzinstitut","Floridsdorfer Hauptstraße 1",1210,"Wien","Österreich",,,,,,
"Epsilon - Grundverwertungsgesellschaft m.b.H.","Finanzinstitut","Am Belvedere 1",1100,"Wien","Österreich",,,,,,
"ERFOLG Liegenschaftsvermietungs GmbH","Finanzinstitut","Hypo-Passage 2",6020,"Innsbruck","Österreich",,,,,,
"Erste Bank und Sparkassen Leasing GmbH","Finanzinstitut","Am Belvedere 1",1100,"Wien","Österreich",,,,,,
"Erste Group Immorent AG","Finanzinstitut","Am Belvedere 1",1100,"Wien","Österreich",,,,,,
"Esquilin Grundstücksverwaltungs Gesellschaft m.b.H.","Finanzinstitut","Hypogasse 1",3100,"St. Pölten","Österreich",,,,,,
"ETEOKLES Raiffeisen-Immobilien-Leasing GmbH","Finanzinstitut","Mooslackengasse 12",1190,"Wien","Österreich",,,,,,
"Eurolease AMUN Immobilien Leasing Gesellschaft m.b.H.","Finanzinstitut","Operngasse 21",1040,"Wien","Österreich",,,,,,
"Eurolease ANUBIS Immobilien Leasing Gesellschaft m.b.H.","Finanzinstitut","Operngasse 21",1040,"Wien","Österreich",,,,,,
"Eurolease ISIS Immobilien Leasing Gesellschaft m.b.H.","Finanzinstitut","Operngasse 21",1040,"Wien","Österreich",,,,,,
"Eurolease MARDUK Immobilien Leasing Gesellschaft m.b.H.","Finanzinstitut","Operngasse 21",1040,"Wien","Österreich",,,,,,
"Eurolease RA Immobilien Leasing Gesellschaft m.b.H.","Finanzinstitut","Operngasse 21",1040,"Wien","Österreich",,,,,,
"Eurolease RAMSES Immobilien Leasing Gesellschaft m.b.H.","Finanzinstitut","Operngasse 21",1040,"Wien","Österreich",,,,,,
"EUROPASTEG Errichtungs- und Betriebs GmbH","Finanzinstitut","Petersbrunnstraße 3",5020,"Salzburg","Österreich",,,,,,
"Eurotherme Bad Schallerbach Hotelerrichtungsgesellschaft m.b.H.","Finanzinstitut","Landstr. 38",4020,"Linz","Österreich",,,,,,
"EVA-Immobilienvermietungs- und -verwertungsgesellschaft m.b.H.","Finanzinstitut","Am Belvedere 1",1100,"Wien","Österreich",,,,,,
"Eva-Immobilienverwaltungsgesellschaft m.b.H.","Finanzinstitut","Am Belvedere 1",1100,"Wien","Österreich",,,,,,
"Eva-Realitätenverwaltungsgesellschaft m.b.H.","Finanzinstitut","Am Belvedere 1",1100,"Wien","Österreich",,,,,,
"Expanda Immobilien Leasing Gesellschaft m.b.H.","Finanzinstitut","Operngasse 21",1040,"Wien","Österreich",,,,,,
"F & S Leasing GmbH","Finanzinstitut","August Jaksch Straße 16",9020,"Klagenfurt","Österreich",,,,,,
"FACILITAS Grundstückvermietungs Gesellschaft m.b.H.","Finanzinstitut","Hypogasse 1",3100,"St. Pölten","Österreich",,,5350310,,,
"FAMOB Mobilien- und Anlagenleasing Gesellschaft m.b.H.","Finanzinstitut","Friesacher Straße 19",9300,"St. Veit an der Glan","Österreich",,,,,,
"FAVIA Grundstückvermietungs Gesellschaft m.b.H.","Finanzinstitut","Hypogasse 1",3100,"St. Pölten","Österreich",,,,,,
"FCA Leasing GmbH","Finanzinstitut","Schönbrunner Straße 297-307",1120,"Wien","Österreich",,,,,,
"FEBRIS Raiffeisen-Immobilien-Leasing GmbH","Finanzinstitut","Mooslackengasse 12",1190,"Wien","Österreich",,,,,,
"FELMA Immobilien GmbH","Finanzinstitut","Wagramer Straße 252",1220,"Wien","Österreich",,,,,,
"Fides Anlagen- und Maschinen-Vermietung Gesellschaft m.b.H.","Finanzinstitut","Bauernmarkt 2",1010,"Wien","Österreich",,,,,,
"FIDES I Immobilienanlagen Gesellschaft m.b.H.","Finanzinstitut","Bauernmarkt 2",1010,"Wien","Österreich",,,,,,
"Fides Leasing GmbH","Finanzinstitut","Operngasse 21",1040,"Wien","Österreich",,,,,,
"FINN Arsenal Leasing GmbH","Finanzinstitut","Operngasse 21",1040,"Wien","Österreich",,,,,,
"First Leasing Service Center GmbH","Finanzinstitut","Mooslackengasse 12",1190,"Wien","Österreich",,,,,,
"FMZ Sigma Projektentwicklungs GmbH","Finanzinstitut","Operngasse 21",1040,"Wien","Österreich",,,,,,
"Folia Leasing Gesellschaft m.b.H.","Finanzinstitut","Operngasse 21",1040,"Wien","Österreich",,,,,,
"FORIS Grundstückvermietungs Gesellschaft m.b.H.","Finanzinstitut","Hypogasse 1",3100,"St. Pölten","Österreich",,,,,,
"Forum IC Leasinggesellschaft m.b.H.","Finanzinstitut","St. Julien Str. 12",5020,"Salzburg","Österreich",,,,,,
"Fugato Leasing Gesellschaft m.b.H.","Finanzinstitut","Operngasse 21",1040,"Wien","Österreich",,,,,,
"FUKO-Immorent Grundverwertungsgesellschaft m.b.H.","Finanzinstitut","Am Belvedere 1",1100,"Wien","Österreich",,,,,,
"G + R Leasing Gesellschaft m.b.H. & Co. KG.","Finanzinstitut","Kaiserfeldgasse 5-7",8010,"Graz","Österreich",,,,,,
"GALA Grundstückverwaltung Gesellschaft m.b.H.","Finanzinstitut","Operngasse 21",1040,"Wien","Österreich",,,,,,
"GAMMA HYPO Grund- und Bau-Leasing Gesellschaft m.b.H.","Finanzinstitut","Petersbrunnstraße 3",5020,"Salzburg","Österreich",,,,,,
"Gara RPK Grundstücksverwaltungsgesellschaft m.b.H.","Finanzinstitut","Quellenstraße 51-55",1100,"Wien","Österreich",,,,,,
"Garage Eisenstadt Betriebsgesellschaft m.b.H.","Finanzinstitut","Am Belvedere 1",1100,"Wien","Österreich",,,,,,
"GBS Grundstücksverwaltungsgesellschaft m.b.H.","Finanzinstitut","Operngasse 21",1040,"Wien","Österreich",,,,,,
"Gebäudeleasing Grundstücksverwaltungs-Gesellschaft m.b.H.","Finanzinstitut","Operngasse 21",1040,"Wien","Österreich",,,,,,
"Gemeindeleasing Grundstückverwaltung Gesellschaft m.b.H.","Finanzinstitut","Operngasse 21",1040,"Wien","Österreich",,,,,,
"Generali Leasing GmbH","Finanzinstitut","Landskrongasse 1-3",1010,"Wien","Österreich",,,,,,
"GENO Leasing Gesellschaft m.b.H.","Finanzinstitut","Mooslackengasse 12",1190,"Wien","Österreich",,,"+4317160121",,,
"GGJ Beteiligungs GmbH & Co Projekt Sieben OG","Finanzinstitut","Alserbachstraße 32",1090,"Wien","Österreich",,,,,,
"GIROLEASING-Mobilienvermietungsgesellschaft m.b.H.","Finanzinstitut","Am Belvedere 1",1100,"Wien","Österreich",,,,,,
"Grundstücksgesellschaft Hotel Lerchenfelder Gürtel 9-11 mbH","Finanzinstitut","Lerchenfeldergürtel 7",1160,"Wien","Österreich",,,,,,
"Grundstücksverwaltung Linz-Mitte GmbH","Finanzinstitut","Operngasse 21",1040,"Wien","Österreich",,,,,,
"Grundstücksverwaltung Salzburg-Mitte GmbH","Finanzinstitut","Kaiserfeldgasse 5",8010,"Graz","Österreich",,,,,,
"Grundstücksverwaltung Steyr GmbH","Finanzinstitut","Europaplatz 1a",4020,"Linz","Österreich",,,,,,
"Grundstücksverwaltung Villach-Süd GmbH","Finanzinstitut","Schillerstr. 68",4020,"Linz","Österreich",,,,,,
"GZ Immobilienverwaltungs GmbH","Finanzinstitut","Dr.-Kraitschek-Gasse 7-9",2486,"Pottendorf","Österreich",,,,,,
"GZ-Finanz Leasing Gesellschaft m.b.H.","Finanzinstitut","Am Belvedere 1",1100,"Wien","Österreich",,,,,,
"HABITO Raiffeisen-Immobilien-Leasing GmbH","Finanzinstitut","Mooslackengasse 12",1190,"Wien","Österreich",,,,,,
"Hainburger Straße 15 ProjektentwicklungsgmbH","Finanzinstitut","Thomas-Klestil-Platz 3",1030,"Wien","Österreich",,,,,,
"HBV Beteiligungs-GmbH","Finanzinstitut","Hypogasse 1",3100,"St.Pölten","Österreich",,,,,,
"HBV Holding und Beteiligungsverwaltung GmbH.","Finanzinstitut","Quellenstraße 51-55",1100,"Wien","Österreich",,,,,,
"Hebbel Projektentwicklung Gesellschaft mbH","Finanzinstitut","Hypo-Passage 2",6020,"Innsbruck","Österreich",,,,,,
"""HERA"" Grundstücksverwaltungsgesellschaft m.b.H.","Finanzinstitut","Poststraße 11",6850,"Dornbirn","Österreich",,,,,,
"HERA Raiffeisen-Immobilien-Leasing Gesellschaft m.b.H.","Finanzinstitut","Mooslackengasse 12",1190,"Wien","Österreich",,,,,,
"HERKU Leasing Gesellschaft m.b.H.","Finanzinstitut","Operngasse 21",1040,"Wien","Österreich",,,,,,
"Herkules Holding GmbH","Finanzinstitut","Wildpretmarkt 2-4",1010,"Wien","Österreich",,,,,,
"Herkules Hotel Errichtungs- und Verwaltungsgesellschaft m.b.H.","Finanzinstitut","Wildpretmarkt 2-4",1010,"Wien","Österreich",,,,,,
"HESTIA Raiffeisen-Immobilien-Leasing Gesellschaft m.b.H. in Liqu.","Finanzinstitut","Mooslackengasse 12",1190,"Wien","Österreich",,,,,,
"HETA ASSET RESOLUTION AG","Finanzinstitut","Alpen-Adria-Platz 1",9020,"Klagenfurt","Österreich",,,,,,
"HETA Asset Resolution Leasing GmbH","Finanzinstitut","Alpen-Adria-Platz 1",9020,"Klagenfurt am Wörthersee","Österreich",,,,,,
"HETA BA Leasing Süd GmbH","Finanzinstitut","Alpen-Adria-Platz 1",9020,"Klagenfurt am Wörthersee","Österreich",,,,,,
"HETA Grund- und Bau-Leasing GmbH","Finanzinstitut","Alpen-Adria-Platz 1",9020,"Klagenfurt am Wörthersee","Österreich",,,,,,
"HETA Immobilien- und Bauconsult GmbH","Finanzinstitut","Alpen-Adria-Platz 1",9020,"Klagenfurt am Wörthersee","Österreich",,,,,,
"HETA Leasing Kärnten GmbH & Co KG","Finanzinstitut","Alpen-Adria-Platz 1",9020,"Klagenfurt am Wörthersee","Österreich",,,,,,
"HETA Luftfahrzeuge Leasing GmbH","Finanzinstitut","Alpen-Adria-Platz 1",9020,"Klagenfurt am Wörthersee","Österreich",,,,,,
"HETA Real Estate GmbH","Finanzinstitut","Alpen-Adria-Platz 1",9020,"Klagenfurt am Wörthersee","Österreich",,,,,,
"HFE alpha Handels-GmbH","Finanzinstitut","Quellenstraße 51-55",1100,"Wien","Österreich",,,,,,
"Hietzinger-Spitz Projektentwicklung GmbH","Finanzinstitut","Mooslackengasse 12",1190,"Wien","Österreich",,,,,,
"HIL Baumarkt Triester Straße Immobilienleasing GmbH","Finanzinstitut","Poststraße 11",6850,"Dornbirn","Österreich",,,,,,
"HIL BETA Mobilienverwertung GmbH","Finanzinstitut","Poststraße 11",6850,"Dornbirn","Österreich",,,,,,
"HIL EPSILON Mobilienleasing GmbH","Finanzinstitut","Poststraße 11",6850,"Dornbirn","Österreich",,,,,,
"HIL Immobilien GmbH","Finanzinstitut","Poststraße 11",6850,"Dornbirn","Österreich",,,,,,
"HIL Mobilienleasing GmbH & Co KG","Finanzinstitut","Poststraße 11",6850,"Dornbirn","Österreich",,,,,,
"HIL Real Estate alpha GmbH","Finanzinstitut","Poststraße 11",6850,"Dornbirn","Österreich",,,,,,
"""HO-IMMOTREU"" Grundstücksverwaltungsgesellschaft m.b.H.","Finanzinstitut","Poststraße 11",6850,"Dornbirn","Österreich",,,,,,
"HONEU Leasing Gesellschaft m.b.H.","Finanzinstitut","Operngasse 21",1040,"Wien","Österreich",,,,,,
"HOSPES-Grundstückverwaltungs Gesellschaft m.b.H.","Finanzinstitut","Hypogasse 1",3100,"St. Pölten","Österreich",,,,,,
"Hotel et Residence Sans Souci de Vienne GmbH","Finanzinstitut","Wiedner Hauptstraße 57/3",1040,"Wien","Österreich",,,,,,
"Hotel- und Sportstätten-Beteiligungs-, Errichtungs- und Betriebsgesellschaft m.b.H.","Finanzinstitut","Am Belvedere 1",1100,"Wien","Österreich",,,,,,
"Hotel- und Sportstätten-Beteiligungs-, Errichtungs- und Betriebsgesellschaft m.b.H. Leasing KG","Finanzinstitut","Hypogasse 1",3100,"St. Pölten","Österreich",,,,,,
"HYPO Alpha Immobilienerrichtungs- und Verwertungs GmbH","Finanzinstitut","Hypogasse 1",3100,"St. Pölten","Österreich",,,,,,
"HYPO Beteiligung Gesellschaft m.b.H.","Finanzinstitut","Residenzpl. 7",5020,"Salzburg","Österreich",,,,,,
"HYPO Grund- und Bau-Leasing Gesellschaft m.b.H.","Finanzinstitut","Petersbrunnstraße 3",5020,"Salzburg","Österreich",,,,,,
"Hypo Immobilien Anlagen GmbH","Finanzinstitut","Landstraße 38",4020,"Linz","Österreich",,,,,,
"Hypo Immobilien Besitz GmbH","Finanzinstitut","Poststraße 11",6850,"Dornbirn","Österreich",,,,,,
"Hypo Immobilienleasing Gesellschaft m.b.H.","Finanzinstitut","Poststraße 11",6850,"Dornbirn","Österreich",,,,,,
"HYPO IMPULS Immobilien Leasing GmbH","Finanzinstitut","Petersbrunnstraße 3",5020,"Salzburg","Österreich",,,,,,
"HYPO IMPULS Immobilien Rif GmbH","Finanzinstitut","Petersbrunnstraße 3",5020,"Salzburg","Österreich",,,,,,
"HYPO IMPULS Mobilien Leasing GmbH","Finanzinstitut","Europaplatz 1a",4020,"Linz","Österreich",,,,,,
"HYPO IMPULS Vital Leasing GmbH","Finanzinstitut","Petersbrunnstraße 3",5020,"Salzburg","Österreich",,,,,,
"HYPO Liegenschaftsverwertungs Gesellschaft m.b.H.","Finanzinstitut","Rudolfskai 50",5020,"Salzburg","Österreich",,,,,,
"HYPO Niederösterreich-Immobilienleasinggesellschaft m.b.H.","Finanzinstitut","Hypogasse 1",3100,"St. Pölten","Österreich",,,,,,
"HYPO Niederösterreichische Liegenschaft GmbH","Finanzinstitut","Hypogasse 1",3100,"St. Pölten","Österreich",,,,,,
"HYPO NOE Immobilien Beteiligungsholding GmbH","Finanzinstitut","Hypogasse 1",3100,"St.Pölten","Österreich",,,,,,
"HYPO NOE Leasing GmbH","Finanzinstitut","Hypogasse 1",3100,"St. Pölten","Österreich",,,,,,
"HYPO Salzburg IMPULS Leasing GmbH","Finanzinstitut","Petersbrunnstraße 3",5020,"Salzburg","Österreich",,,,,,
"HYPO Steiermark Immobilienleasing GmbH","Finanzinstitut","Kaiserfeldgasse 5",8010,"Graz","Österreich",,,,,,
"HYPO Steiermark Kommunal- und Gebäudeleasing GmbH","Finanzinstitut","Kaiserfeldgasse 5",8010,"Graz","Österreich",,,,,,
"HYPO Steiermark Leasing - Holding GmbH","Finanzinstitut","Kaiserfeldgasse 5",8010,"Graz","Österreich",,,,,,
"HYPO Steiermark PUNTI Grundstücksverwaltung GmbH","Finanzinstitut","Kaiserfeldgasse 5",8010,"Graz","Österreich",,,,,,
"HYPO TIROL LEASING GMBH","Finanzinstitut","Hypo-Passage 2",6020,"Innsbruck","Österreich",,,,,,
"Hypo Tirol Leasing Wiener Betriebsansiedlungen GmbH","Finanzinstitut","Hypo-Passage 2",6020,"Innsbruck","Österreich",,,,,,
"HYPO-IMPULS Immobilien GmbH","Finanzinstitut","Landstr. 38",4010,"Linz","Österreich",,,,,,
"HYPO-IMPULS-Alpha Immobilien GmbH in Liqu.","Finanzinstitut","Schillerstr. 68",4020,"Linz","Österreich",,,,,,
"HYPO-REAL 93 Mobilien-Leasinggesellschaft m.b.H.","Finanzinstitut","Hypogasse 1",3100,"St. Pölten","Österreich",,,,,,
"HYPO-RENT Betriebsansiedlungs-Gesellschaft m.b.H.","Finanzinstitut","Hypo-Passage 2",6020,"Innsbruck","Österreich",,,,,,
"Hypo-Rent Gebäudeleasing 1987 Gesellschaft m.b.H.","Finanzinstitut","Hypo-Passage 2",6020,"Innsbruck","Österreich",,,,,,
"Hypo-Rent Grundverwertungsgesellschaft m.b.H.","Finanzinstitut","Hypo-Passage 2",6020,"Innsbruck","Österreich",,,,,,
"Hypo-Rent II Grundverwertung GmbH","Finanzinstitut","Hypo-Passage 2",6020,"Innsbruck","Österreich",,,,,,
"Hypo-Rent Immobilienverwaltungs-Gesellschaft m.b.H.","Finanzinstitut","Hypo-Passage 2",6020,"Innsbruck","Österreich",,,,,,
"Hypo-Rent Liegenschaftsanlage-Gesellschaft m.b.H.","Finanzinstitut","Hypo-Passage 2",6020,"Innsbruck","Österreich",,,,,,
"HYPO-Tirol Mobilienleasing Gesellschaft m.b.H.","Finanzinstitut","Hypo-Passage 2",6020,"Innsbruck","Österreich",,,"+43512577210",,,
"HYPO-TIROL Mobilienleasing II GmbH","Finanzinstitut","Hypo-Passage 2",6020,"Innsbruck","Österreich",,,,,,
"I&B Immobilien und Bewertungs GmbH","Finanzinstitut","Landstraße 38",4020,"Linz","Österreich",,,,,,
"IBF-Anlagenleasing 95 Gesellschaft m.b.H.","Finanzinstitut","Am Belvedere 1",1100,"Wien","Österreich",,,,,,
"IGNIS Raiffeisen-Immobilien-Leasing Gesellschaft m.b.H.","Finanzinstitut","Mooslackengasse 12",1190,"Wien","Österreich",,,,,,
"IKB Leasing Austria GmbH","Finanzinstitut","Zaunergasse 4-6/4. Stock",1030,"Wien","Österreich",,,,,,
"IL 1 Raiffeisen-IMPULS-Mobilienleasing Gesellschaft m.b.H.","Finanzinstitut","Europaplatz 1a",4020,"Linz","Österreich",,,,,,
"ILGES - Immobilien- und Leasing - Gesellschaft m.b.H.","Finanzinstitut","Stadtplatz 24",4150,"Rohrbach (OÖ)","Österreich",,,,,,
"ILION-Immorent Grundverwertungsgesellschaft m.b.H.","Finanzinstitut","Am Belvedere 1",1100,"Wien","Österreich",,,,,,
"IMF PRIMA Liegenschafts- und Mobilienvermietungsgesellschaft m.b.H.","Finanzinstitut","Wienerbergstraße 11",1100,"Wien","Österreich",,,,,,
"immigon portfolioabbau ag","Finanzinstitut","Peregringasse 2",1090,"Wien","Österreich",,,,,,
"Immobilien Gleinstätten GmbH","Finanzinstitut","Gleinstätten 168",8443,"Gleinstätten","Österreich",,,,,,
"Immobilien Holding GmbH","Finanzinstitut","Leopold-Moses-Gasse 4",1020,"Wien","Österreich",,,,,,
"Immobilien- und Wohnhausverwertungs AG & Co KG","Finanzinstitut","Linzer Gasse 10",5020,"Salzburg","Österreich",,,,,,
"Immobilienleasing Grundstücksverwaltungs-Gesellschaft m.b.H.","Finanzinstitut","Operngasse 21",1040,"Wien","Österreich",,,,,,
"Immoconsult Ares Leasinggesellschaft m.b.H.","Finanzinstitut","Peregringasse 2",1090,"Wien","Österreich",,,,,,
"IMMOFINANZ Aleos Anlagen Leasing GmbH","Finanzinstitut","Wienerbergstraße 11",1100,"Wien","Österreich",,,,,,
"Immofinanz Beta Liegenschaftsvermietungsgesellschaft m.b.H.","Finanzinstitut","Wienerbergstraße 11",1100,"Wien","Österreich",,,,,,
"Immofinanz Epsilon Liegenschafts- und Mobilienvermietungsgesellschaft m.b.H.","Finanzinstitut","Wienerbergstraße 11",1100,"Wien","Österreich",,,,,,
"Immofinanz Gamma Liegenschafts- und Mobilienvermietungsgesellschaft m.b.H.","Finanzinstitut","Wienerbergstraße 11",1100,"Wien","Österreich",,,,,,
"IMMOFINANZ JOTA Liegenschafts- und Mobilienvermietungsgesellschaft m.b.H.","Finanzinstitut","Wienerbergstraße 11",1100,"Wien","Österreich",,,,,,
"IMMOFINANZ LAMBDA Liegenschafts- und Mobilienvermietungsgesellschaft m.b.H.","Finanzinstitut","Wienerbergstraße 11",1100,"Wien","Österreich",,,,,,
"IMMOFINANZ OMIKRON Liegenschafts- und Mobilienvermietungsgesellschaft m.b.H.","Finanzinstitut","Wienerbergstraße 11",1100,"Wien","Österreich",,,,,,
"IMMOFINANZ SITA Liegenschafts- und Mobilienvermietungsgesellschaft m.b.H.","Finanzinstitut","Wienerbergstraße 11",1100,"Wien","Österreich",,,,,,
"IMMOLEAS Grundstücksverwaltungsgesellschaft m.b.H.","Finanzinstitut","Poststraße 11",6850,"Dornbirn","Österreich",,,,,,
"IMMORENT - ANDROMEDA Grundverwertungsgesellschaft m.b.H.","Finanzinstitut","Am Belvedere 1",1100,"Wien","Österreich",,,"+4315889450",,,
"Immorent - Immobilienleasing Gesellschaft m.b.H.","Finanzinstitut","Am Belvedere 1",1100,"Wien","Österreich",,,,,,
"Immorent - Kagraner Grundstücksverwertungsgesellschaft m.b.H.","Finanzinstitut","Am Belvedere 1",1100,"Wien","Österreich",,,,,,
"Immorent - Kappa Grundverwertungsgesellschaft m.b.H.","Finanzinstitut","Am Belvedere 1",1100,"Wien","Österreich",,,,,,
"Immorent - Weiko Grundverwertungsgesellschaft m.b.H.","Finanzinstitut","Am Belvedere 1",1100,"Wien","Österreich",,,,,,
"Immorent - Wörgler Grundverwertungsgesellschaft m.b.H.","Finanzinstitut","Am Belvedere 1",1100,"Wien","Österreich",,,,,,
"ImmoRent Einkaufszentren Verwaltungsgesellschaft m.b.H.","Finanzinstitut","Am Belvedere 1",1100,"Wien","Österreich",,,,,,
"Immorent Lehrbauhöfeerrichtungsgesellschaft m.b.H.","Finanzinstitut","Am Belvedere 1",1100,"Wien","Österreich",,,,,,
"IMMORENT RIED GmbH","Finanzinstitut","Am Belvedere 1",1100,"Wien","Österreich",,,,,,
"IMMORENT SPARKASSE ST. PÖLTEN Leasinggesellschaft m.b.H.","Finanzinstitut","Domgasse 5",3100,"St. Pölten","Österreich",,,,,,
"IMMORENT West Grundverwertungsgesellschaft m.b.H.","Finanzinstitut","Am Belvedere 1",1100,"Wien","Österreich",,,,,,
"IMMORENT-ANUBIS Grundverwertungsgesellschaft m.b.H.","Finanzinstitut","Am Belvedere 1",1100,"Wien","Österreich",,,,,,
"IMMORENT-ASTRA Grundverwertungsgesellschaft m.b.H.","Finanzinstitut","Am Belvedere 1",1100,"Wien","Österreich",,,,,,
"IMMORENT-BRAUGEBÄUDE-Leasinggesellschaft m.b.H.","Finanzinstitut","Am Belvedere 1",1100,"Wien","Österreich",,,,,,
"IMMORENT-CHEMILEN Grundverwertungsgesellschaft m.b.H.","Finanzinstitut","Am Belvedere 1",1100,"Wien","Österreich",,,,,,
"Immorent-Clio-Grundverwertungsgesellschaft m.b.H.","Finanzinstitut","Am Belvedere 1",1100,"Wien","Österreich",,,,,,
"Immorent-Gamma-Grundstücksverwertungsgesellschaft m.b.H.","Finanzinstitut","Am Belvedere 1",1100,"Wien","Österreich",,,,,,
"Immorent-Gebäudeleasinggesellschaft m.b.H.","Finanzinstitut","Am Belvedere 1",1100,"Wien","Österreich",,,,,,
"IMMORENT-GREKO Grundverwertungsgesellschaft m.b.H.","Finanzinstitut","Am Belvedere 1",1100,"Wien","Österreich",,,,,,
"Immorent-Grundverwertungsgesellschaft m.b.H.","Finanzinstitut","Am Belvedere 1",1100,"Wien","Österreich",,,,,,
"Immorent-Hackinger Grundverwertungsgesellschaft m.b.H.","Finanzinstitut","Am Belvedere 1",1100,"Wien","Österreich",,,,,,
"IMMORENT-HATHOR Grundverwertungsgesellschaft m.b.H.","Finanzinstitut","Am Belvedere 1",1100,"Wien","Österreich",,,,,,
"Immorent-Hypo-Rent Grundverwertungsgesellschaft m.b.H.","Finanzinstitut","Hypo-Passage 2",6020,"Innsbruck","Österreich",,,"+43512577210",,,
"IMMORENT-JULIA Grundverwertungsgesellschaft m.b.H.","Finanzinstitut","Am Belvedere 1",1100,"Wien","Österreich",,,,,,
"IMMORENT-KRABA Grundverwertungsgesellschaft m.b.H.","Finanzinstitut","Am Belvedere 1",1100,"Wien","Österreich",,,,,,
"IMMORENT-LEANDER Grundverwertungsgesellschaft m.b.H.","Finanzinstitut","Am Belvedere 1",1100,"Wien","Österreich",,,,,,
"Immorent-Lispa Grundverwertungsgesellschaft m.b.H.","Finanzinstitut","Sparkassenplatz 5",6020,"Innsbruck","Österreich",,,,,,
"IMMORENT-MARCO Grundverwertungsgesellschaft m.b.H.","Finanzinstitut","Am Belvedere 1",1100,"Wien","Österreich",,,,,,
"Immorent-Mobilienvermietungs-Gesellschaft m.b.H., Liegenschaftsverwaltung Penzing & Co KG","Finanzinstitut","Am Belvedere 1",1100,"Wien","Österreich",,,,,,
"IMMORENT-MOMO Grundverwertungsgesellschaft m.b.H.","Finanzinstitut","Am Belvedere 1",1100,"Wien","Österreich",,,,,,
"IMMORENT-MÖRE Grundverwertungsgesellschaft m.b.H.","Finanzinstitut","Am Belvedere 1",1100,"Wien","Österreich",,,,,,
"Immorent-Mytho Grundverwertungsgesellschaft m.b.H.","Finanzinstitut","Sparkassenplatz 5",6020,"Innsbruck","Österreich",,,,,,
"IMMORENT-NERO Grundverwertungsgesellschaft m.b.H.","Finanzinstitut","Am Belvedere 1",1100,"Wien","Österreich",,,,,,
"IMMORENT-Objektvermietungsgesellschaft m.b.H.","Finanzinstitut","Am Belvedere 1",1100,"Wien","Österreich",,,,,,
"IMMORENT-OSIRIS Grundverwertungsgesellschaft m.b.H.","Finanzinstitut","Am Belvedere 1",1100,"Wien","Österreich",,,,,,
"IMMORENT-PAN Grundverwertungsgesellschaft m.b.H.","Finanzinstitut","Am Belvedere 1",1100,"Wien","Österreich",,,,,,
"IMMORENT-RAFI Grundverwertungsgesellschaft m.b.H.","Finanzinstitut","Am Belvedere 1",1100,"Wien","Österreich",,,,,,
"IMMORENT-Raiffeisen Fachhochschule Errichtungs- und BetriebsgmbH","Finanzinstitut","Am Belvedere 1",1100,"Wien","Österreich",,,,,,
"IMMORENT-RAMON Grundverwertungsgesellschaft m.b.H.","Finanzinstitut","Am Belvedere 1",1100,"Wien","Österreich",,,,,,
"IMMORENT-RASTA Grundverwertungsgesellschaft m.b.H.","Finanzinstitut","Am Belvedere 1",1100,"Wien","Österreich",,,,,,
"IMMORENT-REMUS Grundverwertungsgesellschaft m.b.H.","Finanzinstitut","Am Belvedere 1",1100,"Wien","Österreich",,,,,,
"IMMORENT-RIALTO Grundverwertungsgesellschaft m.b.H.","Finanzinstitut","Am Belvedere 1",1100,"Wien","Österreich",,,,,,
"IMMORENT-RIO Grundverwertungsgesellschaft m.b.H.","Finanzinstitut","Am Belvedere 1",1100,"Wien","Österreich",,,,,,
"IMMORENT-RIWA Grundverwertungsgesellschaft m.b.H.","Finanzinstitut","Am Belvedere 1",1100,"Wien","Österreich",,,,,,
"IMMORENT-RONDO Grundverwertungsgesellschaft m.b.H.","Finanzinstitut","Am Belvedere 1",1100,"Wien","Österreich",,,,,,
"IMMORENT-RUBIN Grundverwertungsgesellschaft m.b.H.","Finanzinstitut","Am Belvedere 1",1100,"Wien","Österreich",,,,,,
"IMMORENT-SARI Grundverwertungsgesellschaft m.b.H.","Finanzinstitut","Am Belvedere 1",1100,"Wien","Österreich",,,,,,
"Immorent-Sigre Grundverwertungsgesellschaft m.b.H.","Finanzinstitut","Am Belvedere 1",1100,"Wien","Österreich",,,,,,
"Immorent-Smaragd Grundverwertung GmbH","Finanzinstitut","Franz-Josef-Straße 8-10",6130,"Schwaz","Österreich",,,,,,
"Immorent-Steiko Grundverwertungsgesellschaft m.b.H.","Finanzinstitut","Am Belvedere 1",1100,"Wien","Österreich",,,,,,
"IMMORENT-STIKÖ Leasing gesellschaft m.b.H.","Finanzinstitut","Am Belvedere 1",1100,"Wien","Österreich",,,,,,
"Immorent-Theta-Grundverwertungsgesellschaft m.b.H.","Finanzinstitut","Am Belvedere 1",1100,"Wien","Österreich",,,,,,
"IMMORENT-TRIAS Grundverwertungsgesellschaft m.b.H.","Finanzinstitut","Am Belvedere 1",1100,"Wien","Österreich",,,,,,
"IMMORENT-UTO Grundverwertungsgesellschaft m.b.H.","Finanzinstitut","Am Belvedere 1",1100,"Wien","Österreich",,,,,,
"Immorent-VBV Grundverwertungsgesellschaft m.b.H.","Finanzinstitut","Am Belvedere 1",1100,"Wien","Österreich",,,,,,
"Immorent-WBV Grundverwertungsgesellschaft m.b.H.","Finanzinstitut","Sparkassenplatz 5",6020,"Innsbruck","Österreich",,,,,,
"IMMORENT-WEBA Grundverwertungsgesellschaft m.b.H.","Finanzinstitut","Am Belvedere 1",1100,"Wien","Österreich",,,,,,
"IMNA-Immorent Immobilienleasing GmbH","Finanzinstitut","Am Belvedere 1",1100,"Wien","Österreich",,,,,,
"Impuls Immobilien GmbH","Finanzinstitut","Gewerbegebiet Nord 5",5204,"Straßwalchen","Österreich",,,,,,
"Industriebeteiligungen 1989 Gesellschaft m.b.H.","Finanzinstitut","Lehargasse 1",1060,"Wien","Österreich",,,,,,
"Infrastruktur Heilbad Sauerbrunn RBI-Leasing GmbH & Co.KG.","Finanzinstitut","Hartigg. 4",7202,"Bad Sauerbrunn","Österreich",,,,,,
"INTRO Leasing Gesellschaft m.b.H.","Finanzinstitut","Operngasse 21",1040,"Wien","Österreich",,,,,,
"IR Domestic Project Development Holding GmbH","Finanzinstitut","Am Belvedere 1",1100,"Wien","Österreich",,,,,,
"ISIS Raiffeisen-Immobilien-Leasing Gesellschaft m.b.H.","Finanzinstitut","Mooslackengasse 12",1190,"Wien","Österreich",,,,,,
"Jausern-Leasing Gesellschaft m.b.H.","Finanzinstitut","Operngasse 21",1040,"Wien","Österreich",,,,,,
"JDRL Landmaschinen Vermietungs GmbH","Finanzinstitut","Mooslackengasse 12",1190,"Wien","Österreich",,,,,,
"Julius Meinl Versicherungsservice & Leasing Gesellschaft m.b.H.","Finanzinstitut","Bauernmarkt 2",1010,"Wien","Österreich",,,,,,
"Julius Meinl Versicherungsservice & Leasing Vermögens- und Finanzierungsberatung Gesellschaft m.b.H.","Finanzinstitut","Bauernmarkt 2",1014,"Wien","Österreich",,,"+4315318845",,,
"Jura GrundverwertungsgmbH","Finanzinstitut","Sparkassenplatz 4",8010,"Graz","Österreich",,,,,,
"KALAK Erdbergstraße GmbH","Finanzinstitut","Modecenterstraße 14",1030,"Wien","Österreich",,,,,,
"Katschberg Hotel Beteiligungs GmbH & Co KG","Finanzinstitut","Polytec-Straße 1",4063,"Hörsching","Österreich",,,,,,
"KERES-Immorent Immobilienleasing GmbH","Finanzinstitut","Am Belvedere 1",1100,"Wien","Österreich",,,,,,
"Kienberg - Panoramastraße Errichtungs GmbH","Finanzinstitut","Schwarzstraße 13-15",5020,"Salzburg","Österreich",,,,,,
"Kinocenter Regau Errichtungs GmbH","Finanzinstitut","Rudigierstr. 5-7",4020,"Linz","Österreich",,,,,,
"KLB Baulandentwicklung GmbH","Finanzinstitut","Quellenstraße 51-55",1100,"Wien","Österreich",,,,,,
"Koch Immobilien Theobaldgasse GmbH & Co OG","Finanzinstitut","Falkstraße 25",6020,"Innsbruck","Österreich",,,,,,
"Kommunal-Infrastruktur & Immobilien Zeltweg GmbH","Finanzinstitut","Hauptplatz 8",8740,"Zeltweg","Österreich",,,,,,
"Kommunalleasing GmbH","Finanzinstitut","Quellenstraße 51-55",1100,"Wien","Österreich",,,,,,
"KTM Logistikzentrum GmbH","Finanzinstitut","Stallhofner Straße 3",5230,"Mattighofen","Österreich",,,,,,
"Kunsthaus Leasing GmbH","Finanzinstitut","Operngasse 21",1040,"Wien","Österreich",,,,,,
"Kutra Grundstücksverwaltungs-Gesellschaft m.b.H.","Finanzinstitut","Operngasse 21",1040,"Wien","Österreich",,,,,,
"L 2 Errichtungs- und Vermietungsgesellschaft mbH","Finanzinstitut","Hypo-Passage 2",6020,"Innsbruck","Österreich",,,"+43512577210",,,
"LABA-IMPULS-Gebäudeleasing Gesellschaft m.b.H.","Finanzinstitut","Europaplatz 1a",4020,"Linz","Österreich",,,,,,
"LABA-IMPULS-Gebäudeleasing GmbH & Co KG","Finanzinstitut","Europaplatz 1a",4020,"Linz","Österreich",,,,,,
"LABA-IMPULS-IT-Leasing GmbH & Co KG","Finanzinstitut","Europaplatz 1a",4020,"Linz","Österreich",,,,,,
"Lagermax Leasing GmbH","Finanzinstitut","Operngasse 21",1040,"Wien","Österreich",,,,,,
"Lagev Immobilien Leasing Gesellschaft m.b.H.","Finanzinstitut","Operngasse 21",1040,"Wien","Österreich",,,,,,
"Landeskrankenhaus Tulln-Immobilienvermietung Gesellschaft m.b.H.","Finanzinstitut","Hypogasse 1",3100,"St. Pölten","Österreich",,,,,,
"LARGO Leasing Gesellschaft m.b.H.","Finanzinstitut","Operngasse 21",1040,"Wien","Österreich",,,,,,
"Lassallestraße 7b Immobilienverwaltung GmbH","Finanzinstitut","Am Belvedere 1",1100,"Wien","Österreich",,,,,,
"LD-Leasing GmbH","Finanzinstitut","Poststraße 11",6850,"Dornbirn","Österreich",,,,,,
"LEASFINANZ GmbH","Finanzinstitut","Shuttleworthstraße 17",1210,"Wien","Österreich",,,,,,
"Leasing - west Gesellschaft m.b.H. & Co. Kommanditgesellschaft in Liqu.","Finanzinstitut","Michael Unterguggenberger-Straße 11",6300,"Wörgl","Österreich",,,,,,
"Leasing Unterland Gesellschaft m.b.H.","Finanzinstitut","Arkadenplatz 6/1",6330,"Kufstein","Österreich",,,,,,
"Leasing Unterland Gesellschaft m.b.H. Kommanditgesellschaft I","Finanzinstitut","Arkadenplatz 6/1",6330,"Kufstein","Österreich",,,,,,
"Leasinggesellschaft der Autobank GmbH","Finanzinstitut","Ungargasse 64, Stiege 3, Top 403",1030,"Wien","Österreich",,,,,,
"LEDA-Immorent Grundverwertungsgesellschaft m.b.H.","Finanzinstitut","Am Belvedere 1",1100,"Wien","Österreich",,,"+431588945000",,,
"Legato Leasing Gesellschaft m.b.H.","Finanzinstitut","Operngasse 21",1040,"Wien","Österreich",,,,,,
"LeiKi Immo Projekt Beta GmbH","Finanzinstitut","Porschestraße 7",3100,"St. Pölten","Österreich",,,,,,
"LeiKi Immo Projekt Delta GmbH","Finanzinstitut","Porschestraße 7",3100,"St. Pölten","Österreich",,,,,,
"LeiKi Immo Projekt Gamma GmbH","Finanzinstitut","Porschestraße 7",3100,"St. Pölten","Österreich",,,,,,
"LeiKi Immo-Projekt Alpha GmbH","Finanzinstitut","Porschestraße 7",3100,"St. Pölten","Österreich",,,,,,
"Lelev Immobilien Leasing Gesellschaft m.b.H.","Finanzinstitut","Operngasse 21",1040,"Wien","Österreich",,,,,,
"LIBRA Raiffeisen-Immobilien-Leasing Gesellschaft m.b.H.","Finanzinstitut","Mooslackengasse 12",1190,"Wien","Österreich",,,,,,
"Liegenschaftstreuhand GmbH","Finanzinstitut","Hypo-Passage 2",6020,"Innsbruck","Österreich",,,,,,
"LINO Hotel-Leasing GmbH","Finanzinstitut","Operngasse 21",1040,"Wien","Österreich",,,,,,
"Lipark Leasing Gesellschaft m.b.H.","Finanzinstitut","Operngasse 21",1040,"Wien","Österreich",,,,,,
"LITUS Grundstückvermietungs Gesellschaft m.b.H.","Finanzinstitut","Hypogasse 1",3100,"St. Pölten","Österreich",,,,,,
"Liva Immobilien Leasing Gesellschaft m.b.H.","Finanzinstitut","Operngasse 21",1040,"Wien","Österreich",,,,,,
"LKW-Zentrum Radfeld Liegenschaftsverwaltung GmbH","Finanzinstitut","Europaplatz 1a",4020,"Linz","Österreich",,,,,,
"LogCap-IR Grundverwertungsgesellschaft m.b.H.","Finanzinstitut","Am Belvedere 1",1100,"Wien","Österreich",,,,,,
"Lugner Immo GmbH","Finanzinstitut","Gablenzgasse 11",1150,"Wien","Österreich",,,,,,
"LYRA Raiffeisen-Immobilien-Leasing Gesellschaft m.b.H.","Finanzinstitut","Mooslackengasse 12",1190,"Wien","Österreich",,,,,,
"M. A. V. 7., Bank Austria Leasing Bauträger GmbH & Co. OG.","Finanzinstitut","Operngasse 21",1040,"Wien","Österreich",,,,,,
"m quadrat immobilienleasing gmbh","Finanzinstitut","Kärntnerstraße 10/5",1010,"Wien","Österreich",,,,,,
"MAN Financial Services GesmbH","Finanzinstitut","Möbelstraße 12, Top 11 A",5301,"Eugendorf","Österreich",,,,,,
"MBC Immobilien Leasing Gesellschaft m.b.H.","Finanzinstitut","Operngasse 21",1040,"Wien","Österreich",,,,,,
"MEKLA Leasing Gesellschaft m.b.H.","Finanzinstitut","Am Belvedere 1",1100,"Wien","Österreich",,,,,,
"MELIKERTES Raiffeisen-Mobilien-Leasing GmbH","Finanzinstitut","Mooslackengasse 12",1190,"Wien","Österreich",,,,,,
"Menuett Grundstücksverwaltungs-Gesellschaft m.b.H.","Finanzinstitut","Operngasse 21",1040,"Wien","Österreich",,,,,,
"Mercedes-Benz Financial Services Austria GmbH","Finanzinstitut","Himmelreich 1",5020,"Salzburg","Österreich",,,,,,
"Merula Beteiligungs GmbH","Finanzinstitut","Rathen 20",4081,"Hartkirchen (OÖ)","Österreich",,,,,,
"Metahof Errichtungsgesellschaft mbH","Finanzinstitut","Millöckergasse 16",8010,"Graz","Österreich",,,,,,
"METIS Grundstückverwaltungs GmbH","Finanzinstitut","Hypogasse 1",3100,"St. Pölten","Österreich",,,,,,
"MIRA Raiffeisen-Immobilien-Leasing Gesellschaft m.b.H.","Finanzinstitut","Mooslackengasse 12",1190,"Wien","Österreich",,,,,,
"MJ Hotelbetrieb GmbH","Finanzinstitut","Ungargasse 60",1030,"Wien","Österreich",,,,,,
"MM Omega Projektentwicklungs GmbH","Finanzinstitut","Operngasse 21",1040,"Wien","Österreich",,,,,,
"MOBIX Raiffeisen-Mobilien-Leasing AG","Finanzinstitut","Mooslackengasse 12",1190,"Wien","Österreich",,,,,,
"MOBIX Vermögensverwaltungsges.m.b.H.","Finanzinstitut","Mooslackengasse 12",1190,"Wien","Österreich",,,,,,
"Mögra Leasing Gesellschaft m.b.H.","Finanzinstitut","Operngasse 21",1040,"Wien","Österreich",,,,,,
"""Mongala"" Beteiligungsverwaltung GmbH","Finanzinstitut","Poststraße 11",6850,"Dornbirn","Österreich",,,,,,
"MOVEO Raiffeisen-Leasing GmbH","Finanzinstitut","Mooslackengasse 12",1190,"Wien","Österreich",,,,,,
"Multiversum Schwechat Eigentums GmbH","Finanzinstitut","Möhringgasse 2-4",2320,"Schwechat","Österreich",,,,,,
"Nage Lokalvermietungsgesellschaft m.b.H.","Finanzinstitut","Operngasse 21",1040,"Wien","Österreich",,,,,,
"""Nare"" Grundstücksverwertungs-Gesellschaft m.b.H.","Finanzinstitut","Am Belvedere 1",1100,"Wien","Österreich",,,,,,
"NAXOS-Immorent Immobilienleasing GmbH","Finanzinstitut","Am Belvedere 1",1100,"Wien","Österreich",,,,,,
"NEMUS Grundstückvermietungs Gesellschaft m.b.H.","Finanzinstitut","Hypogasse 1",3100,"St. Pölten","Österreich",,,,,,
"NEUROM Grundstückvermietungs Gesellschaft m.b.H.","Finanzinstitut","Hypogasse 1",3100,"St. Pölten","Österreich",,,,,,
"Niederösterreichische Landes-Landwirtschaftskammer Errichtungs- und Betriebsgesellschaft m.b.H.","Finanzinstitut","Mooslackengasse 12",1190,"Wien","Österreich",,,,,,
"NÖ. HYPO LEASING AGILITAS Grundstücksvermietung Gesellschaft m.b.H.","Finanzinstitut","Hypogasse 1",3100,"St. Pölten","Österreich",,,,,,
"NÖ. HYPO LEASING ASTEWOG Grundstückvermietungs Gesellschaft m.b.H.","Finanzinstitut","Hypogasse 1",3100,"St. Pölten","Österreich",,,,,,
"NÖ. HYPO LEASING ASTRICTA Grundstückvermietungs Gesellschaft m.b.H.","Finanzinstitut","Operngasse 21",1040,"Wien","Österreich",,,,,,
"NÖ. HYPO LEASING FIRMITAS Grundstückvermietungs Gesellschaft m.b.H.","Finanzinstitut","Hypogasse 1",3100,"St. Pölten","Österreich",,,,,,
"NÖ. HYPO LEASING GERUSIA Grundstückvermietungs Gesellschaft m.b.H.","Finanzinstitut","Hypogasse 1",3100,"St. Pölten","Österreich",,,,,,
"NÖ. HYPO LEASING Landeskliniken Equipment GmbH","Finanzinstitut","Hypogasse 1",3100,"St. Pölten","Österreich",,,,,,
"NÖ. HYPO LEASING MEATUS Grundstückvermietungs Gesellschaft m.b.H.","Finanzinstitut","Hypogasse 1",3100,"St. Pölten","Österreich",,,,,,
"NÖ. HYPO LEASING MENTIO Grundstücksvermietungs Gesellschaft m.b.H.","Finanzinstitut","Hypogasse 1",3100,"St.Pölten","Österreich",,,,,,
"NÖ. HYPO LEASING NITOR Grundstücksvermietungs Gesellschaft m.b.H.","Finanzinstitut","Hypogasse 1",3100,"St. Pölten","Österreich",,,,,,
"NÖ. HYPO LEASING STRUCTOR Grundstückvermietungs Gesellschaft m.b.H.","Finanzinstitut","Hypogasse 1",3100,"St. Pölten","Österreich",,,,,,
"NÖ. HYPO Leasing und Raiffeisen-Immobilien-Leasing Traisenhaus GesmbH & Co OG","Finanzinstitut","Hypogasse 1",3100,"St. Pölten","Österreich",,,,,,
"NÖ. HYPO LEASING URBANITAS Grundstückvermietungs Gesellschaft m.b.H.","Finanzinstitut","Hypogasse 1",3100,"St. Pölten","Österreich",,,,,,
"N.Ö. Kommunalgebäudeleasing Gesellschaft m.b.H.","Finanzinstitut","Mooslackengasse 12",1190,"Wien","Österreich",,,,,,
"NÖ Raiffeisen Kommunalprojekte Service Gesellschaft m.b.H.","Finanzinstitut","Mooslackengasse 12",1190,"Wien","Österreich",,,,,,
"NÖ Raiffeisen Kommunalprojekte Service Gesellschaft m.b.H. & NÖ.HYPO Leasinggesellschaft m.b.H. - Strahlentherapie OG","Finanzinstitut","Hypogasse 1",3100,"St. Pölten","Österreich",,,,,,
"NÖ Raiffeisen-Leasing Gemeindeimmobilienservice GmbH","Finanzinstitut","Mooslackengasse 12",1190,"Wien","Österreich",,,,,,
"NÖ Raiffeisen-Leasing Gemeindeprojekte Gesellschaft m.b.H.","Finanzinstitut","Mooslackengasse 12",1190,"Wien","Österreich",,,,,,
"NÖ. Verwaltungszentrum - Verwertungsgesellschaft m.b.H.","Finanzinstitut","Hypogasse 1",3100,"St. Pölten","Österreich",,,,,,
"NÖ-KL Kommunalgebäudeleasing Gesellschaft m.b.H.","Finanzinstitut","Mooslackengasse 12",1190,"Wien","Österreich",,,,,,
"NOVA HYPO Leasing GmbH","Finanzinstitut","Kaiserfeldgasse 5",8010,"Graz","Österreich",,,,,,
"ÖAMTC-Leasing GmbH & Co KG","Finanzinstitut","Mooslackengasse 12",1190,"Wien","Österreich",,,,,,
"Oberbank airplane 2 Leasing GmbH","Finanzinstitut","Hauptplatz 10-11",4020,"Linz","Österreich",,,,,,
"Oberbank Arsenal Immobilienleasing GmbH","Finanzinstitut","Hauptplatz 10-11",4020,"Linz","Österreich",,,,,,
"Oberbank Bergbahnen Leasing GmbH","Finanzinstitut","Hauptplatz 10-11",4020,"Linz","Österreich",,,,,,
"Oberbank Eugendorf Immobilienleasing GmbH","Finanzinstitut","Hauptplatz 10-11",4020,"Linz","Österreich",,,,,,
"Oberbank FSS Immobilienleasing GmbH","Finanzinstitut","Hauptplatz 10-11",4020,"Linz","Österreich",,,,,,
"Oberbank Immobilie-Bergheim Leasing GmbH","Finanzinstitut","Hauptplatz 10-11",4020,"Linz","Österreich",,,,,,
"Oberbank Immobilien-Leasing Gesellschaft m.b.H.","Finanzinstitut","Hauptplatz 10-11",4020,"Linz","Österreich",,,,,,
"Oberbank KB Leasing Gesellschaft m.b.H.","Finanzinstitut","Hauptplatz 10-11",4020,"Linz","Österreich",,,,,,
"Oberbank Kfz-Leasing GmbH","Finanzinstitut","Hauptplatz 10-11",4010,"Linz","Österreich",,,,,,
"OBERBANK LEASING GESELLSCHAFT MBH.","Finanzinstitut","Hauptplatz 10-11",4020,"Linz","Österreich",,,,,,
"Oberbank Leobendorf Immobilienleasing GmbH","Finanzinstitut","Hauptplatz 10-11",4020,"Linz","Österreich",,,,,,
"Oberbank LIV Immobilienleasing GmbH","Finanzinstitut","Hauptplatz 10-11",4020,"Linz","Österreich",,,,,,
"Oberbank MLC - Pernau Immobilienleasing GmbH","Finanzinstitut","Hauptplatz 10-11",4020,"Linz","Österreich",,,,,,
"Oberbank Operating Mobilienleasing GmbH","Finanzinstitut","Hauptplatz 10-11",4020,"Linz","Österreich",,,,,,
"Oberbank Operating OPR Immobilienleasing GmbH","Finanzinstitut","Hauptplatz 10-11",4020,"Linz","Österreich",,,,,,
"Oberbank Pernau Immobilienleasing GmbH","Finanzinstitut","Hauptplatz 10-11",4020,"Linz","Österreich",,,,,,
"Oberbank Riesenhof Immobilienleasing GmbH","Finanzinstitut","Hauptplatz 10-11",4020,"Linz","Österreich",,,,,,
"Oberbank Seiersberg Immobilienleasing Gesellschaft m.b.H.","Finanzinstitut","Hauptplatz 10-11",4020,"Linz","Österreich",,,,,,
"Oberbank TREI Immobilienleasing GmbH","Finanzinstitut","Hauptplatz 10-11",4020,"Linz","Österreich",,,,,,
"Oberbank Unterpremstätten Immobilienleasing GmbH","Finanzinstitut","Hauptplatz 10-11",4020,"Linz","Österreich",,,,,,
"Oberbank Weißkirchen Immobilienleasing GmbH","Finanzinstitut","Hauptplatz 10-11",4020,"Linz","Österreich",,,,,,
"Oberbank Wiener Neustadt Immobilienleasing GmbH","Finanzinstitut","Hauptplatz 10-11",4020,"Linz","Österreich",,,,,,
"Oberbank-Kremsmünster Immobilienleasing Gesellschaft m.b.H.","Finanzinstitut","Hauptplatz 10-11",4020,"Linz","Österreich",,,,,,
"Oberösterreichische Kfz-Leasing Gesellschaft m.b.H.","Finanzinstitut","Schillerstr. 68",4020,"Linz","Österreich",,,,,,
"Objekt Leasing Unterland GmbH KG","Finanzinstitut","Arkadenplatz 6/1",6330,"Kufstein","Österreich",,,,,,
"Objekt-Lease Grundstücksverwaltungs-Gesellschaft m.b.H.","Finanzinstitut","Operngasse 21",1040,"Wien","Österreich",,,,,,
"ÖBV Realitäten GmbH","Finanzinstitut","Grillparzerstraße 11",1016,"Wien","Österreich",,,,,,
"Oct Z Immobilien Leasing Gesellschaft m.b.H.","Finanzinstitut","Operngasse 21",1040,"Wien","Österreich",,,,,,
"OCTANOS Raiffeisen-Immobilien-Leasing Gesellschaft m.b.H.","Finanzinstitut","Mooslackengasse 12",1190,"Wien","Österreich",,,,,,
"OLG Handels- und Beteiligungsverwaltungsgesellschaft m.b.H.","Finanzinstitut","Operngasse 21",1040,"Wien","Österreich",,,,,,
"Ölim-Grundverwertungsgesellschaft m.b.H.","Finanzinstitut","Sparkassenplatz 4",8010,"Graz","Österreich",,,,,,
"OMEGA Liegenschaftsverwertungs-II Gesellschaft m.b.H.","Finanzinstitut","Petersbrunnstraße 3",5020,"Salzburg","Österreich",,,,,,
"OÖ Hypo Facility Management GmbH","Finanzinstitut","Landstr. 38",4020,"Linz","Österreich",,,,,,
"OÖ Hypo Leasinggesellschaft m.b.H.","Finanzinstitut","Landstr. 38",4020,"Linz","Österreich",,,,,,
"OÖ HYPO-IMPULS Leasing GmbH","Finanzinstitut","Landstr. 38",4020,"Linz","Österreich",,,,,,
"O.Ö. Kommunalgebäude-Leasing Gesellschaft m.b.H.","Finanzinstitut","Europaplatz 1a",4020,"Linz","Österreich",,,,,,
"O.Ö. Kommunal-Immobilienleasing GmbH","Finanzinstitut","Europaplatz 1a",4020,"Linz","Österreich",,,,,,
"O.Ö. Leasing für Gebietskörperschaften Ges.m.b.H.","Finanzinstitut","Europaplatz 1a",4020,"Linz","Österreich",,,,,,
"O.Ö. Leasing für öffentliche Bauten Gesellschaft m.b.H.","Finanzinstitut","Europaplatz 1a",4020,"Linz","Österreich",,,,,,
"OREST-Immorent Leasing GmbH","Finanzinstitut","Am Belvedere 1",1100,"Wien","Österreich",,,"+431588945000",,,
"ORION Raiffeisen-Immobilien-Leasing Gesellschaft m.b.H.","Finanzinstitut","Mooslackengasse 12",1190,"Wien","Österreich",,,,,,
"OSG Immobilienhandels G.m.b.H.","Finanzinstitut","Wienerbergstraße 11",1100,"Wien","Österreich",,,,,,
"OVIS Raiffeisen-Immobilien-Leasing Gesellschaft m.b.H.","Finanzinstitut","Mooslackengasse 12",1190,"Wien","Österreich",,,,,,
"Palatin Grundstückverwaltungs Gesellschaft m.b.H.","Finanzinstitut","Hypogasse 1",3100,"St. Pölten","Österreich",,,,,,
"PARO Raiffeisen-Immobilien-Leasing Gesellschaft m.b.H.","Finanzinstitut","Mooslackengasse 12",1190,"Wien","Österreich",,,,,,
"PAROS-Immorent Grundverwertungsgesellschaft m.b.H.","Finanzinstitut","Am Belvedere 1",1100,"Wien","Österreich",,,,,,
"PEGA Raiffeisen-Immobilien Leasing Gesellschaft m.b.H.","Finanzinstitut","Mooslackengasse 12",1190,"Wien","Österreich",,,,,,
"Pelias Raiffeisen-Immobilien-Leasing Gesellschaft m.b.H.","Finanzinstitut","Mooslackengasse 12",1190,"Wien","Österreich",,,,,,
"PELOPS Leasing Gesellschaft m.b.H.","Finanzinstitut","Operngasse 21",1040,"Wien","Österreich",,,,,,
"Piana Leasing Gesellschaft m.b.H.","Finanzinstitut","Operngasse 21",1040,"Wien","Österreich",,,,,,
"PINUS Grundstückvermietungs Gesellschaft m.b.H.","Finanzinstitut","Hypogasse 1",3100,"St. Pölten","Österreich",,,,,,
"Pischeldorfer Straße 221 Liegenschaftsverwertungs GmbH","Finanzinstitut","Am Belvedere 1",1100,"Wien","Österreich",,,,,,
"PLANA Raiffeisen-Immobilien-Leasing Gesellschaft m.b.H.","Finanzinstitut","Mooslackengasse 12",1190,"Wien","Österreich",,,,,,
"Point Leasing A GmbH","Finanzinstitut","Forellenweg 12/3",6392,"St. Jakob in Haus","Österreich",,,,,,
"PONOS-Immorent Immobilienleasing GmbH","Finanzinstitut","Andreas Hofer Platz 17",8010,"Graz","Österreich",,,,,,
"Posato Leasing Gesellschaft m.b.H.","Finanzinstitut","Operngasse 21",1040,"Wien","Österreich",,,,,,
"POWER TOWER GmbH","Finanzinstitut","Hauptplatz 10-11",4020,"Linz","Österreich",,,,,,
"Prelude Grundstücksverwaltungs-Gesellschaft m.b.H.","Finanzinstitut","Operngasse 21",1040,"Wien","Österreich",,,,,,
"Priamos Grundstücksgesellschaft m.b.H.","Finanzinstitut","Siemensstraße 90",1210,"Wien","Österreich",,,"+431588945000",,,
"Projekt Blumau Tower Immobilien GmbH","Finanzinstitut","Europaplatz 1a",4020,"Linz","Österreich",,,,,,
"Projekt Eberstalzell Immobilien GmbH","Finanzinstitut","Europaplatz 1a",4020,"Linz","Österreich",,,,,,
"Projekt-Lease Grundstücksverwaltungs-Gesellschaft m.b.H.","Finanzinstitut","Operngasse 21",1040,"Wien","Österreich",,,,,,
"Propria Raiffeisen-Immobilien-Leasing GmbH","Finanzinstitut","Mooslackengasse 12",1190,"Wien","Österreich",,,,,,
"PROVENTUS Grundstückvermietungs Gesellschaft m.b.H.","Finanzinstitut","Hypogasse 1",3100,"St. Pölten","Österreich",,,,,,
"P.S.K. IMMOBILIENLEASING GmbH","Finanzinstitut","Quellenstraße 51-55",1100,"Wien","Österreich",,,,,,
"PT Immobilienleasing GmbH","Finanzinstitut","Quellenstraße 51-55",1100,"Wien","Österreich",,,,,,
"Purge Grundstücksverwaltungs-Gesellschaft m.b.H.","Finanzinstitut","Operngasse 21",1040,"Wien","Österreich",,,,,,
"QUADEC Z Immobilien Leasing Gesellschaft m.b.H.","Finanzinstitut","Operngasse 21",1040,"Wien","Österreich",,,,,,
"Quart Z Immobilien Leasing Gesellschaft m.b.H.","Finanzinstitut","Operngasse 21",1040,"Wien","Österreich",,,,,,
"Quint Z Immobilien Leasing Gesellschaft m.b.H.","Finanzinstitut","Operngasse 21",1040,"Wien","Österreich",,,,,,
"Quirinal Grundstücksverwaltungs Gesellschaft m.b.H.","Finanzinstitut","Am Belvedere 1",1100,"Wien","Österreich",,,,,,
"Raiffeisen - Anlagenvermietung Gesellschaft m.b.H.","Finanzinstitut","Mooslackengasse 12",1190,"Wien","Österreich",,,,,,
"Raiffeisen - Leasing Gesellschaft m.b.H. & Co KG","Finanzinstitut","Mooslackengasse 12",1190,"Wien","Österreich",,,,,,
"Raiffeisen Burgenland Leasing GmbH","Finanzinstitut","Mooslackengasse 12",1190,"Wien","Österreich",,,,,,
"Raiffeisen Leasing-Projektfinanzierung Gesellschaft m.b.H.","Finanzinstitut","Mooslackengasse 12",1190,"Wien","Österreich",,,"+431716012109",,,
"Raiffeisen Rehazentrum Schruns Immobilienleasing GmbH","Finanzinstitut","Mooslackengasse 12",1190,"Wien","Österreich",,,,,,
"Raiffeisen Salzburg Anlagenleasing GmbH","Finanzinstitut","Schwarzstraße 13-15",5020,"Salzburg","Österreich",,,,,,
"Raiffeisen Salzburg Immobilienleasing GmbH","Finanzinstitut","Schwarzstraße 13-15",5020,"Salzburg","Österreich",,,,,,
"Raiffeisen Wohnbauleasing Gesellschaft m.b.H.","Finanzinstitut","Mooslackengasse 12",1190,"Wien","Österreich",,,,,,
"Raiffeisen-Gemeindegebäudeleasing Gesellschaft m.b.H.","Finanzinstitut","Mooslackengasse 12",1190,"Wien","Österreich",,,,,,
"Raiffeisen-Immobilien-Leasing Gesellschaft m.b.H.","Finanzinstitut","Mooslackengasse 12",1190,"Wien","Österreich",,,,,,
"Raiffeisen-IMPULS Kfz und Mobilien GmbH","Finanzinstitut","Europaplatz 1a",4020,"Linz","Österreich",,,,,,
"Raiffeisen-IMPULS-Alpha Immobilien GmbH","Finanzinstitut","Europaplatz 1a",4020,"Linz","Österreich",,,,,,
"Raiffeisen-IMPULS-Bautenleasing Gesellschaft m.b.H.","Finanzinstitut","Europaplatz 1a",4020,"Linz","Österreich",,,"+4373265968997",,,
"Raiffeisen-IMPULS-Beta Immobilien GmbH","Finanzinstitut","Europaplatz 1a",4020,"Linz","Österreich",,,,,,
"Raiffeisen-IMPULS-Delta Immobilien GmbH","Finanzinstitut","Europaplatz 1a",4020,"Linz","Österreich",,,,,,
"Raiffeisen-IMPULS-Delta Mobilienleasing GmbH","Finanzinstitut","Europaplatz 1a",4020,"Linz","Österreich",,,,,,
"Raiffeisen-IMPULS-Epsilon Immobilien GmbH","Finanzinstitut","Europaplatz 1a",4020,"Linz","Österreich",,,,,,
"Raiffeisen-IMPULS-Fuhrparkmanagement GmbH","Finanzinstitut","Europaplatz 1a",4020,"Linz","Österreich",,,,,,
"Raiffeisen-IMPULS-Gamma Immobilien GmbH","Finanzinstitut","Europaplatz 1a",4020,"Linz","Österreich",,,,,,
"Raiffeisen-IMPULS-Holding GmbH & Co KG","Finanzinstitut","Europaplatz 1a",4020,"Linz","Österreich",,,,,,
"Raiffeisen-IMPULS-Immobilien GmbH","Finanzinstitut","Europaplatz 1a",4020,"Linz","Österreich",,,,,,
"Raiffeisen-IMPULS-Immobilienleasing GmbH","Finanzinstitut","Europaplatz 1a",4020,"Linz","Österreich",,,,,,
"Raiffeisen-IMPULS-Kappa Immobilien GmbH","Finanzinstitut","Europaplatz 1a",4020,"Linz","Österreich",,,,,,
"Raiffeisen-IMPULS-Lambda Immobilien GmbH","Finanzinstitut","Europaplatz 1a",4020,"Linz","Österreich",,,,,,
"Raiffeisen-IMPULS-Leasing Gesellschaft m.b.H.","Finanzinstitut","Europaplatz 1a",4020,"Linz","Österreich",,,,,,
"Raiffeisen-IMPULS-Leasing Gesellschaft m.b.H. & Co.KG.","Finanzinstitut","Europaplatz 1a",4020,"Linz","Österreich",,,,,,
"Raiffeisen-IMPULS-Liegenschaftsverwaltung Gesellschaft m.b.H.","Finanzinstitut","Europaplatz 1a",4020,"Linz","Österreich",,,,,,
"Raiffeisen-IMPULS-Mobilienleasing GmbH","Finanzinstitut","Europaplatz 1a",4020,"Linz","Österreich",,,,,,
"Raiffeisen-IMPULS-My Immobilien GmbH","Finanzinstitut","Europaplatz 1a",4020,"Linz","Österreich",,,,,,
"Raiffeisen-IMPULS-Omega Immobilien GmbH","Finanzinstitut","Europaplatz 1a",4020,"Linz","Österreich",,,,,,
"Raiffeisen-IMPULS-Projekt Atzbach GmbH","Finanzinstitut","Europaplatz 1a",4020,"Linz","Österreich",,,,,,
"Raiffeisen-IMPULS-Projekt Eferding GmbH","Finanzinstitut","Europaplatz 1a",4020,"Linz","Österreich",,,,,,
"Raiffeisen-IMPULS-Projekt Gänserndorf GmbH","Finanzinstitut","Europaplatz 1a",4020,"Linz","Österreich",,,,,,
"Raiffeisen-IMPULS-Projekt Graz-Webling GmbH","Finanzinstitut","Europaplatz 1a",4020,"Linz","Österreich",,,,,,
"Raiffeisen-IMPULS-Projekt Hörsching GmbH","Finanzinstitut","Europaplatz 1a",4020,"Linz","Österreich",,,,,,
"Raiffeisen-IMPULS-Projekt Kittsee GmbH","Finanzinstitut","Europaplatz 1a",4020,"Linz","Österreich",,,,,,
"Raiffeisen-IMPULS-Projekt Lehen GmbH","Finanzinstitut","Europaplatz 1a",4020,"Linz","Österreich",,,,,,
"Raiffeisen-IMPULS-Projekt Ort GmbH","Finanzinstitut","Europaplatz 1a",4020,"Linz","Österreich",,,,,,
"Raiffeisen-IMPULS-Projekt Straßwalchen GmbH","Finanzinstitut","Europaplatz 1a",4020,"Linz","Österreich",,,,,,
"Raiffeisen-IMPULS-Projekt Traunviertel GmbH","Finanzinstitut","Europaplatz 1a",4020,"Linz","Österreich",,,,,,
"Raiffeisen-IMPULS-Projekt Urstein GmbH","Finanzinstitut","Europaplatz 1a",4020,"Linz","Österreich",,,,,,
"Raiffeisen-IMPULS-Projekt Wien-Nord GmbH","Finanzinstitut","Europaplatz 1a",4020,"Linz","Österreich",,,,,,
"Raiffeisen-IMPULS-Projekt Wolfsberg GmbH","Finanzinstitut","Europaplatz 1a",4020,"Linz","Österreich",,,,,,
"Raiffeisen-IMPULS-Rankweil Immobilien GmbH","Finanzinstitut","Europaplatz 1a",4020,"Linz","Österreich",,,,,,
"Raiffeisen-IMPULS-Realitätenleasing GmbH","Finanzinstitut","Europaplatz 1a",4020,"Linz","Österreich",,,,,,
"Raiffeisen-IMPULS-Rho Immobilien GmbH & Co KG","Finanzinstitut","Europaplatz 1a",4020,"Linz","Österreich",,,,,,
"Raiffeisen-IMPULS-Vermietungsgesellschaft m.b.H.","Finanzinstitut","Europaplatz 1a",4020,"Linz","Österreich",,,,,,
"Raiffeisen-IMPULS-Xi Immobilien GmbH","Finanzinstitut","Europaplatz 1a",4020,"Linz","Österreich",,,,,,
"Raiffeisen-IMPULS-Zeta Immobilien GmbH","Finanzinstitut","Europaplatz 1a",4020,"Linz","Österreich",,,,,,
"Raiffeisen-Kommunalgebäudeleasing Gesellschaft m.b.H.","Finanzinstitut","Mooslackengasse 12",1190,"Wien","Österreich",,,,,,
"Raiffeisen-Leasing Aircraft Finance GmbH","Finanzinstitut","Mooslackengasse 12",1190,"Wien","Österreich",,,,,,
"Raiffeisen-Leasing Anlagen und KFZ Vermietungs GmbH","Finanzinstitut","Mooslackengasse 12",1190,"Wien","Österreich",,,,,,
"Raiffeisen-Leasing Beteiligung GesmbH","Finanzinstitut","Mooslackengasse 12",1190,"Wien","Österreich",,,,,,
"Raiffeisen-Leasing Fuhrparkmanagement Gesellschaft m.b.H.","Finanzinstitut","Mooslackengasse 12",1190,"Wien","Österreich",,,,,,
"Raiffeisen-Leasing Gesellschaft m.b.H.","Finanzinstitut","Mooslackengasse 12",1190,"Wien","Österreich",,,,,,
"Raiffeisen-Leasing Immobilienmanagement Gesellschaft m.b.H.","Finanzinstitut","Mooslackengasse 12",1190,"Wien","Österreich",,,"+431716012109",,,
"Raiffeisen-Leasing Immobilienverwaltung Gesellschaft m.b.H.","Finanzinstitut","Mooslackengasse 12",1190,"Wien","Österreich",,,,,,
"Raiffeisen-Leasing International Gesellschaft m.b.H.","Finanzinstitut","Am Stadtpark 3",1030,"Wien","Österreich",,,,,,
"Raiffeisen-Leasing Liegenschaftsverwaltung Kraußstraße Gesellschaft m.b.H.","Finanzinstitut","Mooslackengasse 12",1190,"Wien","Österreich",,,,,,
"Raiffeisen-Leasing Mobilien und KFZ GmbH","Finanzinstitut","Mooslackengasse 12",1190,"Wien","Österreich",,,,,,
"Raiffeisen-Leasing Österreich GmbH","Finanzinstitut","Mooslackengasse 12",1190,"Wien","Österreich",,,,,,
"Raiffeisen-Leasing Wärmeversorgungsanlagenbetriebs GmbH","Finanzinstitut","Mooslackengasse 12",1190,"Wien","Österreich",,,,,,
"""Raiffeisen-Rent"" Vermögensberatung und Treuhand Gesellschaft m.b.H.","Finanzinstitut","Mooslackengasse 12",1190,"Wien","Österreich",,,,,,
"Raiffeisen-Wohnbauleasing Österreich GmbH","Finanzinstitut","Mooslackengasse 12",1190,"Wien","Österreich",,,,,,
"RALT Raiffeisen-Leasing Gesellschaft m.b.H.","Finanzinstitut","Am Stadtpark 9",1030,"Wien","Österreich",,,,,,
"RALT Raiffeisen-Leasing Gesellschaft m.b.H. & Co KG","Finanzinstitut","Am Stadtpark 9",1030,"Wien","Österreich",,,,,,
"RAN elf Raiffeisen-Anlagenvermietung Gesellschaft m.b.H.","Finanzinstitut","Mooslackengasse 12",1190,"Wien","Österreich",,,,,,
"RAN vierzehn Raiffeisen-Anlagenvermietung Gesellschaft m.b.H.","Finanzinstitut","Mooslackengasse 12",1190,"Wien","Österreich",,,"+4317160121",,,
"RAN zehn Raiffeisen-Anlagenvermietung Gesellschaft m.b.H.","Finanzinstitut","Mooslackengasse 12",1190,"Wien","Österreich",,,,,,
"RBI ITS Leasing-Immobilien GmbH","Finanzinstitut","Mooslackengasse 12",1190,"Wien","Österreich",,,,,,
"RBI Leasing GmbH","Finanzinstitut","Mooslackengasse 12",1190,"Wien","Österreich",,,,,,
"Realitas Grundverwertungsgesellschaft m.b.H.","Finanzinstitut","Baumschulgasse 5",8230,"Hartberg","Österreich",,,"+431588945000",,,
"Real-Lease Grundstücksverwaltungs-Gesellschaft m.b.H.","Finanzinstitut","Operngasse 21",1040,"Wien","Österreich",,,,,,
"Realplan Beta Liegenschaftsverwaltung Gesellschaft m.b.H.","Finanzinstitut","Mooslackengasse 12",1190,"Wien","Österreich",,,,,,
"Real-Rent Leasing Gesellschaft m.b.H.","Finanzinstitut","Operngasse 21",1040,"Wien","Österreich",,,,,,
"Regev Realitätenverwertungsgesellschaft m.b.H.","Finanzinstitut","Operngasse 21",1040,"Wien","Österreich",,,,,,
"Rehazentrum Kitzbühel Immobilien-Leasing GmbH","Finanzinstitut","Adamgasse 3-7",6020,"Innsbruck","Österreich",,,,,,
"REMUS Raiffeisen-Immobilien-Leasing Gesellschaft m.b.H.","Finanzinstitut","Mooslackengasse 12",1190,"Wien","Österreich",,,,,,
"RF sechs BAWAG P.S.K. LEASING GmbH & Co. KG.","Finanzinstitut","Quellenstraße 51-55",1100,"Wien","Österreich",,,,,,
"RF 17 BAWAG Immobilienleasing GmbH","Finanzinstitut","Quellenstraße 51-55",1100,"Wien","Österreich",,,"+431534533200",,,
"RHEA-Immorent Holding GmbH","Finanzinstitut","Am Belvedere 1",1100,"Wien","Österreich",,,,,,
"RICOH AUSTRIA GmbH","Finanzinstitut","Schillingstraße 6",1220,"Wien","Österreich",,,,,,
"RICOH Capital Austria GmbH","Finanzinstitut","Schillingstraße 6",1220,"Wien","Österreich",,,,,,
"Riesenradplatz GmbH","Finanzinstitut","Prater 7/Top 3",1020,"Wien","Österreich",,,,,,
"RIL II GmbH","Finanzinstitut","Inkustraße 1-7",3400,"Klosterneuburg","Österreich",,,,,,
"RIL IV Raiffeisen-Immobilien-Leasing Gesellschaft m.b.H.","Finanzinstitut","Mooslackengasse 12",1190,"Wien","Österreich",,,,,,
"RIL VI Raiffeisen-Immobilien-Leasing Gesellschaft m.b.H.","Finanzinstitut","Mooslackengasse 12",1190,"Wien","Österreich",,,,,,
"RIL VII Raiffeisen-Immobilien-Leasing Gesellschaft m.b.H.","Finanzinstitut","Mooslackengasse 12",1190,"Wien","Österreich",,,,,,
"RIL XIII Raiffeisen-Immobilien-Leasing Gesellschaft m.b.H.","Finanzinstitut","Mooslackengasse 12",1190,"Wien","Österreich",,,,,,
"RIL XIV Raiffeisen-Immobilien-Leasing Gesellschaft m.b.H.","Finanzinstitut","Mooslackengasse 12",1190,"Wien","Österreich",,,,,,
"RILREU Raiffeisen-Immobilien-Leasing Gesellschaft m.b.H.","Finanzinstitut","Mooslackengasse 12",1190,"Wien","Österreich",,,,,,
"RL Flussschifffahrts GmbH & Co KG","Finanzinstitut","Mooslackengasse 12",1190,"Wien","Österreich",,,,,,
"RL Grundstückverwaltung Klagenfurt-Süd GmbH","Finanzinstitut","Mooslackengasse 12",1190,"Wien","Österreich",,,,,,
"RL Hotel Palace Wien Besitz GmbH","Finanzinstitut","Mooslackengasse 12",1190,"Wien","Österreich",,,,,,
"RL Retail Holding GmbH","Finanzinstitut","Mooslackengasse 12",1190,"Wien","Österreich",,,,,,
"RL Thermal Beteiligungen GmbH","Finanzinstitut","Mooslackengasse 12",1190,"Wien","Österreich",,,,,,
"RL Thermal GmbH & Co Liegenschaftsverwaltung KG","Finanzinstitut","Mooslackengasse 12",1190,"Wien","Österreich",,,,,,
"RLKG Raiffeisen-Leasing Gesellschaft m.b.H.","Finanzinstitut","Mooslackengasse 12",1190,"Wien","Österreich",,,,,,
"RSAL Raiffeisen Steiermark Anlagenleasing GmbH","Finanzinstitut","Kaiserfeldgasse 5 - 7",8010,"Graz","Österreich",,,,,,
"RSB Anlagenvermietung Gesellschaft m.b.H.","Finanzinstitut","Operngasse 21",1040,"Wien","Österreich",,,"+4315880852",,,
"RSIL Immobilienleasing Raiffeisen Steiermark GmbH","Finanzinstitut","Kaiserfeldgasse 5-7",8010,"Graz","Österreich",,,,,,
"RUBRA Raiffeisen-Immobilien-Leasing Gesellschaft m.b.H.","Finanzinstitut","Mooslackengasse 12",1190,"Wien","Österreich",,,,,,
"Rutter Leasing GmbH","Finanzinstitut","Tegetthoffstraße 7",1010,"Wien","Österreich",,,,,,
"SABAG Garagen Projekterrichtungs-und Vermietungs-GmbH in Liqu.","Finanzinstitut","Jakob-Haringer-Str.8",5020,"Salzburg","Österreich",,,,,,
"SABAG Projekterrichtungs- und Vermietungs-GmbH","Finanzinstitut","Jakob-Haringer-Str.8",5020,"Salzburg","Österreich",,,,,,
"SABAG Schulen Errichtungs- und Vermietungs-GmbH","Finanzinstitut","Jakob-Haringer-Str.8",5020,"Salzburg","Österreich",,,,,,
"SAL Liegenschaftsverwaltungsgesellschaft m.b.H.","Finanzinstitut","Am Belvedere 1",1100,"Wien","Österreich",,,,,,
"Salzburger Sparkasse Leasing Gesellschaft m.b.H.","Finanzinstitut","Am Belvedere 1",1100,"Wien","Österreich",,,,,,
"SAMARA Raiffeisen-Immobilien-Leasing Gesellschaft m.b.H.","Finanzinstitut","Mooslackengasse 12",1190,"Wien","Österreich",,,,,,
"Sana Grundstückverwaltungs Gesellschaft m.b.H.","Finanzinstitut","Hypogasse 1",3100,"St. Pölten","Österreich",,,,,,
"SATORIA Grundstückvermietung GmbH","Finanzinstitut","Hypogasse 1",3100,"St. Pölten","Österreich",,,,,,
"Scania Leasing Österreich Ges.m.b.H.","Finanzinstitut","Johann Steinböckstraße 4",2345,"Brunn am Gebirge","Österreich",,,,,,
"SCIENTIA Immorent GmbH","Finanzinstitut","Am Belvedere 1",1100,"Wien","Österreich",,,,,,
"S-City Center Wirtschaftsgütervermietungsgesellschaft m.b.H.","Finanzinstitut","Neunkirchner Str. 4",2700,"Wiener Neustadt","Österreich",,,,,,
"SCM V GmbH","Finanzinstitut","Adalbert Stifter Gasse 12",3400,"Klosterneuburg","Österreich",,,,,,
"SECA-Leasing Gesellschaft m.b.H.","Finanzinstitut","Operngasse 21",1040,"Wien","Österreich",,,,,,
"Securilease Gesellschaft m.b.H.","Finanzinstitut","Sauraugasse 12",1130,"Wien","Österreich",,,,,,
"SEDEC Z Immobilien Leasing Gesellschaft m.b.H.","Finanzinstitut","Operngasse 21",1040,"Wien","Österreich",,,,,,
"Seilbahnleasing GmbH","Finanzinstitut","Hypo-Passage 2",6020,"Innsbruck","Österreich",,,,,,
"SELENE Raiffeisen-Immobilien-Leasing Gesellschaft m.b.H.","Finanzinstitut","Mooslackengasse 12",1190,"Wien","Österreich",,,,,,
"""SELIMMO"" - Sparkasse Mühlviertel-West - DIE ERSTE Leasing - Immobilienvermietung GmbH","Finanzinstitut","Stadtplatz 24",4150,"Rohrbach (OÖ)","Österreich",,,,,,
"Seniorenwohnheim Trofaiach Gesellschaft mbH & Co KG","Finanzinstitut","Hauptplatz 13",8280,"Fürstenfeld","Österreich",,,,,,
"Sext Z Immobilien Leasing Gesellschaft m.b.H.","Finanzinstitut","Operngasse 21",1040,"Wien","Österreich",,,,,,
"SF Hotelerrichtungsgesellschaft m.b.H.","Finanzinstitut","Mooslackengasse 12",1190,"Wien","Österreich",,,,,,
"SG Equipment Leasing Austria GmbH","Finanzinstitut","Mariahilfer Straße 123/1/2 Top 122",1060,"Wien","Österreich",,,"+431522341022",,,
"SG Transportation Leasing Austria GmbH","Finanzinstitut","Mariahilfer Straße 123/1/2/Top 122",1060,"Wien","Österreich",,,,,,
"""SGL"" Grundstücksverwaltungs- und Leasing Gesellschaft m.b.H.","Finanzinstitut","Am Belvedere 1",1100,"Wien","Österreich",,,,,,
"Shopping Arena GmbH","Finanzinstitut","Alpenstraße 107",5020,"Salzburg","Österreich",,,,,,
"Siebenbrunnengasse 21 GmbH & Co OG","Finanzinstitut","Friedrichstraße 10",1010,"Wien","Österreich",,,,,,
"Sigma Leasing GmbH","Finanzinstitut","Operngasse 21",1040,"Wien","Österreich",,,,,,
"Silvretta-Center Leasing GmbH","Finanzinstitut","Rheinstraße 11",6900,"Bregenz","Österreich",,,,,,
"SINIS Raiffeisen-Immobilien-Leasing Gesellschaft m.b.H.","Finanzinstitut","Mooslackengasse 12",1190,"Wien","Österreich",,,,,,
"S-Leasing Gesellschaft m.b.H.","Finanzinstitut","Hauptpl. 18",4560,"Kirchdorf an der Krems","Österreich",,,,,,
"S-Leasing Immobilienvermietungsgesellschaft m.b.H.","Finanzinstitut","Neunkirchner Straße 4",2700,"Wiener Neustadt","Österreich",,,,,,
"SL-LEASING Ges.m.b.H.","Finanzinstitut","Wollzeile 16",1010,"Wien","Österreich",,,,,,
"Smilax Real Estate GmbH","Finanzinstitut","Rotheau 68",3153,"Eschenau an der Traisen","Österreich",,,,,,
"SOLAR II Raiffeisen-Immobilien-Leasing Gesellschaft m.b.H.","Finanzinstitut","Mooslackengasse 12",1190,"Wien","Österreich",,,,,,
"SOLIDA Raiffeisen-Immobilien-Leasing Gesellschaft m.b.H.","Finanzinstitut","Mooslackengasse 12",1190,"Wien","Österreich",,,,,,
"SOLIS-CIVITAS-IMMORENT GmbH","Finanzinstitut","Am Belvedere 1",1100,"Wien","Österreich",,,,,,
"Sonata Leasing-Gesellschaft m.b.H.","Finanzinstitut","Operngasse 21",1040,"Wien","Österreich",,,,,,
"Sparfinanz-, Vermögens-, Verwaltungs- und Beratungs-Gesellschaft m.b.H.","Finanzinstitut","Neunkirchner Straße 4",2700,"Wiener Neustadt","Österreich",,,,,,
"SPARKASSE IMMORENT Grundverwertungsgesellschaft m.b.H.","Finanzinstitut","Am Belvedere 1",1100,"Wien","Österreich",,,,,,
"Sparkassen Leasing Süd GmbH","Finanzinstitut","Andreas Hofer Platz 17",8010,"Graz","Österreich",,,,,,
"Sparkassen Leasing Süd GmbH & Co KG","Finanzinstitut","Andreas Hofer Platz 17",8010,"Graz","Österreich",,,,,,
"Spectrum Grundstücksverwaltungs-Gesellschaft m.b.H.","Finanzinstitut","Operngasse 21",1040,"Wien","Österreich",,,,,,
"SPICA Raiffeisen-Immobilien-Leasing Gesellschaft m.b.H.","Finanzinstitut","Mooslackengasse 12",1190,"Wien","Österreich",,,,,,
"SPORT EYBL & SPORTS EXPERTS Logistikbetriebs GmbH","Finanzinstitut","Flugplatzstraße 30",4600,"Wels","Österreich",,,,,,
"Sport Kienpointner GmbH","Finanzinstitut","Dorfstraße 6",6384,"Waidring","Österreich",,,,,,
"SRE Immobilien GmbH","Finanzinstitut","Wipplingerstraße 4",1010,"Wien","Österreich",,,,,,
"Stadtgemeinde Bad Hall Errichtungs- und Betriebsgesellschaft m.b.H.","Finanzinstitut","Hauptplatz 5",4540,"Bad Hall","Österreich",,,,,,
"START Immobilienleasing GmbH","Finanzinstitut","Quellenstraße 51-55",1100,"Wien","Österreich",,,,,,
"Steirische Gemeindegebäude Leasing Gesellschaft m.b.H.","Finanzinstitut","Andreas Hofer Platz 17",8010,"Graz","Österreich",,,,,,
"Steirische Kommunalgebäudeleasing Gesellschaft m.b.H.","Finanzinstitut","Andreas Hofer Platz 17",8010,"Graz","Österreich",,,,,,
"Steirische Leasing für Gebietskörperschaften Gesellschaft m.b.H.","Finanzinstitut","Andreas Hofer Platz 17",8010,"Graz","Österreich",,,,,,
"Steirische Leasing für öffentliche Bauten Gesellschaft m.b.H.","Finanzinstitut","Andreas Hofer Platz 17",8010,"Graz","Österreich",,,,,,
"Steirische Raiffeisen - Immobilien - Leasing Gesellschaft m.b.H.","Finanzinstitut","Kaiserfeldg. 5-7",8010,"Graz","Österreich",,,,,,
"Stewe Grundstücksverwaltungs-Gesellschaft m.b.H.","Finanzinstitut","Operngasse 21",1040,"Wien","Österreich",,,,,,
"Subholding Immorent GmbH","Finanzinstitut","Am Belvedere 1",1100,"Wien","Österreich",,,,,,
"SUPRA HYPO Leasing GmbH in Liqu.","Finanzinstitut","Joanneumring 20",8010,"Graz","Österreich",,,,,,
"SUPRIA Raiffeisen-Immobilien-Leasing Gesellschaft m.b.H.","Finanzinstitut","Mooslackengasse 12",1190,"Wien","Österreich",,,,,,
"SWO Kommunalgebäudeleasing Gesellschaft m.b.H.","Finanzinstitut","Am Belvedere 1",1100,"Wien","Österreich",,,,,,
"Tabachnik Gesellschaft m.b.H.","Finanzinstitut","Ferstelgasse 1/8",1090,"Wien","Österreich",,,,,,
"TAURIS-Immorent Grundverwertungsgesellschaft m.b.H.","Finanzinstitut","Am Belvedere 1",1100,"Wien","Österreich",,,,,,
"TAURUS Raiffeisen-Immobilien-Leasing Gesellschaft m.b.H. in Liqu.","Finanzinstitut","Am Stadtpark 9",1030,"Wien","Österreich",,,,,,
"Telos Mobilien - Leasinggesellschaft m.b.H.","Finanzinstitut","Hypogasse 1",3100,"St. Pölten","Österreich",,,,,,
"Terz Z Immobilien Leasing Gesellschaft m.b.H.","Finanzinstitut","Operngasse 21",1040,"Wien","Österreich",,,,,,
"THALLO Raiffeisen-Immobilien-Leasing GmbH","Finanzinstitut","Mooslackengasse 12",1190,"Wien","Österreich",,,,,,
"Theuthras-Immorent Grundverwertungsgesellschaft m.b.H.","Finanzinstitut","Andreas Hofer Platz 17",8010,"Graz","Österreich",,,,,,
"THYMO Raiffeisen-Leasing Gesellschaft m.b.H.","Finanzinstitut","Mooslackengasse 12",1190,"Wien","Österreich",,,,,,
"Tiroler Kommunalgebäudeleasing Gesellschaft m.b.H.","Finanzinstitut","Sparkassenplatz 5",6020,"Innsbruck","Österreich",,,,,,
"Tiroler Landesprojekte Grundverwertungs GmbH","Finanzinstitut","Hypo-Passage 2",6020,"Innsbruck","Österreich",,,,,,
"TKL II. Grundverwertungsgesellschaft m.b.H.","Finanzinstitut","Sparkassenplatz 5",6020,"Innsbruck","Österreich",,,,,,
"TKL V Grundverwertungsgesellschaft m.b.H.","Finanzinstitut","Hypo-Passage 2",6020,"Innsbruck","Österreich",,,,,,
"TKL VI Grundverwertungsgesellschaft m.b.H.","Finanzinstitut","Hypo-Passage 2",6020,"Innsbruck","Österreich",,,,,,
"TKL VII Grundverwertungsgesellschaft m.b.H.","Finanzinstitut","Hypo-Passage 2",6020,"Innsbruck","Österreich",,,,,,
"TKL VIII Grundverwertungsgesellschaft m.b.H.","Finanzinstitut","Hypo-Passage 2",6020,"Innsbruck","Österreich",,,,,,
"TRABITUS Grundstückvermietungs Gesellschaft m.b.H.","Finanzinstitut","Am Belvedere 1",1100,"Wien","Österreich",,,,,,
"TREDEC Z Immobilien Leasing Gesellschaft m.b.H.","Finanzinstitut","Operngasse 21",1040,"Wien","Österreich",,,,,,
"Treisma Grundstücksverwaltungs Gesellschaft m.b.H.","Finanzinstitut","Hypogasse 1",3100,"St. Pölten","Österreich",,,,,,
"UCLA Immo-Beteiligungsholding GmbH & Co KG","Finanzinstitut","Operngasse 21",1040,"Wien","Österreich",,,,,,
"Ufficium Immobilien Leasing Gesellschaft m.b.H.","Finanzinstitut","Operngasse 21",1040,"Wien","Österreich",,,,,,
"UNDA Grundstückvermietungs Gesellschaft m.b.H.","Finanzinstitut","Hypogasse 1",3100,"St. Pölten","Österreich",,,,,,
"Unicom Immobilien Leasing Gesellschaft m.b.H.","Finanzinstitut","Operngasse 21",1040,"Wien","Österreich",,,,,,
"UniCredit AURORA Leasing GmbH","Finanzinstitut","Operngasse 21",1040,"Wien","Österreich",,,,,,
"UniCredit Garagen Errichtung und Verwertung GmbH","Finanzinstitut","Operngasse 21",1040,"Wien","Österreich",,,,,,
"UniCredit Global Leasing Export GmbH","Finanzinstitut","Operngasse 21",1040,"Wien","Österreich",,,,,,
"UniCredit Insurance Management CEE GmbH","Finanzinstitut","Julius Tandler Platz 3",1090,"Wien","Österreich",,,,,,
"UniCredit KFZ Leasing GmbH","Finanzinstitut","Operngasse 21",1040,"Wien","Österreich",,,,,,
"UniCredit Leasing (Austria) GmbH","Finanzinstitut","Operngasse 21",1040,"Wien","Österreich",,,"+4315880852",,,
"UniCredit Leasing Technikum GmbH","Finanzinstitut","Operngasse 21",1040,"Wien","Österreich",,,,,,
"UniCredit Luna Leasing GmbH","Finanzinstitut","Operngasse 21",1040,"Wien","Österreich",,,,,,
"UniCredit Mobilien und KFZ Leasing GmbH","Finanzinstitut","Operngasse 21",1040,"Wien","Österreich",,,,,,
"UniCredit Pegasus Leasing GmbH","Finanzinstitut","Operngasse 21",1040,"Wien","Österreich",,,,,,
"UniCredit Polaris Leasing GmbH","Finanzinstitut","Operngasse 21",1040,"Wien","Österreich",,,,,,
"UniCredit TechRent Leasing GmbH","Finanzinstitut","Operngasse 21",1040,"Wien","Österreich",,,,,,
"UniCredit Zega Leasing GmbH","Finanzinstitut","Operngasse 21",1040,"Wien","Österreich",,,,,,
"UNIQA Immobilien-Projekterrichtungs GmbH","Finanzinstitut","Untere Donaustraße 21",1029,"Wien","Österreich",,,,,,
"UNIQA Leasing GmbH","Finanzinstitut","Mooslackengasse 12",1190,"Wien","Österreich",,,,,,
"UNTERINNTALER Raiffeisen-Leasing Gesellschaft m.b.H. & Co KG","Finanzinstitut","Mooslackengasse 12",1190,"Wien","Österreich",,,,,,
"URSA Raiffeisen-Immobilien-Leasing Gesellschaft m.b.H.","Finanzinstitut","Mooslackengasse 12",1190,"Wien","Österreich",,,,,,
"VALET-Grundstückverwaltungs Gesellschaft m.b.H.","Finanzinstitut","Hypogasse 1",3100,"St. Pölten","Österreich",,,,,,
"VANELLA Raiffeisen-Immobilien-Leasing Gesellschaft m.b.H.","Finanzinstitut","Mooslackengasse 12",1190,"Wien","Österreich",,,,,,
"Vape Communa Leasinggesellschaft m.b.H.","Finanzinstitut","Operngasse 21",1040,"Wien","Österreich",,,,,,
"VB Kärnten Leasing GmbH","Finanzinstitut","Hauptplatz 8",9170,"Ferlach","Österreich",,,,,,
"VB Real Estate Leasing Alpha GmbH","Finanzinstitut","Peregringasse 2",1090,"Wien","Österreich",,,,,,
"VB Real Estate Leasing Delta GmbH","Finanzinstitut","Peregringasse 2",1090,"Wien","Österreich",,,,,,
"VB Real Estate Leasing FMZ eins GmbH","Finanzinstitut","Peregringasse 2",1090,"Wien","Österreich",,,,,,
"VB Real Estate Leasing Gamma GmbH","Finanzinstitut","Peregringasse 2",1090,"Wien","Österreich",,,,,,
"VB Real Estate Leasing Ismene GmbH","Finanzinstitut","Peregringasse 2",1090,"Wien","Österreich",,,,,,
"VB Real Estate Leasing Penta GmbH","Finanzinstitut","Peregringasse 2",1090,"Wien","Österreich",,,,,,
"VB Real Estate Leasing RAI GmbH","Finanzinstitut","Peregringasse 2",1090,"Wien","Österreich",,,,,,
"VB Real Estate Leasing Viribus GmbH","Finanzinstitut","Schmiedgasse 31",8010,"Graz","Österreich",,,,,,
"VB Real Estate Services GmbH","Finanzinstitut","Peregringasse 2",1090,"Wien","Österreich",,,,,,
"VBC 3 Errichtungs GmbH","Finanzinstitut","Hypo-Passage 2",6020,"Innsbruck","Österreich",,,,,,
"VB-Immobilienverwaltungs- und -vermittlungs GmbH","Finanzinstitut","Pernhartgasse 7",9020,"Klagenfurt am Wörthersee","Österreich",,,,,,
"VBV Anlagenvermietungs- und Beteiligungs-GmbH","Finanzinstitut","Peregringasse 2",1090,"Wien","Österreich",,,,,,
"VBV Holding GmbH","Finanzinstitut","Peregringasse 2",1090,"Wien","Österreich",,,,,,
"Venilia Leasinggesellschaft m.b.H.","Finanzinstitut","Reisingergasse 9 Top 7",1100,"Wien","Österreich",,,,,,
"VESCUM Grundstückvermietungs GmbH","Finanzinstitut","Hypogasse 1",3100,"St. Pölten","Österreich",,,,,,
"VFS Financial Services GmbH","Finanzinstitut","Volvo Straße 1",2512,"Tribuswinkel","Österreich",,,,,,
"VIA Immobilien Errichtungsgesellschaft m.b.H.","Finanzinstitut","Am Belvedere 1",1100,"Wien","Österreich",,,,,,
"VIA-Grundstückverwaltungs Gesellschaft m.b.H.","Finanzinstitut","Hypogasse 1",3100,"St. Pölten","Österreich",,,,,,
"VIE Flugbetrieb Immobilien GmbH","Finanzinstitut","Flughafen",1300,"Wien-Flughafen","Österreich",,,,,,
"Viminal Grundstückverwaltungs Gesellschaft m.b.H.","Finanzinstitut","Am Belvedere 1",1100,"Wien","Österreich",,,,,,
"VIRTUS Grundstückvermietungs Gesellschaft m.b.H.","Finanzinstitut","Hypogasse 1",3100,"St. Pölten","Österreich",,,,,,
"VITALITAS Grundstückverwaltung GmbH","Finanzinstitut","Hypogasse 1",3100,"St. Pölten","Österreich",,,,,,
"VIVAT Immobilien GmbH","Finanzinstitut","Schönbrunner Straße 108/1. Stock",1050,"Wien","Österreich",,,,,,
"vivo Leasing GmbH & Co KG","Finanzinstitut","Stahlstr. 33",4031,"Linz","Österreich",,,,,,
"VKB Direktleasing Gesellschaft m.b.H.","Finanzinstitut","Rudigierstr. 5-7",4020,"Linz","Österreich",,,"+437327637405",,,
"VKB Gebäudeerrichtungs-Gesellschaft m.b.H.","Finanzinstitut","Rudigierstr. 5-7",4020,"Linz","Österreich",,,"+437327637408",,,
"VKB Kommunalleasing Gesellschaft m.b.H.","Finanzinstitut","Rudigierstr. 5-7",4020,"Linz","Österreich",,,"+437327637405",,,
"VKB Leasing Immobilienerrichtungs- und Verwaltungs-Gesellschaft m.b.H.","Finanzinstitut","Rudigierstr. 5-7",4020,"Linz","Österreich",,,"+437327637405",,,
"VKB Leasing Projekterrichtungs-Gesellschaft m.b.H.","Finanzinstitut","Rudigierstraße 5-7",4020,"Linz","Österreich",,,,,,
"VKB Leasing Projekterrichtungs-Gesellschaft m.b.H. & CoKG","Finanzinstitut","Rudigierstr. 5-7",4020,"Linz","Österreich",,,,,,
"VKB-Mobilien-Leasing Finanzierungs-Gesellschaft m.b.H.","Finanzinstitut","Rudigierstr. 5 - 7",4020,"Linz","Österreich",,,"+437327637270",,,
"VKB-Vermietungs- und Beteiligungs-Gesellschaft m.b.H.","Finanzinstitut","Rudigierstr. 5 - 7",4020,"Linz","Österreich",,,,,,
"VKL II Grundverwertungsgesellschaft m.b.H.","Finanzinstitut","Poststraße 11",6850,"Dornbirn","Österreich",,,,,,
"VKL III Gebäudeleasing-Gesellschaft m.b.H.","Finanzinstitut","Poststraße 11",6850,"Dornbirn","Österreich",,,,,,
"VKL IV Leasinggesellschaft mbH","Finanzinstitut","Poststraße 11",6850,"Dornbirn","Österreich",,,,,,
"VKL V Immobilien Leasingesellschaft m.b.H.","Finanzinstitut","Poststraße 11",6850,"Dornbirn","Österreich",,,,,,
"Volksbank Salzburg Leasing Gesellschaft m.b.H.","Finanzinstitut","St. Julienstr. 12",5020,"Salzburg","Österreich",,,"+4366286964275",,,
"Volksbank Vorarlberg Anlagen-Leasing GmbH","Finanzinstitut","Ringstraße 27",6830,"Rankweil","Österreich",,,"+43552240433",,,
"Volksbank Vorarlberg Privat-Leasing GmbH","Finanzinstitut","Ringstraße 27",6830,"Rankweil","Österreich",,,"+43552240433",,,
"VOLUNTAS Grundstückvermietungs Gesellschaft m.b.H.","Finanzinstitut","Hypogasse 1",3100,"St. Pölten","Österreich",,,,,,
"Vorarlberger Kommunalgebäudeleasing Gesellschaft m.b.H.","Finanzinstitut","Poststraße 11",6850,"Dornbirn","Österreich",,,,,,
"VVG Vermietung von Wirtschaftsgütern Gesellschaft m.b.H.","Finanzinstitut","Schottengasse 10",1010,"Wien","Österreich",,,,,,
"WDL Infrastruktur GmbH","Finanzinstitut","Schillerstr. 68",4021,"Linz Postfach","Österreich",,,,,,
"WECO FH Holztechnikum GmbH","Finanzinstitut","Schwarzstraße 13-15",5020,"Salzburg","Österreich",,,,,,
"WECO REHA Leasing GmbH","Finanzinstitut","Schwarzstraße 13-15",5020,"Salzburg","Österreich",,,,,,
"WEGA Raiffeisen-Immobilien-Leasing Gesellschaft m.b.H.","Finanzinstitut","Mooslackengasse 12",1190,"Wien","Österreich",,,,,,
"Wegwarte Seniorenresidenz Immobilien GmbH & Co KG","Finanzinstitut","Hauptplatz 13",8280,"Fürstenfeld","Österreich",,,,,,
"WEST CONSULT Bauten- und Beteiligungsverwaltung GmbH","Finanzinstitut","Schwarzstraße 13-15",5020,"Salzburg","Österreich",,"+436628886","+43662888613909",,,
"WEST CONSULT Leasing GmbH","Finanzinstitut","Schwarzstraße 13-15",5020,"Salzburg","Österreich",,,,,,
"WEST CONSULT Objekterrichtungs und Verwaltungs III Gesellschaft m.b.H.","Finanzinstitut","Schwarzstraße 13-15",5020,"Salzburg","Österreich",,,,,,
"WEST CONSULT Objekterrichtungs- und Verwaltungs-II Gesellschaft m.b.H.","Finanzinstitut","Schwarzstraße 13-15",5020,"Salzburg","Österreich",,,,,,
"WEST CONSULT Objekterrichtungs- und Verwaltungs-IV Gesellschaft m.b.H.","Finanzinstitut","Schwarzstraße 13-15",5020,"Salzburg","Österreich",,,,,,
"WEST CONSULT Objekterrichtungs- und Verwaltungs-V Gesellschaft m.b.H.","Finanzinstitut","Schwarzstraße 13-15",5020,"Salzburg","Österreich",,,,,,
"WEST CONSULT Revitalisierung Gesellschaft m.b.H.","Finanzinstitut","Schwarzstraße 13-15",5020,"Salzburg","Österreich",,,,,,
"Wiener Börse AG","Finanzinstitut","Wallnerstraße 8",1010,"Wien","Österreich",,,,,,
"Wiener Tierschutzhaus Liegenschaftsgesellschaft m.b.H.","Finanzinstitut","Triester Straße 8",2331,"Vösendorf","Österreich",,,,,,
"WIESTA-Immorent Immobilienleasing GmbH","Finanzinstitut","Am Belvedere 1",1100,"Wien","Österreich",,,,,,
"WNI Wiener Neustädter Immobilienleasing Ges.m.b.H.","Finanzinstitut","Neunkirchner Straße 4",2700,"Wiener Neustadt","Österreich",,,,,,
"WÖM Grundstücksverwaltungs-Gesellschaft m.b.H.","Finanzinstitut","Operngasse 21",1040,"Wien","Österreich",,,,,,
"Würth Leasing GmbH","Finanzinstitut","Wienerbergstraße 11",1100,"Wien","Österreich",,,,,,
"XENIA-Immorent Grundverwertungsgesellschaft m.b.H.","Finanzinstitut","Am Belvedere 1",1100,"Wien","Österreich",,,,,,
"Z Leasing Alfa Immobilien Leasing Gesellschaft m.b.H.","Finanzinstitut","Operngasse 21",1040,"Wien","Österreich",,,,,,
"Z Leasing ARKTUR Immobilien Leasing Gesellschaft m.b.H.","Finanzinstitut","Operngasse 21",1040,"Wien","Österreich",,,,,,
"Z Leasing AURIGA Immobilien Leasing Gesellschaft m.b.H.","Finanzinstitut","Operngasse 21",1040,"Wien","Österreich",,,,,,
"Z Leasing CORVUS Immobilien Leasing Gesellschaft m.b.H.","Finanzinstitut","Operngasse 21",1040,"Wien","Österreich",,,,,,
"Z Leasing DORADO Immobilien Leasing Gesellschaft m.b.H.","Finanzinstitut","Operngasse 21",1040,"Wien","Österreich",,,,,,
"Z Leasing DRACO Immobilien Leasing Gesellschaft m.b.H.","Finanzinstitut","Operngasse 21",1040,"Wien","Österreich",,,,,,
"Z Leasing Gama Immobilien Leasing Gesellschaft m.b.H.","Finanzinstitut","Operngasse 21",1040,"Wien","Österreich",,,,,,
"Z Leasing GEMINI Immobilien Leasing Gesellschaft m.b.H.","Finanzinstitut","Operngasse 21",1040,"Wien","Österreich",,,,,,
"Z Leasing HEBE Immobilien Leasing Gesellschaft m.b.H.","Finanzinstitut","Operngasse 21",1040,"Wien","Österreich",,,,,,
"Z Leasing HERCULES Immobilien Leasing Gesellschaft m.b.H.","Finanzinstitut","Operngasse 21",1040,"Wien","Österreich",,,,,,
"Z Leasing IPSILON Immobilien Leasing Gesellschaft m.b.H.","Finanzinstitut","Operngasse 21",1040,"Wien","Österreich",,,,,,
"Z Leasing Ita Immobilien Leasing Gesellschaft m.b.H.","Finanzinstitut","Operngasse 21",1040,"Wien","Österreich",,,,,,
"Z Leasing JANUS Immobilien Leasing Gesellschaft m.b.H.","Finanzinstitut","Operngasse 21",1040,"Wien","Österreich",,,,,,
"Z Leasing KALLISTO Immobilien Leasing Gesellschaft m.b.H.","Finanzinstitut","Operngasse 21",1040,"Wien","Österreich",,,,,,
"Z Leasing KAPA Immobilien Leasing Gesellschaft m.b.H.","Finanzinstitut","Operngasse 21",1040,"Wien","Österreich",,,,,,
"Z Leasing LYRA Immobilien Leasing Gesellschaft m.b.H.","Finanzinstitut","Operngasse 21",1040,"Wien","Österreich",,,,,,
"Z Leasing NEREIDE Immobilien Leasing Gesellschaft m.b.H.","Finanzinstitut","Operngasse 21",1040,"Wien","Österreich",,,,,,
"Z Leasing OMEGA Immobilien Leasing Gesellschaft m.b.H.","Finanzinstitut","Operngasse 21",1040,"Wien","Österreich",,,,,,
"Z Leasing PERSEUS Immobilien Leasing Gesellschaft m.b.H.","Finanzinstitut","Operngasse 21",1040,"Wien","Österreich",,,,,,
"Z Leasing SCORPIUS Immobilien Leasing Gesellschaft m.b.H.","Finanzinstitut","Operngasse 21",1040,"Wien","Österreich",,,,,,
"Z Leasing TAURUS Immobilien Leasing Gesellschaft m.b.H.","Finanzinstitut","Operngasse 21",1040,"Wien","Österreich",,,,,,
"Z Leasing VENUS Immobilien Leasing Gesellschaft m.b.H.","Finanzinstitut","Operngasse 21",1040,"Wien","Österreich",,,,,,
"Z Leasing VOLANS Immobilien Leasing Gesellschaft m.b.H.","Finanzinstitut","Operngasse 21",1040,"Wien","Österreich",,,,,,
"ZELUS Grundstückvermietungs Gesellschaft m.b.H.","Finanzinstitut","Hypogasse 1",3101,"St.Pölten","Österreich",,,,,,
"""Zentrum Puntigam"" Errichtungs- und Betriebsgesellschaft m.b.H.","Finanzinstitut","Donau-City Straße 9",1220,"Wien","Österreich",,,,,,
"ZWETTLER LEASING Gesellschaft m.b.H.","Finanzinstitut","Sparkassenplatz 3",3910,"Zwettl","Österreich",,,,,,
"3 Banken Kfz-Leasing GmbH","Finanzinstitut","Hauptplatz 10-11",4010,"Linz","Österreich",,,,,,
