"Id","Name","Branche","Typ","Adresse","PLZ","Land","E-Mail","Tel","Fax"
1,"Bundesministerium für Arbeit, Soziales und Konsumentenschutz","Bundesbehörde","Bundesministerium","Stubenring 1","1010","Österreich","post@sozialministerium.at","+431711000","+431711006502"
2,"Bundesministerium für Bildung","Bundesbehörde","Bundesministerium","Minoritenplatz 5","1010","Österreich","ministerium@bmb.gv.at","+431531200","+431531203099"
3,"Bundesministerium für Europa, Integration und Äußeres","Bundesbehörde","Bundesministerium","Minoritenplatz 8","1010","Österreich","post@bmeia.gv.at","+435011500","+435011590"
4,"Bundesministerium für Familien und Jugend","Bundesbehörde","Bundesministerium","Untere Donaustraße 13 - 15","1020","Österreich","office@bmfj.gv.at","+431711000","+43151316791339"
5,"Bundesministerium für Finanzen","Bundesbehörde","Bundesministerium","Johannesgasse 5","1010","Österreich","post@bmf.gv.at","+431514330","+431514335907201"
6,"Bundesministerium für Gesundheit und Frauen","Bundesbehörde","Bundesministerium","Radetzkystraße 2","1030","Österreich","buergerservice@bmgf.gv.at","+431711000","+43171344041000"
7,"Bundesministerium für Inneres","Bundesbehörde","Bundesministerium","Herrengasse 7","1010","Österreich","post@bmi.gv.at","+431531260","+43153126108613"
8,"Bundesministerium für Justiz","Bundesbehörde","Bundesministerium","Museumstraße 7","1070","Österreich","post@bmj.gv.at","+4315263686","+43521522727"
9,"Bundesministerium für Land- und Forstwirtschaft, Umwelt und Wasserwirtschaft","Bundesbehörde","Bundesministerium","Stubenring 1","1010","Österreich","service@bmlfuw.gv.at","+431711000","+43151316799900"
10,"Bundesministerium für Landesverteidigung und Sport","Bundesbehörde","Bundesministerium","Roßauer Lände 1","1090","Österreich","buergerservice@bmlvs.gv.at","+43502010","+43502011026122"
11,"Bundesministerium für Verkehr, Innovation und Technologie","Bundesbehörde","Bundesministerium","Radetzkystraße 2","1030","Österreich","servicebuero@bmvit.gv.at","+43171162650","+43171162658099"
12,"Bundesministerium für Wissenschaft, Forschung und Wirtschaft","Bundesbehörde","Bundesministerium","Stubenring 1","1010","Österreich","service@bmwfw.gv.at","+431711000","+4317108573"
13,"Bundesamt für Soziales u.Behindertenwesen","Bundesbehörde","Bundesbehörde","Babenbergerstraße 5",1010,,,,
14,"Österreichische Agentur für Gesundheit und Ernährungssicherheit GmbH","Bundesbehörde","Ausgelagertes Unternehmen","Spargelfeldstrasse 191",1220,,"management@ages.at","+43 5 0555-0","+43 50 555-22019"
15,"Beschussamt Wien","Bundesbehörde","Bundesbehörde","Wielandweg 27",1220,,"office-wien@beschussamt.gv.at","+43 1 7346268-0","+431 7346268-12"
16,"Bundeskanzleramt","Bundesbehörde","Bundesbehörde","Ballhausplatz 2",1010,,"service@bka.gv.at","+43 1 531 15-0","+43 1 531 15-204274"
17,"Plattform Digitales Österreich","Bundesbehörde","Nachgeordnete Dienststelle","Ballhausplatz 2",1010,,"service@bka.gv.at","+43 1 531 15-0","+43 1 531 15-204274"
18,"Arbeitsgruppe Gender Mainstreaming","Bundesbehörde","Nachgeordnete Dienststelle","Radetzkystraße 2","1030","Österreich","buergerservice@bmgf.gv.at","+431711000","+43171344041000"
19,"Anwaltschaft für Gleichbehandlung","Bundesbehörde","Nachgeordnete Dienststelle","Taubstummengasse 11",1040,,"gaw@bka.gv.at","+43 1 532 02 44","+43 1 532 02 46"
20,"Datenschutzbehörde","Bundesbehörde","Bundesbehörde","Hohenstaufengasse 3",1010,,"dsb@dsb.gv.at","+43 1 531 15-20 25 25","+43 1 531 15-202690"
21,"KommAustria","Bundesbehörde","Nachgeordnete Dienststelle","Mariahilfer Straße 77-79",1060,,"rtr@rtr.at","+43 1 58058-0","+43 1 58058-9191"
22,"Bundesverwaltungsgericht","Bundesbehörde","Gericht","Erdbergstraße 192-196",1030,,"einlaufstelle@bvwg.gv.at","+431/60 149-0 ",
23,"Bundesdenkmalamt","Bundesbehörde",,"Ballhausplatz 2",1010,,"service@bda.gv.at","+43 1 53415-0",
24,"Hofmusikkapelle","Bundesbehörde","Nachgeordnete Dienststelle","Hofburg-Schweizerhof",1010,,"office@hofmusikkapelle.gv.at","+43 1 533 99 27","+43 1 533 99 27-75"
25,"Sicherheitsuntersuchungsstelle des Bundes","Bundesbehörde","Nachgeordnete Dienststelle","Trauzlgasse 1",1210,,"sub@bmvit.gv.at","+43 1 71162 659000","+43 1 71162 659299"
26,"Büro für Funkanlagen und Telekommunikationsendeinrichtungen","Bundesbehörde","Nachgeordnete Dienststelle","Radetzkystraße 2",1030,,"bftk@bmvit.gv.at","+431 711 62 65 4040","+431 711 62 65 4049"
27,"Frequenzbüro","Bundesbehörde",,,,,,,
28,"Fernmeldebüro für Wien, Niederösterreich und Burgenland","Bundesbehörde",,,,,,,
29,"Fernmeldebüro für Oberösterreich und Salzburg","Bundesbehörde",,,,,,,
30,"Fernmeldebüro für Steiermark und Kärnten","Bundesbehörde",,,,,,,
31,"Fernmeldebüro für Tirol und Vorarlberg","Bundesbehörde",,,,,,,
32,"Bundesamt für Wasserwirtschaft","Bundesbehörde",,,,,,,
33,"Bundesamt für Weinbau","Bundesbehörde",,,,,,,
34,"Bundesanstalt für Agrarwirtschaft","Bundesbehörde",,,,,,,
35,"Höhere Bundeslehr- und Forschungsanstalt für Landwirtschaft und Ernährung, Lebensmittel- u. Biotechnologie Tirol Rotholz","Bundesbehörde",,,,,,,
36,"Bundesanstalt für Bergbauernfragen","Bundesbehörde",,,,,,,
37,"Bundesforschungs- und Ausbildungszentrum für Wald, Naturgefahren und Landschaft","Bundesbehörde",,,,,,,
38,"Österreichische Bundesgärten","Bundesbehörde",,,,,,,
39,"Bundeskellereiinspektion","Bundesbehörde",,,,,,,
40,"Bundesversuchswirtschaften GmbH","Bundesbehörde",,,,,,,
41,"Forstfachschule Waidhofen a.d. Ybbs","Bundesbehörde",,,,,,,
42,"Forsttechnischer Dienst für Wildbach- und Lawinenverbauung","Bundesbehörde",,,,,,,
43,"Forstwirtschaftliche Bundeslehr- und Versuchsforste","Bundesbehörde",,,,,,,
44,"Höhere Bundeslehr- und Forschungsanstalt für Gartenbau Wien-Schönbrunn","Bundesbehörde",,,,,,,
45,"Hochschule für Agrar- und Umweltpädagogik","Bundesbehörde",,,,,,,
46,"Höhere Bundeslehr- und Forschungsanstalt für Landwirtschaft Raumberg-Gumpenstein","Bundesbehörde",,,,,,,
47,"Höhere Bundeslehr- und Forschungsanstalt für Landwirtschaft, Landtechnik und Lebensmitteltechnologie Francisco-Josephinum","Bundesbehörde",,,,,,,
48,"Höhere Bundeslehranstalt für Forstwirtschaft Bruck a.d. Mur","Bundesbehörde",,,,,,,
49,"Höhere Bundeslehranstalt für Land- und Ernährungswirtschaft Elmberg","Bundesbehörde",,,,,,,
50,"Höhere Bundeslehr- u. Forschungsanstalt für Landwirtschaft und Ernährung, Lebensmittel- u. Biotechnologie Tirol Kematen","Bundesbehörde",,,,,,,
51,"Höhere Bundeslehranstalt für Land- und Ernährungswirtschaft Pitzelstätten","Bundesbehörde",,,,,,,
52,"Höhere Bundeslehranstalt für Land- und Ernährungswirtschaft Sitzenberg","Bundesbehörde",,,,,,,
53,"Höhere Bundeslehranstalt für Landwirtschaft Ursprung","Bundesbehörde",,,,,,,
54,"Höhere Bundeslehranstalt und Bundesamt für Wein- und Obstbau Klosterneuburg","Bundesbehörde",,,,,,,
55,"Höhere landwirtschaftliche Bundeslehranstalt St. Florian","Bundesbehörde",,,,,,,
56,"Spanische Hofreitschule - Bundesgestüt Piber GmbH","Bundesbehörde",,,,,,,
57,"Umweltbundesamt GmbH","Bundesbehörde",,,,,,,
58,"Österreichische Agentur für Gesundheit und Ernährungssicherheit GmbH","Bundesbehörde",,,,,,,
