"Id","Name","Name_Lang","Branche","Typ","Adresse","PLZ","Land","E-Mail","Tel","Fax","Pruefung"
1,"Studienbeihilfenbehörde","Studienbeihilfenbehörde","Bildung","Behörde","Gudrunstraße 179",1100,"Österreich","dsb@stbh.gv.at","+431601730","+43160173200","23.08.2020"
2,"BIFIE","Bundesinstitut für Bildungsforschung, Innovation & Entwicklung des österreichischen Schulwesens","Bildung","Behörde","Alpenstraße 121",5020,"Österreich","office@bifie.at","+43662620088","+436626200881900","23.08.2020"
3,"ÖSZ","Österreichisches Sprachen-Kompetenz-Zentrum","Bildung","Dienstleister","Hans-Sachs-Gasse 3/I",8010,"Österreich","office@oesz.at","+43316824150","+433168241506","23.08.2020"
4,"KUG","Universität für Musik und darstellende Kunst Graz","Bildung","Universität","Leonhardstraße 15",8010,,"info@kug.ac.at","'+433163890","+433163891101","23.08.2020"
5,"UFG","Universität für künstlerische und industrielle Gestaltung Linz","Bildung","Universität","Hauptplatz 6",4020,,"datenschutz@ufg.at","'+437327898","'+43732783508","23.08.2020"
6,"AK Bild","Akademie der bildenden Künste Wien","Bildung","Universität","Schillerplatz 3",1010,,"datenschutz@akbild.ac.at","'+431588160",,"23.08.2020"
7,"Die Angewandte","Universität für angewandte Kunst Wien","Bildung","Universität","Oskar-Kokoschka-Platz 2",1010,,"info@uni-ak.ac.at","'+431711332160",,"23.08.2020"
8,"MedUni Graz","Medizinische Universität Graz","Bildung","Universität","Auenbruggerplatz 2",8036,,"office.datenschutz@medunigraz.at","'+433163850",,"23.08.2020"
9,"Medizinische Universität Innsbruck","Medizinische Universität Innsbruck","Bildung","Universität","Christoph Probst Platz 1, Innrain 52",6020,,"i-master@i-med.ac.at","'+4351290030",,"23.08.2020"
10,"MedUni Wien","Medizinische Universität Wien","Bildung","Universität","Spitalgasse 23",1090,,"buero-universitaetsleitung@meduniwien.ac.at","‘+431401600","‘+43140160910000","23.08.2020"
11,"MDW","Universität für Musik und darstellende Kunst Wien","Bildung","Universität","Anton-von-Webern-Platz 1",1030,,"datenschutz@mdw.ac.at","'+43171155","+43171155199","23.08.2020"
12,"TU Graz","Technische Universität Graz","Bildung","Universität","Rechbauerstraße 12",8010,,"info@tugraz.at","'+433168730","'+433168736009","23.08.2020"
13,"TU Wien","Technische Universität Wien","Bildung","Universität","Karlsplatz 13",1040,,"datenschutz@tuwien.ac.at","'+431588010","'+4315880141275","23.08.2020"
14,"BOKU","Universität für Bodenkultur Wien","Bildung","Universität","Gregor-Mendel-Straße 33",1180,,"datenschutz@boku.ac.at","'+431476540",,"23.08.2020"
15,"KFU","Karl-Franzens-Universität Graz","Bildung","Universität","Universitätsplatz 3",8010,,"info@uni-graz.at","'+433163800","'+433163809030","23.08.2020"
16,"UIBK","Leopold-Franzens-Universität Innsbruck","Bildung","Universität","Innrain 52",6020,,"datenschutzbeauftragter@uibk.ac.at","'+435125070",,"23.08.2020"
17,"AAU","Alpen-Adria-Universität Klagenfurt","Bildung","Universität","Universitätsstraße 65-67",9020,,"uni@aau.at","'+434632700",,"23.08.2020"
18,"Donau Uni","Universität für Weiterbildung Krems","Bildung","Universität","Dr.-Karl-Dorrek-Straße 30",3500,,"info@donau-uni.ac.at","'+4327328930","'+4327328934000","23.08.2020"
19,"Uni Leoben","Montanuniversität Leoben","Bildung","Universität","Franz-Josef-Straße 18",8700,,"office@unileoben.ac.at","'+4338424027001","'+4338424027012","23.08.2020"
20,"JKU","Johannes Kepler Universität Linz","Bildung","Universität","Altenberger Straße 69",4040,,"datenschutz@jku.at","'+4373224680","+4373224684929","23.08.2020"
21,"MOZ","Universität Mozarteum Salzburg","Bildung","Universität","Mirabellplatz 1",5020,,"info@moz.ac.at","'+4366261980","'+4366261983033","23.08.2020"
22,"Uni Salzburg","Paris-Lodron-Universität Salzburg","Bildung","Universität","Kapitelgasse 4",5020,,"datenschutz@sbg.ac.at","'+4366280440","'+436628044145",
23,"Uni Wien","Universität Wien","Bildung","Universität","Universitätsring 1",1010,,"dsba@univie.ac.at","'+43142770",,
24,"Vetmeduni Vienna","Veterinärmedizinische Universität Wien","Bildung","Universität","Veterinärplatz 1",1210,,"datenschutz@vetmeduni.ac.at","'+431250771097","+431250771090",
25,"WU Wien","Wirtschaftsuniversität Wien","Bildung","Universität","Welthandelsplatz 1, AD",1020,,"datenschutz@wu.ac.at","'+431313360",,
26,"Bertha von Suttner Privatuniversität","Bertha von Suttner Privatuniversität St. Pölten GmbH","Bildung","Privatuniversität","Matthias Corvinus-Straße 15",3100,,"office@suttneruni.at","'+432742313228800",,
27,"CEU","Central European University ","Bildung","Privatuniversität","Quellenstraße 51-55",1100,,"communications_office@ceu.edu","+3613273000",,
28,"DPU","Danube Private University GmbH","Bildung","Privatuniversität","Steiner Landstraße 124",3500,,"info@dp-uni.ac.at","'+43676842419305",,
29,"GMPU","Gustav Mahler Privatuniversität für Musik","Bildung","Privatuniversität","Mießtalerstraße 8",9020,,"info@gmpu.ac.at","'+435053616552",,
30,"Jam Music Lab","JAM MUSIC LAB GmbH","Bildung","Privatuniversität","Guglgasse 12, Gasometer C 37-37",1110,,"office@jammusiclab.com","'+4319466846",,
31,"KL","Karl Landsteiner Privatuniversität für Gesundheitswissenschaften GmbH","Bildung","Privatuniversität","Dr.-Karl-Dorrek-Straße 30",3500,,"office@kl.ac.at","'+432732720900","+43273272090500",
32,"PMU","Paracelsus Medizinische Privatuniversität Salzburg – Privatstiftung","Bildung","Privatuniversität","Strubergasse 21",5020,,"datenschutz@pmu.ac.at","'+4366224200","+43662242080009",
33,"UMIT Tirol","UMIT Private Universität für Gesundheitswissenschaften, Medizinische Informatik und Technik GmbH","Bildung","Privatuniversität","Eduard-Wallnöfer-Zentrum 1",6060,,"rektorat@umit.at","'+435086483000","+43508648673001",
34,"Bruckner Uni","Anton Bruckner Privatuniversität","Bildung","Privatuniversität","Hagenstraße 57",4040,,"information@bruckneruni.at","'+43732701000","'+43732701000299",
35,"KU Linz","Katholische Privat-Universität Linz","Bildung","Privatuniversität","Bethlehemstraße 20",4020,,"office@ku-linz.at","'+43732784293","'+437327842934155",
36,"NDU","New Design University Privatuniversität GesmbH","Bildung","Privatuniversität","Mariazeller Straße 97a",3100,,"office@ndu.ac.at","'+4327428902411","'+4327428902413",
37,"Uni Seeburg","Privatuniversität Schloss Seeburg GmbH","Bildung","Privatuniversität","Seeburgstraße 8",5201,,"info@uni-seeburg.at","'+43621226260",,
38,"SFU","Sigmund Freud Privatuniversität Wien","Bildung","Privatuniversität","Freudplatz 1",1020,,"rektorat@sfu.ac.at","'+4317984098",,
39,"Modul University Vienna","Modul University Vienna GmbH","Bildung","Privatuniversität","Am Kahlenberg 1",1190,,"office@modul.ac.at","'+4313203555","'+4313203555902",
40,"MUK","Musik und Kunst Privatuniversität der Stadt Wien GmbH","Bildung","Privatuniversität","Johannesgasse 4a",1010,,"office@muk.ac.at","'+4315127747","'+43151277477913",
41,"Webster Vienna Private University","Webster Vienna Private University","Bildung","Privatuniversität","Praterstrasse 23",1020,,"info@webster.ac.at","'+43126992930",,
42,"FH Burgenland","Fachhochschule Burgenland GmbH","Bildung","Fachhochschule","Campus 1",7000,,"office@fh-burgenland.at","'+4357705","'+43577051199",
43,"FH Kärnten","Fachhochschule Kärnten - Gemeinnützige Privatstiftung","Bildung","Fachhochschule","Villacher Straße 1",9800,,"info@fh-kaernten.at","'+43590500","'+435905009910",
44,"IMC Fachhochschule Krems","IMC Fachhochschule Krems GmbH","Bildung","Fachhochschule","Piaristengasse 1",3500,,"datenschutz@fh-krems.ac.at","'+432732802",,
45,"FH St. Pölten","Fachhochschule St. Pölten GmbH","Bildung","Fachhochschule","Matthias Corvinus-Straße 15",3100,,"csc@fhstp.ac.at","'+432742313228200","'+432742313228339",
46,"FH Wiener Neustadt","Fachhochschule Wiener Neustadt GmbH","Bildung","Fachhochschule","Johannes Gutenberg-Straße 3",2700,,"office@fhwn.ac.at","'+432622890840","'+4326228908499",
47,"FH Oberösterreich","FH OÖ Studienbetriebs GmbH","Bildung","Fachhochschule","Roseggerstraße 15",4600,,"info@fh-ooe.at","+435080410","+435080411900",
48,"FH Salzburg","Fachhochschule Salzburg GmbH","Bildung","Fachhochschule","Urstein Süd 1",5412,,"medien@fh-salzburg.ac.at","'+435022110","'+435022111099",
49,"FH Campus 02","CAMPUS 02 Fachhochschule der Wirtschaft GmbH","Bildung","Fachhochschule","Körblergasse 126",8010,,"info@campus02.at","+433166002177","+4331660021207",
50,"FH Joanneum","FH Joanneum Gesellschaft mbH","Bildung","Fachhochschule","Alte Poststraße 149",8020,,"info@fh-joanneum.at","+4331654530",,
51,"FH Kufstein","Fachhochschule Kufstein Tirol Bildungs GmbH","Bildung","Fachhochschule","Andreas Hofer-Straße 7",6330,,"info@fh-kufstein.ac.at","+43537271819","‘+43537271819104",
52,"FH Vorarlberg","Fachhochschule Vorarlberg GmbH","Bildung","Fachhochschule","Hochschulstraße 1",6850,,"info@fhv.at","'+435572792","'+4355727929500",
53,"Fachhochschule des bfi Wien","Fachhochschule des bfi Wien","Bildung","Fachhochschule",,,,,,,
54,"Fachhochschule Technikum Wien","Fachhochschule Technikum Wien","Bildung","Fachhochschule",,,,,,,
55,"FH Campus Wien","FH Campus Wien","Bildung","Fachhochschule",,,,,,,
56,"FHWien","FHWien","Bildung","Fachhochschule",,,,,,,
57,"Ferdinand Porsche Fern-Fachhochschule","Ferdinand Porsche Fern-Fachhochschule","Bildung","Fachhochschul-Einrichtung",,,,,,,
58,"Theresianische Militärakademie","Theresianische Militärakademie","Bildung","Fachhochschul-Einrichtung",,,,,,,
59,"FH Gesundheitsberufe Oberösterreich","FH Gesundheitsberufe Oberösterreich","Bildung","Fachhochschul-Einrichtung",,,,,,,
60,"FH Gesundheit Tirol","FH Gesundheit Tirol","Bildung","Fachhochschul-Einrichtung",,,,,,,
61,"Management Center Innsbruck","Management Center Innsbruck","Bildung","Fachhochschul-Einrichtung",,,,,,,
62,"Lauder Business School","Lauder Business School","Bildung","Fachhochschul-Einrichtung",,,,,,,
63,"Private Pädagogische Hochschule Burgenland","Private Pädagogische Hochschule Burgenland","Bildung","Pädagogische Hochschule",,,,,,,
64,"Pädagogische Hochschule Kärnten","Pädagogische Hochschule Kärnten","Bildung","Pädagogische Hochschule",,,,,,,
65,"Pädagogische Hochschule Niederösterreich","Pädagogische Hochschule Niederösterreich","Bildung","Pädagogische Hochschule",,,,,,,
66,"Pädagogische Hochschule Oberösterreich","Pädagogische Hochschule Oberösterreich","Bildung","Pädagogische Hochschule",,,,,,,
67,"Pädagogische Hochschule Salzburg","Pädagogische Hochschule Salzburg","Bildung","Pädagogische Hochschule",,,,,,,
68,"Pädagogische Hochschule Steiermark","Pädagogische Hochschule Steiermark","Bildung","Pädagogische Hochschule",,,,,,,
69,"Pädagogische Hochschule Tirol","Pädagogische Hochschule Tirol","Bildung","Pädagogische Hochschule",,,,,,,
70,"Pädagogische Hochschule Vorarlberg","Pädagogische Hochschule Vorarlberg","Bildung","Pädagogische Hochschule",,,,,,,
71,"Pädagogische Hochschule Wien","Pädagogische Hochschule Wien","Bildung","Pädagogische Hochschule",,,,,,,
72,"Kirchliche Pädagogische Hochschule Graz","Kirchliche Pädagogische Hochschule Graz","Bildung","Pädagogische Hochschule",,,,,,,
73,"Private Pädagogische Hochschule der Diözese Linz","Private Pädagogische Hochschule der Diözese Linz","Bildung","Pädagogische Hochschule",,,,,,,
74,"Kirchliche Pädagogische Hochschule Wien/Krems","Kirchliche Pädagogische Hochschule Wien/Krems","Bildung","Pädagogische Hochschule",,,,,,,
75,"Kirchliche Pädagogische Hochschule – Edith Stein mit den Standorten Feldkirch","Kirchliche Pädagogische Hochschule – Edith Stein mit den Standorten Feldkirch","Bildung","Pädagogische Hochschule",,,,,,,
76,"Hochschule für Agrar- und Umweltpädagogik","Hochschule für Agrar- und Umweltpädagogik","Bildung","Pädagogische Hochschule",,,,,,,
77,"Jüdische Pädagogische Akademie","Jüdische Pädagogische Akademie","Bildung","Pädagogische Hochschule",,,,,,,
