"Name","Branche","Adresse","PLZ","Stadt","Land","E-Mail","Tel","Fax"
"""wieder wohnen"" - Betreute Unterkünfte für wohnungslose Menschen gemeinnützige GmbH",,,,,,,,
"AWZ Soziales Wien GmbH",,,,,,,,
"Fonds ""Soziales Wien""",,,,,,,,
"FSW - Wiener Pflege- und Betreuungsdienste GmbH",,,,,,,,
"Sucht- und Drogenkoordination Wien gemeinnützige GmbH",,,,,,,,
"Suchthilfe Wien gemeinnützige GmbH",,,,,,,,
"Vereinigte Bühnen Wien Ges.m.b.H.",,,,,,,,
"Wiener Gesundheitsfonds",,,,,,,,
"Wiener Gesundheitsförderung gemeinnützige GmbH",,,,,,,,
"Wiener Krankenanstaltenverbund",,,,,,,,
"Wirtschaftsagentur Wien",,,,,,,,
"BESTATTUNG WIEN GmbH",,,,,,,,
"FRIEDHÖFE WIEN GmbH",,,,,,,,
"Stadt Wien - Wiener Wohnen",,,,,,,,
"Stadt Wien - Wiener Wohnen Kundenservice GmbH",,,,,,,,
"Unternehmung ""Wien Kanal""",,,,,,,,
"W24 Programm GmbH",,,,,,,,
"WIEN ENERGIE GmbH",,,,,,,,
"Wien Holding GmbH",,,,,,,,
"Wien House GmbH",,,,,,,,
"Wien Kanal Beteiligungs GmbH",,,,,,,,
"WIENER STADTWERKE Holding AG",,,,,,,,
"Wiener Wohnen Haus- & Außenbetreuung GmbH",,,,,,,,
"WienIT EDV Dienstleistungsgesellschaft mbH & Co KG",,,,,,,,
"WIPARK Garagen GmbH",,,,,,,,
